Company Name,Category,Source,Headquarters,No of Employees,Annual Revenue (US$ m),Email,URL,Phone Number,Fax,Address,City,State,Country
22nd Century Group,Health,GlobalData,United States of America,82,$26,,www.xxiicentury.com,1 716 2701523,1 716 8773064,9530 Main Street,Clarence,New York,United States of America
3SBio,Health,GlobalData,China,"5,047",$693,,www.3sbio.com,86 24 25386000,86 24 25811821,"No.3 A1, Road 10, Shenyang Economy & Technology Development Zone",Shenyang,Liaoning,China
4D Pharma,Health,GlobalData,United Kingdom,93,,info@4dpharmaplc.com,www.4dpharmaplc.com,,,9 Bond Court,Leeds,,United Kingdom
4SC,Health,GlobalData,Germany,42,$5,public@4sc.com,www.4sc.com,49 89 7007630,49 89 70076329,Fraunhoferstr. 22,Planegg,Bayern,Germany
60 Degrees Pharmaceuticals,Health,JPM,,,,,,,,,,,
A Chemicals,Health,GlobalData,China,"1,073",$179,,www.abachem.com,86 512 53641368,86 512 53642000,No. 18 Dongfang East Road,Taicang,Jiangsu,China
A&D Company,Health,GlobalData,Japan,"2,557",$398,,www.aandd.jp,81 3 53916132,81 3 53911566,3-23-14 Higashi-Ikebukuro,Tokyo City,Tokyo,Japan
A6 Pharmaceuticals,Health,JPM,,,,,,,,,,,
AB Science,Health,GlobalData,France,123,$2,contact@ab-science.com,www.ab-science.com,33 1 47200014,33 1 47202411,"3, Avenue George V",Paris,Ile-de-France,France
Abbott,Health,JPM,,,,,,,,,,,
AbbVie,Health,GlobalData,,,,,,,,,,,
ABL Bio,Health,JPM,,,,,,,,,,,
AC Immune,Health,GlobalData,Switzerland,104,$7,info@acimmune.com,www.acimmune.com,41 21 3459121,41 21 3459120,"EPFL Innovation Park, Building B",LAUSANNE,,Switzerland
Acadia Pharmaceuticals,Health,GlobalData,United States of America,465,$224,info@acadia-pharm.com,www.acadia-pharm.com,1 858 5582871,1 858 5582872,"Suite 300, 3611 Valley Centre Drive",San Diego,California,United States of America
ACADIA Pharmaceuticals ,Health,JPM,,,,,,,,,,,
Acasti Pharma,Health,GlobalData,Canada,11,,info@acastipharma.com,www.acastipharma.com,1 450 6864555,1 450 6862505,"Suite 100, 545 Promenade du Centropolis",Laval,Quebec,Canada
Acasti Pharma,Health,JPM,,,,,,,,,,,
Accelerate Dinostics,Health,GlobalData,United States of America,239,$6,contact@axdx.com,acceleratediagnostics.com,1 520 3653100,1 520 2696580,"Suite 470, 4th Floor , 3950 South Country Club Road",Tuscon,Arizona,United States of America
Accelerated Biosciences Corp.,Health,JPM,,,,,,,,,,,
Acceleron Pharma,Health,GlobalData,United States of America,173,$14,info@acceleronpharma.com,www.acceleronpharma.com,1 617 6499200,1 617 6499988,128 Sidney Street,Cambridge,Massachusetts,United States of America
Accolade Pharma,Health,JPM,,,,,,,,,,,
Accuray,Health,GlobalData,United States of America,998,$405,,www.accuray.com,1 888 522 3740,1 408 7164601,1310 Chesapeake Ter,Sunnyvale,California,United States of America
Accuronix Therapeutics,Health,JPM,,,,,,,,,,,
ACEA Biosciences,Health,JPM,,,,,,,,,,,
AcelRx Pharmaceuticals,Health,GlobalData,United States of America,57,$2,info@acelrx.com,www.acelrx.com,1 650 2163500,,351 Galveston Drive,Redwood City,California,United States of America
Acer Therapeutics,Health,GlobalData,United States of America,23,,,www.acertx.com,,,"Suite 351, One Gateway Center",Newton,Massachusetts,United States of America
Achaogen,Health,GlobalData,United States of America,42,$9,info@achaogen.com,www.achaogen.com,1 650 8003636,,"Suite 300, 1 Tower Place",South San Francisco,California,United States of America
Achelios Therapeutics,Health,JPM,,,,,,,,,,,
Achillion Pharmaceuticals,Health,GlobalData,United States of America,56,,,www.achillion.com,1 203 6247000,1 203 6247003,300 George St,New Haven,Connecticut,United States of America
Aciont ,Health,JPM,,,,,,,,,,,
Aclaris Therapeutics,Health,GlobalData,United States of America,169,$10,,www.aclaristx.com,1 484 3247933,1 302 6555049,"Suite 200, 640 Lee Road",Wayne,Pennsylvania,United States of America
Acorda Therapeutics,Health,GlobalData,United States of America,474,$471,info@acorda.com,www.acorda.com,1 914 3474300,1 914 3474560,420 Saw Mill River Raod,Ardsley,New York,United States of America
Actinium Pharmaceuticals,Health,GlobalData,United States of America,30,,,www.actiniumpharma.com,1 646 6773870,,"7th Floor, 275 Madison Avenue",New York,New York,United States of America
Actinogen Medical,Health,JPM,,,,,,,,,,,
Adagene ,Health,JPM,,,,,,,,,,,
Adamas Pharmaceuticals,Health,GlobalData,United States of America,159,$34,info@adamaspharma.com,adamaspharma.com,1 510 4503554,1 510 4280519,1900 Powell St Ste 750,EMERYVILLE,California,United States of America
Adamis Pharmaceuticals,Health,GlobalData,United States of America,152,$15,,www.adamispharmaceuticals.com,1 858 9972400,,"Suite 300, 11682 El Camino Real",San Diego,California,United States of America
Adaptimmune Therapeutics,Health,GlobalData,United Kingdom,430,$60,,,44 1235 430000,44 1235 430001,"91, Park Drive",Abingdon,Oxfordshire,United Kingdom
Addgene,Health,GlobalData,,,,,,,,,,,
ADial Pharmaceuticals ,Health,JPM,,,,,,,,,,,
Adjay Holdings,Health,JPM,,,,,,,,,,,
Adocia,Health,GlobalData,France,132,$56,,www.adocia.com,33 4 72610610,33 4 72363967,115 Avenue Lacassagne,Lyon,Auvergne,France
Aduro BioTech,Health,GlobalData,United States of America,152,$15,,www.aduro.com,1 510 8484400,1 302 6555049,740 Heinz Ave,BERKELEY,California,United States of America
Aduro Biotech,Health,JPM,,,,,,,,,,,
Advanz Pharmaceutical,Health,GlobalData,Canada,435,$537,info@concordiarx.com,www.advanzpharma.com,1 905 8425150,1 905 8425154,"Suite 302, 277 Lakeshore Road East",Oakville,Ontario,Canada
Advaxis,Health,GlobalData,United States of America,58,$6,ir@advaxis.com,www.advaxis.com,1 732 5451590,1 302 6745266,305 College Road East,Princeton,New Jersey,United States of America
Adverum Biotechnologies,Health,GlobalData,United States of America,78,$2,,www.adverum.com,1 650 6569323,1 650 3298151,"Suite A, 1035 O’Brien Drive",Menlo Park,California,United States of America
Adynxx ,Health,JPM,,,,,,,,,,,
Aeglea BioTherapeutics,Health,GlobalData,United States of America,61,$4,info@aegleabio.com,aegleabio.com,1 512 9422935,1 512 8725121,"Suite 250, 901 S. MoPac Expressway",Austin,Texas,United States of America
AELLS ,Health,JPM,,,,,,,,,,,
Aequor ,Health,JPM,,,,,,,,,,,
Aerie Pharmaceuticals,Health,GlobalData,United States of America,353,$24,info@aeriepharma.com,www.aeriepharma.com,1 949 5268700,,"Suite 1500 , 2030 Main Street",Irvine,California,United States of America
Aeterna Zentaris,Health,JPM,,,,,,,,,,,
Aevi Genomic Medicine,Health,GlobalData,United States of America,17,,,www.aevigenomics.com,1 610 2544201,,"Suite 715, 435 Devon Park Drive",Wayne,Pennsylvania,United States of America
Affigen,Health,JPM,,,,,,,,,,,
Affimed,Health,GlobalData,Germany,110,$28,info@affimed.com,www.affimed.com,49 6221 674360,49 6221 6743649,Im Neuenheimer Feld 582,Heidelberg,Baden-Wurttemberg,Germany
Affymax,Health,GlobalData,United States of America,4,$1,,www.affymax.com,1 650 8128700,1 302 6555049,630 5th Ave Ste 2260,New York,New York,United States of America
Afimmune,Health,JPM,,,,,,,,,,,
Agenovir Corporation,Health,JPM,,,,,,,,,,,
Agile Sciences,Health,JPM,,,,,,,,,,,
Agios Pharmaceuticals ,Health,JPM,,,,,,,,,,,
Ahi Intecc,Health,GlobalData,Japan,"6,998",$452,,www.asahi-intecc.com,81 52 7681211,81 52 7681221,1703 Wakita-cho,Nagoya-Shi,Aichi,Japan
AIBIOS Co. ,Health,JPM,,,,,,,,,,,
Aier Eye Hospital Group,Health,GlobalData,China,"16,430","$1,211",aierio@aierchina.com,www.aierchina.com,86 731 85174163,86 731 85179288,"Section 198 , New Century Mansion, zhonglu Road",CHANGSHA,Hunan,China
Aileron Therapeutics,Health,GlobalData,United States of America,23,,info@aileronrx.com,www.aileronrx.com,1 617 9950900,1 617 9952410,281 Albany Street,Cambridge,Massachusetts,United States of America
Aimmune Therapeutics,Health,GlobalData,United States of America,228,,info@aimmune.com,www.aimmune.com,1 650 6145220,1 650 6160075,"Suite 200, 8000 Marina Boulevard",Brisbane,California,United States of America
Air Products and Chemicals,Health,GlobalData,United States of America,"16,000","$8,930",info@airproducts.com,www.airproducts.com,1 610 4814911,1 610 4815900,7201 Hamilton Boulevard,Allentown,Pennsylvania,United States of America
Airway Therapeutics ,Health,JPM,,,,,,,,,,,
Aju Pharm Co.,Health,JPM,,,,,,,,,,,
Akari Therapeutics,Health,GlobalData,United States of America,13,,,www.akaritx.com,1 646 3500702,1 646 8439352,24 W 40th St Fl 8,New York,New York,United States of America
Akcea Therapeutics,Health,GlobalData,United States of America,248,$65,info@akceatx.com,www.akceatx.com,1 617 2070202,,55 Cambridge Parkway,CAMBRIDGE,Massachusetts,United States of America
Akebia Therapeutics,Health,GlobalData,United States of America,325,$208,info@akebia.com,akebia.com,1 617 8712098,1 617 8712099,"Suite 1100, 245 First Street",Cambridge,Massachusetts,United States of America
Akorn,Health,GlobalData,United States of America,"2,191",$694,,www.akorn.com,1 800 9325676,1 800 9433694,"Suite 300, 1925 West Field Court",Lake Forest,Illinois,United States of America
Akrimax Pharmaceuticals,Health,JPM,,,,,,,,,,,
Akzo Nobel,Health,GlobalData,Netherlands,"34,400","$10,923",,www.akzonobel.com,31 20 5027555,31 20 5027666,"P.O. Box 75730, Christian Neefestraat 2",Amsterdam,Noord-Holland,Netherlands
Albemarle,Health,GlobalData,United States of America,"5,900","$3,375",,www.albemarle.com,1 980 2995700,1 980 2995512,"Suite 700, 4350 Congress Street",Charlotte,North Carolina,United States of America
Albireo Pharma,Health,GlobalData,United States of America,39,$13,,www.albireopharma.com,1 857 4154774,1 302 6365454,"10 Post Office Square, Suite 502 South",BOSTON,Massachusetts,United States of America
Albumedix,Health,JPM,,,,,,,,,,,
Alder Biopharmaceuticals,Health,GlobalData,United States of America,202,,info@alderbio.com,www.alderbio.com,1 425 2052900,1 425 2052901,11804 North Creek Parkway South,Bothell,Washington,United States of America
Aldeyra Therapeutics,Health,GlobalData,United States of America,19,,,www.aldeyra.com,1 781 7614904,,"Suite 320, 131 Hartwell Avenue",Lexington,Massachusetts,United States of America
Alector,Health,GlobalData,United States of America,91,$28,info@alector.com,alector.com,1 415 2315660,1 302 6555049,"Suite 300, 151 Oyster Point Blvd",South San Francisco,California,United States of America
Alembic Pharmaceuticals,Health,GlobalData,India,"9,526",$459,infoal@alembic.co.in,www.alembic-india.com,91 265 2282550,91 265 2281508,Alembic Road,Vadodara,Gujarat,India
Alexza Pharmaceuticals ,Health,JPM,,,,,,,,,,,
Alfre Holdings,Health,GlobalData,Japan,"11,901","$23,480",,www.alfresa.com,81 3 52195100,81 3 52195103,1-1-3 Otemachi,Chiyoda-ku,Tokyo,Japan
ALFRESA PHARMA CORP,Health,JPM,,,,,,,,,,,
Algomedix ,Health,JPM,,,,,,,,,,,
Alimera Sciences,Health,GlobalData,United States of America,124,$47,,www.alimerasciences.com,1 678 9905740,1 678 9905744,"Suite 290, 6120 Windward Pkwy",Alpharetta,Georgia,United States of America
ALK-ello,Health,GlobalData,Denmark,"2,379",$462,,www.alk.net,45 45 747576,45 45 748690,Boege Alle 6-8,Horsholm,,Denmark
Alkermes,Health,GlobalData,Ireland,"2,300","$1,094",,www.alkermes.com,353 1 7728000,,"Connaught House, 1 Burlington Road",Dublin,Leinster,Ireland
Allakos,Health,GlobalData,United States of America,64,,info@allakos.com,www.allakos.com,1 650 5975002,,"Suite 201, 975 Island Drive",Redwood,California,United States of America
Allena Pharmaceuticals,Health,GlobalData,United States of America,49,,info@allenapharma.com,www.allenapharma.com,1 617 4674577,1 617 9161871,"Suite 202, One Newton Executive Park",Newton,Massachusetts,United States of America
Allergy Therapeutics,Health,GlobalData,United Kingdom,499,$91,,www.allergytherapeutics.com,44 1903 844700,44 1903 844726,Dominion Way,Worthing,West Sussex,United Kingdom
Allogene Therapeutics,Health,GlobalData,United States of America,151,,info@allogene.com,www.allogene.com,1 650 4572700,1 302 6365454,210 E Grand Ave,South San Francisco,California,United States of America
AlloMek Therapeutics,Health,JPM,,,,,,,,,,,
Almirall ,Health,JPM,,,,,,,,,,,
Alpine Immune Sciences,Health,GlobalData,United States of America,48,$1,,www.alpineimmunesciences.com,1 206 7884545,,"Suite 230, 201 Elliott Ave West",Seattle,Washington,United States of America
Altimmune,Health,GlobalData,United States of America,27,$10,,www.altimmune.com,1 240 6541450,,"Suite 201S, 910 Clopper Road",Gaithersburg,Maryland,United States of America
Altis Biosystems,Health,JPM,,,,,,,,,,,
Altum Pharmaceuticals ,Health,JPM,,,,,,,,,,,
ALVOGEN,Health,JPM,,,,,,,,,,,
AM Pharmaceuticals,Health,GlobalData,United States of America,467,$474,contactus@amagpharma.com,www.amagpharma.com,1 617 4983300,1 617 6491632,1100 Winter Street,Waltham,Massachusetts,United States of America
AM-Pharma BV,Health,JPM,,,,,,,,,,,
Amarin,Health,GlobalData,Ireland,530,$229,,www.amarincorp.com,353 1 6699020,,"2 Pembroke House, Upper Pembroke Street 28-32",Dublin,Leinster,Ireland
AmbioPharm ,Health,JPM,,,,,,,,,,,
American Gene Technologies International,Health,JPM,,,,,,,,,,,
Amgen,Health,GlobalData,,,,,,,,,,,
Amicus Therapeutics,Health,GlobalData,United States of America,508,$91,info@amicusrx.com,www.amicusrx.com,1 609 6622000,1 609 6622001,1 Cedarbrook Dr,Cranbury,New Jersey,United States of America
Amneal Pharmaceuticals,Health,GlobalData,United States of America,"6,000","$1,663",,www.amneal.com,1 908 9473120,1 908 9473146,"3rd Floor, 400 Crossing Boulevard",Bridgewater,New Jersey,United States of America
Amorepacific,Health,GlobalData,South Korea,"5,811","$4,801",,us.amorepacific.com,82 2 7095114,82 2 7096339,"100, Cheonggyecheon-ro, Jung-gu",Seoul City,,South Korea
Amoy Dinostics,Health,GlobalData,China,541,$66,,www.amoydiagnostics.com,86 592 6806835,86 592 6806839,", 39 Dingshan Road",XIAMEN,Fujian,China
Amphastar Pharmaceuticals,Health,GlobalData,United States of America,"2,078",$295,,www.amphastar.com,1 800 4234136,,11570 6th Street,Rancho Cucamonga,California,United States of America
AmpliPhi BioSciences Corporation,Health,JPM,,,,,,,,,,,
Amryt Pharma,Health,GlobalData,United Kingdom,41,$17,,www.amrytpharma.com,44 20 3178,,"Dept 920A, 196 High Road, Wood Green",London,Greater London,United Kingdom
Amygdala Neurosciences ,Health,JPM,,,,,,,,,,,
Amyris,Health,GlobalData,United States of America,414,$80,info@amyris.com,www.amyris.com,1 510 4500761,1 510 2252645,"Suite 100, 5885 Hollis Street",Emeryville,California,United States of America
Anaeropharma Science ,Health,JPM,,,,,,,,,,,
AnaptysBio,Health,GlobalData,United States of America,78,$5,info@anaptysbio.com,www.anaptysbio.com,1 858 3626295,1 858 3626296,10421 Pacific Center Ct Ste 200,San Diego,California,United States of America
Anavex Life Sciences,Health,GlobalData,United States of America,13,,info@anavex.com,www.anavex.com,1 800 6893939,,"7th Floor, 51 West 52nd Street",New York,New York,United States of America
Andon Health,Health,GlobalData,China,"1,879",$88,,www.jiuan.com,86 22 27371310,86 22 27463749,"Tianjin Ya'an Road, Jinping Road",Tianjin City,Tianjin,China
Angelini ACRAF ,Health,JPM,,,,,,,,,,,
AnGes,Health,GlobalData,Japan,48,$6,,www.anges.co.jp,81 3 57302641,,"1F, Saito Bio-Incubator, 7-7-15, Saito-asagi",Ibaraki,Osaka,Japan
AngioDynamics,Health,GlobalData,United States of America,"1,145",$344,info@angiodynamics.com,www.angiodynamics.com,1 518 7981215,1 518 7951401,14 Plaza Drive,Latham,New York,United States of America
Anhui Anke Biotechnology,Health,GlobalData,China,"1,993",$221,info@ankebio.com,www.ankebio.com,86 551 65319890,86 551 65319895,"Ankebio Building, 669 Changjiang Road",Hefei,Anhui,China
ANI Pharmaceuticals,Health,GlobalData,United States of America,299,$202,customerservice@anipharmaceuticals.com,www.anipharmaceuticals.com,1 218 6343500,1 218 6343540,210 Main Street West,Baudette,Minnesota,United States of America
Anika Therapeutics,Health,GlobalData,United States of America,133,$106,,www.anikatherapeutics.com,1 781 4579000,1 781 3059720,32 Wiggins Avenue,Bedford,Massachusetts,United States of America
Antares Pharma,Health,GlobalData,United States of America,165,$64,,www.antarespharma.com,1 609 3593020,1 302 6555049,"Suite 300, 100 Princeton South",Ewing,New Jersey,United States of America
Anthera Pharmaceuticals,Health,GlobalData,United States of America,21,,,www.anthera.com,1 510 8565600,1 510 8565597,"Suite B, 25801 Industrial Blvd.",Hayward,California,United States of America
Apellis Pharmaceuticals,Health,GlobalData,United States of America,87,,info@apellis.com,apellis.com,1 502 2414114,1 302 6555049,"Suite A, 6400 Westwind Way",Crestwood,Kentucky,United States of America
Apeloa,Health,GlobalData,China,"5,761",$964,,www.apeloa.com,86 579 86557527,86 579 6557819,"No.333, Jiangnan Road",Jinhua,Zhejiang,China
Apexian Pharmaceuticals,Health,JPM,,,,,,,,,,,
Apollo Endosurgery,Health,GlobalData,United States of America,215,$61,,apolloendo.com,1 512 2795100,1 302 6745266,"Suite 300, Building 1",Austin,Texas,United States of America
Aposense,Health,JPM,,,,,,,,,,,
Apothecaries,Health,JPM,,,,,,,,,,,
Appili Therapeutics,Health,JPM,,,,,,,,,,,
Applied Genetic Technologies,Health,GlobalData,United States of America,78,$24,,www.agtc.com,1 386 4622204,,"Suite 10, 14193 NW 119th Terrace",Alachua,Florida,United States of America
Applied Therapeutics,Health,GlobalData,United States of America,9,,info@appliedtherapeutics.com,www.appliedtherapeutics.com,1 212 2209319,1 302 6365454,"Floor 19, 340 Madison Avenue",New York City,New York,United States of America
AptamiR Therapeutics ,Health,JPM,,,,,,,,,,,
Aptevo Therapeutics,Health,GlobalData,United States of America,118,$23,info@apvo.com,www.aptevotherapeutics.com,1 206 8380500,1 206 8380503,"Suite 1050, 2401, 4th Avenue",Seattle,Washington,United States of America
Aptinyx,Health,GlobalData,United States of America,63,$7,corporate@aptinyx.com,www.aptinyx.com,1 847 8710377,,"Suite 600, 909 Davis Street",Evanston,Illinois,United States of America
Aptose Biosciences,Health,GlobalData,Canada,22,,,aptose.com,1 647 4799828,1 416 7982200,"Suite 1105, 251 Consumers Road",MISSISSAUGA,Ontario,Canada
Aquestive Therapeutics,Health,GlobalData,United States of America,277,$67,,aquestive.com,1 908 9411900,1 302 6365454,30 Technology Drive,Warren,New Jersey,United States of America
Aquinnah Pharmaceuticals,Health,JPM,,,,,,,,,,,
Aquinox Pharmaceuticals,Health,GlobalData,Canada,8,$25,info@aqxpharma.com,www.aqxpharma.com,1 604 6299223,1 778 3314486,"Suite 450, 887 Great Northern Way",Vancouver,British Columbia,Canada
Aradigm,Health,GlobalData,United States of America,23,$14,,www.aradigm.com,1 510 2659000,1 510 2658878,3929 Point Eden Way,Hayward,California,United States of America
Aralez Pharmaceuticals,Health,JPM,,,,,,,,,,,
Arbutus Biopharma,Health,GlobalData,Canada,80,$6,,www.arbutusbio.com,1 604 4193200,,100-8900 Glenlyon Parkway,Burnaby,British Columbia,Canada
Arcturus Therapeutics,Health,GlobalData,United States of America,72,$16,info@arcturusrx.com,www.alcobra-pharma.com,1 858 9002660,972 7 22204664,"Suite 200, 10628 Science Center Drive",San Diego,California,United States of America
Arcus Biosciences,Health,GlobalData,United States of America,108,$8,webmaster@arcusbio.com,www.arcusbio.com,1 650 4899000,1 302 7301370,3928 Point Eden Way,Hayward,California,United States of America
Ardelyx,Health,GlobalData,United States of America,86,$3,info@ardelyx.com,www.ardelyx.com,1 510 7451700,,"Suite 200
 
 , 34175 Ardenwood Boulevard",Fremont,California,United States of America
Arena Pharmaceuticals,Health,GlobalData,United States of America,194,$18,IR@arenapharm.com,www.arenapharm.com,1 858 4537200,1 858 4537210,6154 Nancy Ridge Drive,San Diego,California,United States of America
Argenx,Health,GlobalData,Netherlands,73,$25,,www.argen-x.com,31 76 3030488,,Willemstraat 5,Breda,Noord-Brabant,Netherlands
Aridis Pharmaceuticals,Health,GlobalData,United States of America,23,$3,info@aridispharma.com,aridispharma.com,1 408 3851742,1 408 9603822,5941 Optical Ct,San Jose,California,United States of America
Arkema,Health,GlobalData,France,"20,010","$10,404",,www.arkema.com,33 149 008080,,420 rue d'Estienne d'Orves,Paris,Ile-de-France,France
ARMO Biosciences,Health,GlobalData,United States of America,31,,contact@armobio.com,www.armobio.com,1 650 7795075,1 302 5313150,575 Chesapeake Drive,Redwood City,California,United States of America
Arnis,Health,GlobalData,United States of America,15,$4,info@arsanis.com,www.arsanis.com,1 781 8195704,,"Suite 230, 890 Winter Street",Waltham,Massachusetts,United States of America
ArQule,Health,GlobalData,United States of America,36,$26,,www.arqule.com,1 781 9940300,1 781 3766019,One Wall Street,Burlington,Massachusetts,United States of America
Array BioPharma,Health,GlobalData,United States of America,298,$174,info@arraybiopharma.com,www.arraybiopharma.com,1 303 3816600,1 302 6365454,3200 Walnut St,Boulder,Colorado,United States of America
Arrien Pharmaceuticals,Health,JPM,,,,,,,,,,,
Arrowhead Pharmaceuticals,Health,GlobalData,United States of America,116,$16,info@arrowheadpharma.com,www.arrowheadpharma.com,1 626 3043400,1 626 3043401,"Suite 1050, 225 South Lake Avenue",Pasadena,California,United States of America
Artery Therapeutics ,Health,JPM,,,,,,,,,,,
ArunA Biomedical ,Health,JPM,,,,,,,,,,,
Arven Ilac San ve Tic A.S.,Health,JPM,,,,,,,,,,,
Arvinas,Health,GlobalData,United States of America,83,$14,info@arvinas.com,arvinas.com,1 203 5351456,1 302 6365454,5 Science Park,New Haven,Connecticut,United States of America
Arzeda,Health,JPM,,,,,,,,,,,
Asahi Kasei Pharma Corporation,Health,JPM,,,,,,,,,,,
Ascendis Pharma,Health,GlobalData,Denmark,137,$12,info@ascendispharma.com,www.ascendispharma.com,45 70 222244,,Tuborg Boulevard 5,Hellerup,,Denmark
Asclepiumm Taiwan,Health,JPM,,,,,,,,,,,
Ascletis Pharma,Health,GlobalData,China,,$25,,www.ascletis.com,,,"Floor 18, Bldg No. 4, Gemini International No. 1785, Jianghan Road",Hangzhou,Zhejiang,China
Asieris Pharmaceuticals,Health,JPM,,,,,,,,,,,
ASIT Biotech,Health,GlobalData,Belgium,20,,,asitbiotech.com,32 2 2640390,32 2 2640399,Avenue Ariane 5,Brussels,,Belgium
ASKA Pharmaceutical,Health,GlobalData,Japan,856,$442,,www.aska-pharma.co.jp,81 3 54848366,81 3 54848302,2-5-1 Shibaura,Tokyo City,Tokyo,Japan
Aslan Pharmaceuticals,Health,GlobalData,United Kingdom,,,contact@aslanpharma.com,www.aslanpharma.com,,,190 Elgin Avenue,George Town,Cayman Islands,United Kingdom
Aspect Biosystems ,Health,JPM,,,,,,,,,,,
Aspiera Medical ,Health,JPM,,,,,,,,,,,
Assembly Biosciences,Health,GlobalData,United States of America,95,$15,info@assemblybio.com,www.assemblybio.com,1 212 5842276,,"Suite 310, 11711 North Meridian Street",Carmel,Indiana,United States of America
Astellas Pharma ,Health,JPM,,,,,,,,,,,
Asterias Biotherapeutics,Health,GlobalData,United States of America,31,$4,,www.asteriasbiotherapeutics.com,1 510 4563805,1 800 9894671,6300 Dumbarton Circle,Fremont,California,United States of America
ASTP-Proton,Health,GlobalData,,,,,,,,,,,
AstraZeneca ,Health,GlobalData,,,,,,,,,,,
Astrocyte Pharmaceuticals,Health,JPM,,,,,,,,,,,
Asymchem Loratories,Health,GlobalData,China,"3,291",$277,,www.asymchem.com.cn,86 22 66252889,86 22 66252777,"No 6, Dongting 3rd Street, Tianjin Economic Technological Development Zone",Tianjin City,Tianjin,China
Atara Biotherapeutics,Health,GlobalData,United States of America,311,,office@atarabio.com,www.atarabio.com,1 650 2788930,1 302 5313150,"Suite 900, 611 Gateway Boulevard",South San Francisco,California,United States of America
Atelix ,Health,JPM,,,,,,,,,,,
athenahealth,Health,GlobalData,United States of America,"5,156","$1,220",,www.athenahealth.com,1 617 4021000,1 617 4021099,311 Arsenal Street,Watertown,Massachusetts,United States of America
Athenex,Health,GlobalData,United States of America,575,$89,info@athenex.com,www.athenex.com,1 716 8988625,1 716 8006816,"Suite 600, 1001 Main Street",Buffalo,New York,United States of America
Athersys,Health,GlobalData,United States of America,75,$24,info@athersys.com,www.athersys.com,1 216 4319900,1 216 3619495,3201 Carnegie Avenue,Cleveland,Ohio,United States of America
Atreca ,Health,JPM,,,,,,,,,,,
AtriCure,Health,GlobalData,United States of America,620,$202,,www.atricure.com,1 513 7554100,1 513 7554567,7555 Innovation Way,MASON,Ohio,United States of America
Attenua ,Health,JPM,,,,,,,,,,,
aTyr Pharma,Health,GlobalData,United States of America,42,,,www.atyrpharma.com,1 858 7318389,1 858 7318394,"Suite 250, 3545 John Hopkins Court",San Diego,California,United States of America
Audentes Therapeutics,Health,GlobalData,United States of America,207,,info@audentestx.com,www.audentestx.com,1 415 8181001,,"17th Floor, 600 California Street",San Francisco,California,United States of America
AurimMed Pharma ,Health,JPM,,,,,,,,,,,
Aurin Biotech ,Health,JPM,,,,,,,,,,,
Aurinia Pharmaceuticals,Health,GlobalData,Canada,39,$0,,www.auriniapharma.com,1 250 7442487,1 250 7442498,1203-4464 Markham Street,Victoria,British Columbia,Canada
Auris Medical ,Health,JPM,,,,,,,,,,,
Autolus Therapeutics,Health,GlobalData,United Kingdom,166,$1,contact@autolus.com,www.autolus.com,44 20 38296230,,"Forest House, 58 Wood Lane",London,Greater London,United Kingdom
Avadel Pharmaceuticals,Health,GlobalData,Ireland,144,$103,,www.avadel.com,353 1 4851200,353 1 5261077,"Block 10-1, Blanchardstown Corporate Park, Ballycoolin",Dublin,Leinster,Ireland
Avanos Medical,Health,GlobalData,United States of America,"4,700",$652,,www.halyardhealth.com,1 844 4259273,,5405 Windward Parkway,Alpharetta,Georgia,United States of America
Avedro,Health,GlobalData,United States of America,122,$28,info@avedro.com,avedro.com,1 844 5283376,1 302 6555049,201 Jones Road,Waltham,Massachusetts,United States of America
Avenue Therapeutics,Health,GlobalData,United States of America,6,,info@avenuetx.com,dev.avenuetx.com,1 781 6524500,,"9th Floor
 
 , 2 Gansevoort Street",New York,New York,United States of America
AVEO Oncology,Health,GlobalData,United States of America,17,$5,,www.aveooncology.com,1 617 5881960,,"One Broadway, 14th Floor",Cambridge,Massachusetts,United States of America
Avery Therapeutics ,Health,JPM,,,,,,,,,,,
Avesthagen Limited,Health,JPM,,,,,,,,,,,
Aveta Biomics ,Health,JPM,,,,,,,,,,,
AveXis,Health,GlobalData,United States of America,219,,info@avexis.com,avexis.com,1 972 7257797,1 302 6555049,"Suite 160, 2275 Half Day Road",Bannockburn,Illinois,United States of America
Avid Bioservices,Health,GlobalData,United States of America,185,$54,,www.avidbio.com,1 714 5086100,1 714 8385817,"Suite 200
 
 , 2642 Michelle Drive",Tustin,California,United States of America
Avidity Biosciences,Health,JPM,,,,,,,,,,,
Aviragen Therapeutics ,Health,JPM,,,,,,,,,,,
Avitide,Health,JPM,,,,,,,,,,,
AVM Biotechnology,Health,JPM,,,,,,,,,,,
AVROBIO,Health,GlobalData,United States of America,58,,info@avrobio.com,www.avrobio.com,1 617 9148420,,"Suite 201, Building 300, One Kendall Square",Cambridge,Massachusetts,United States of America
Axcella Health,Health,GlobalData,United States of America,49,,info@axcellahealth.com,www.axcellahealth.com,1 857 3202200,1 617 4416243,840 Memorial Drive,Cambridge,Massachusetts,United States of America
AxoGen,Health,GlobalData,United States of America,278,$84,customercare@axogeninc.com,www.axogeninc.com,1 386 4626817,1 386 4626801,"Suite 400, 13631 Progress Boulevard",Alachua,Florida,United States of America
Axonics Modulation Technologies,Health,GlobalData,United States of America,87,$1,,www.axonicsmodulation.com,1 949 3966322,1 949 3966321,26 Technology Drive,Irvine,California,United States of America
Axovant Sciences,Health,GlobalData,United Kingdom,45,,,www.axovant.com,44 203 3189708,,"Suite 1, 3rd Floor, 11-12 Street James's Square",London,Greater London,United Kingdom
Axsome Therapeutics,Health,GlobalData,United States of America,29,,info@axsome.com,axsome.com,1 212 3323241,1 302 6365454,"Floor 9, 25 Broadway",New York,New York,United States of America
Azitra,Health,JPM,,,,,,,,,,,
Basilea Pharmaceutica,Health,GlobalData,Switzerland,225,$108,info_basilea@basilea.com,www.basilea.com,41 61 6061111,41 61 6061112,Grenzacherstrasse 487,Basel,Zurich,Switzerland
Bastion Biologics,Health,JPM,,,,,,,,,,,
Bausch Health Companies,Health,GlobalData,Canada,"21,100","$8,380",,www.bauschhealth.com,1 514 7446792,1 514 7446272,2150 Saint-Elzear Blvd W,LAVAL,Quebec,Canada
Bavarian Nordic,Health,GlobalData,Denmark,419,$79,info@bavarian-nordic.com,www.bavarian-nordic.com,45 33268383,45 33268380,Hejreskovvej 10A,Helsingor,,Denmark
Baxter,Health,GlobalData,,,,,,,,,,,
Bayer AG,Health,GlobalData,,,,,,,,,,,
Bayer Pharmaceuticals,Health,JPM,,,,,,,,,,,
BBN Cardio Therapeutics,Health,JPM,,,,,,,,,,,
BCO Pharma,Health,JPM,,,,,,,,,,,
BD Biosciences,Health,GlobalData,,,,,,,,,,,
Beacon Discovery ,Health,JPM,,,,,,,,,,,
Beiersdorf,Health,GlobalData,Germany,"20,059","$8,536",,www.beiersdorf.com/,49 40 49090,49 40 49093434,Unnastrasse 48,Hamburg,,Germany
Beijing Koruns Pharmaceutical Co,Health,JPM,,,,,,,,,,,
Beijing SL Pharmaceutical Co,Health,GlobalData,China,657,$184,slpharm@slpharm.com.cn,www.slpharm.com.cn,86 10 88627635,86 10 88795883,"No.1 Building, Bitongyuan, No.69 Fu shi Road",,Beijing,China
Beijing Tiantan Biological Products,Health,GlobalData,China,"3,195",$443,ttsw@sinopharm.com,www.tiantanbio.com,86 10 65434018,86 10 65436770,"Zhongdan Center, No. 4",Beijing,Beijing,China
Beijing Tide Pharmaceutical ,Health,JPM,,,,,,,,,,,
Beijing Tong Ren Tang,Health,GlobalData,China,"17,139","$2,148",,www.tongrentanggf.com,86 10 67179817,,"Tongrentang Building, No. 42 Chongwai Street",Beijing,Beijing,China
Bell Biosystems ,Health,JPM,,,,,,,,,,,
Bellerophon Therapeutics,Health,GlobalData,United States of America,22,,,www.bellerophon.com,1 908 5744770,,"Suite 302, 184 Liberty Corner Road",Warren,New Jersey,United States of America
Bellicum Pharmaceuticals,Health,GlobalData,United States of America,173,$1,,www.bellicum.com,1 832 3841100,,"Suite 800, Life Science Plaza 2130 West Holcombe Boulevard",Houston,Texas,United States of America
Bemis Company,Health,GlobalData,United States of America,"15,700","$4,090",contactbemis@bemis.com,www.bemis.com,1 920 7274100,,2301 Industrial Drive,Neenah,Wisconsin,United States of America
Bergen Teknologieverforing,Health,GlobalData,,,,,,,,,,,
BerGenBio,Health,JPM,,,,,,,,,,,
Berggren ,Health,GlobalData,,,,,,,,,,,
BESINS Healthcare,Health,JPM,,,,,,,,,,,
Bessor Pharma,Health,JPM,,,,,,,,,,,
Beta Cat Pharmaceuticals,Health,JPM,,,,,,,,,,,
Betta Pharmaceuticals,Health,GlobalData,China,"1,160",$185,betta@bettapharma.com,www.bettapharma.com,86 571 86130357,,"No. 589, Hongfeng Road, Yuhang Economic and Technological Development Zone",Hangzhou,Zhejiang,China
BeyondSpring,Health,GlobalData,United States of America,38,,general@beyondspringpharma.com,www.beyondspringpharma.com,1 646 3056387,1 646 2199660,"39th Floor, 28 Liberty Street",New York City,New York,United States of America
Bio Techne,Health,GlobalData,United States of America,"2,000",$643,info@bio-techne.com,www.techne-corp.com,1 612 3798854,1 612 6564400,614 McKinley Place N.E.,Minneapolis,Minnesota,United States of America
Bio-Rad Loratories,Health,GlobalData,United States of America,"8,260","$2,289",,www.bio-rad.com,1 510 7247000,1 510 7415817,1000 Alfred Nobel Drive,Hercules,California,United States of America
BioBlocks,Health,JPM,,,,,,,,,,,
Biocartis Group,Health,GlobalData,Belgium,331,$33,info@biocartis.com,www.biocartis.com,32 15 632600,,Generaal de Wittelaan 11 B3,Mechelen,,Belgium
Biocodex ,Health,JPM,,,,,,,,,,,
Biocon ,Health,JPM,,,,,,,,,,,
BioCryst Pharmaceuticals,Health,GlobalData,United States of America,85,$21,info@biocryst.com,www.biocryst.com,1 919 8591302,1 919 8591314,"Suite 200, 4505 Emperor Blvd.",Durham,North Carolina,United States of America
BioEclipse Therapeutics,Health,JPM,,,,,,,,,,,
BioGaia,Health,GlobalData,Sweden,144,$85,info@biogaia.se,www.biogaia.com,46 8 55529300,46 8 55529301,Kungsbroplan 3A,,,Sweden
Biohaven Pharmaceutical  Co,Health,GlobalData,United States of America,63,,,www.biohavenpharma.com,1 203 4040410,,234 Church Street,New Haven,Connecticut,United States of America
BioIent International,Health,GlobalData,Sweden,61,$4,info@bioinvent.com,www.bioinvent.se/,46 46 2868550,46 46 2110806,"Gammahuset, Solvegatan 41",LUND,,Sweden
BioLineRx,Health,GlobalData,Israel,48,,info@BioLineRx.com,www.biolinerx.com,972 8 6429100,972 8 6429101,"Modi'in Technology Park, 2 HaMa'ayan Street",MODIIN,,Israel
Biological Mimetics,Health,JPM,,,,,,,,,,,
Biolotus Biotech ,Health,JPM,,,,,,,,,,,
BioMedT2 ,Health,GlobalData,,,,,,,,,,,
Biomm ,Health,JPM,,,,,,,,,,,
Bionix ,Health,JPM,,,,,,,,,,,
Bionomics,Health,GlobalData,Australia,140,$3,info@bionomics.com.au,www.bionomics.com.au,61 8 83546100,61 8 83546199,31 Dalgleish Street,Thebarton,South Australia,Australia
Biopharma Global,Health,JPM,,,,,,,,,,,
BioPharmX,Health,JPM,,,,,,,,,,,
Biophytis,Health,GlobalData,France,,,,ww.biophytis.com,33 1 44272300,,"14, avenue de l’Opera",Paris,Ile-de-France,France
BioSense Global ,Health,JPM,,,,,,,,,,,
Biosortia Pharmaceuticals,Health,JPM,,,,,,,,,,,
Biostart,Health,JPM,,,,,,,,,,,
BioTechnique,Health,JPM,,,,,,,,,,,
Biotest,Health,GlobalData,Germany,"1,663",$472,mail@biotest.de,www.biotest.com,49 6103 8010,49 6103 801150,Landsteinerstr. 5,Dreieich,Hessen,Germany
Biothera Pharmaceuticals ,Health,JPM,,,,,,,,,,,
BioTime,Health,GlobalData,United States of America,76,$5,info@biotimeinc.com,www.biotimeinc.com,1 510 5213390,,"Suite 102, 1010 Atlantic Avenue",Alameda,California,United States of America
Bioversys AG,Health,JPM,,,,,,,,,,,
BioXcel Therapeutics,Health,GlobalData,United States of America,18,,info@bioxceltherapeutics.com,www.bioxceltherapeutics.com,1 203 6438060,1 302 6365454,"5th Floor, 555 Long Wharf Drive",Branford,Connecticut,United States of America
Biozeus Biopharmaceutical,Health,JPM,,,,,,,,,,,
Blade Therapeutics,Health,JPM,,,,,,,,,,,
bluebird bio,Health,GlobalData,United States of America,827,$55,info@bluebirdbio.com,www.bluebirdbio.com,1 339 4999300,1 302 6365454,60 Binney Street,Cambridge,Massachusetts,United States of America
Blueprint Medicines,Health,GlobalData,United States of America,239,$45,info@blueprintmedicines.com,www.blueprintmedicines.com,1 617 3747580,,45 Sidney Street,Cambridge,Massachusetts,United States of America
Boehringer Ingelheim,Health,GlobalData,,,,,,,,,,,
Bone Therapeutics,Health,GlobalData,Belgium,87,$1,info@bonetherapeutics.com,www.bonetherapeutics.com,32 2 5295990,32 2 5295993,Rue Auguste Piccard 37,Gosselies,Hainaut,Belgium
Bonti ,Health,JPM,,,,,,,,,,,
Boost Biomes,Health,JPM,,,,,,,,,,,
Boryung Pharmaceutical,Health,GlobalData,South Korea,"1,144",$419,,www.boryung.co.kr,82 2 7088000,,"136 Boryung Building, Changgyeonggung-ro",Seoul City,,South Korea
Boston Scientific,Health,GlobalData,,,,,,,,,,,
BrainXell ,Health,JPM,,,,,,,,,,,
Briacell Therapeutics Corp,Health,JPM,,,,,,,,,,,
Bridge Therapeutics,Health,JPM,,,,,,,,,,,
BridgeBio,Health,JPM,,,,,,,,,,,
BRIM Biotechnology ,Health,JPM,,,,,,,,,,,
Bristol-Myers Squibb,Health,GlobalData,,,,,,,,,,,
Bruker,Health,GlobalData,United States of America,"6,870","$1,896",,www.bruker.com,1 978 6633660,1 978 6635585,40 MANNING RD,BILLERICA,Massachusetts,United States of America
BTG,Health,GlobalData,United Kingdom,"1,512",$813,info@btgplc.com,www.btgplc.com,44 20 75750000,44 20 75750010,5 Fleet Place,London,Greater London,United Kingdom
Bukwang Pharm,Health,GlobalData,South Korea,617,$177,,www.bukwang.co.kr,82 2 8288114,82 2 8288029,"7, Sangdo-ro",Seoul City,,South Korea
Bukwang Pharmaceutical,Health,JPM,,,,,,,,,,,
Cadila Healthcare ,Health,JPM,,,,,,,,,,,
Cairn Biosciences,Health,JPM,,,,,,,,,,,
Caladrius Biosciences ,Health,JPM,,,,,,,,,,,
Calithera Biosciences,Health,GlobalData,United States of America,79,$22,,www.calithera.com,1 650 8701000,1 302 6555049,"Suite 200, 343 Oyster Point Blvd",South San Francisco,California,United States of America
Calliditas Therapeutics,Health,GlobalData,Sweden,10,,,www.calliditas.seen,46 8 4113005,46 8 6113303,Wallingatan 26B,stockholm,,Sweden
Calypso Biotech SA,Health,JPM,,,,,,,,,,,
Camargo Pharmaceutical Services,Health,JPM,,,,,,,,,,,
Cambrex,Health,GlobalData,United States of America,"1,732",$532,,www.cambrex.com,1 201 8043000,1 201 8049852,One Meadowlands Plaza,East Rutherford,New Jersey,United States of America
Camtech Diagnostics,Health,JPM,,,,,,,,,,,
Camurus,Health,GlobalData,Sweden,94,$6,info@camurus.com,www.camurus.com,46 46 2865730,46 46 2865739,Solvegatan 41 A,Lund,,Sweden
Can-Fite BioPharma ,Health,JPM,,,,,,,,,,,
Cancer Therapeutics CRC,Health,JPM,,,,,,,,,,,
Cantex Pharmaceuticals,Health,JPM,,,,,,,,,,,
Capella Biosciences ,Health,JPM,,,,,,,,,,,
Capricor Therapeutics,Health,GlobalData,United States of America,18,$2,,www.capricor.com,1 310 3583200,,"2nd Floor
 
 , 8840 Wilshire Boulevard",Beverly Hills,California,United States of America
Cara Therapeutics,Health,GlobalData,United States of America,55,$13,,www.caratherapeutics.com,1 203 4063700,,"9th Floor, 4 Stamford Plaza, 107 Elm Street",Stamford,Connecticut,United States of America
Cardiovascular Systems,Health,GlobalData,United States of America,652,$217,info@csi360.com,csi360.com,1 651 2591600,1 612 6773355,1225 Old Highway 8 Northwest,St. Paul,Minnesota,United States of America
CareDx,Health,GlobalData,United States of America,227,$77,customercare@caredx.com,www.caredxinc.com,1 415 2872300,1 415 2872450,3260 Bayshore Boulevard,Brisbane,California,United States of America
Caribou Biosciences,Health,JPM,,,,,,,,,,,
Carmot Therapeutics ,Health,JPM,,,,,,,,,,,
Carna Biosciences ,Health,JPM,,,,,,,,,,,
Carrick Therapeutics,Health,JPM,,,,,,,,,,,
Carsgen Therapeutics Corporation,Health,JPM,,,,,,,,,,,
Cary Pharmaceuticals ,Health,JPM,,,,,,,,,,,
Cascadian Therapeutics,Health,GlobalData,United States of America,57,,,www.cascadianrx.com,1 206 8012100,1 206 8012101,"Suite 500, 2601 4th Avenue",Seattle,Washington,United States of America
Cassiopea,Health,GlobalData,Italy,8,,info@cassiopea.com,www.cassiopea.com,39 028 6891124,,Via Cristoforo Colombo 1,Milan,Lombardia,Italy
Catalyst Biosciences,Health,GlobalData,United States of America,21,$0,,www.catalystbiosciences.com,1 650 8710761,,"Suite 710, 611 Gateway Boulevard",South San Francisco,California,United States of America
Catalyst Pharmaceuticals,Health,GlobalData,United States of America,51,$1,info@catalystpharma.com,www.catalystpharma.com,1 305 5292522,1 302 6365454,"Suite 1250, 355 Alhambra Cir",Coral Gables,Florida,United States of America
Catalytic Data Science,Health,JPM,,,,,,,,,,,
Catasis Pharmaceuticals,Health,GlobalData,United States of America,24,,info@catabasis.com,www.catabasis.com,1 617 3491971,1 617 2732637,"Suite B14202, One Kendall Square, Building 1400E",Cambridge,Massachusetts,United States of America
Caventure Drug Discovery ,Health,JPM,,,,,,,,,,,
Cavion,Health,JPM,,,,,,,,,,,
Cayuga Biotech,Health,JPM,,,,,,,,,,,
CbsBioscience,Health,JPM,,,,,,,,,,,
CBT Pharmaceuticals,Health,JPM,,,,,,,,,,,
CelaCare Technologies ,Health,JPM,,,,,,,,,,,
Celanese,Health,GlobalData,United States of America,"7,684","$7,155",,www.celanese.com,1 972 4434000,1 302 6555049,"Suite 900N, 222 W. Las Colinas Blvd.",Irving,Texas,United States of America
Celgene,Health,GlobalData,,,,,,,,,,,
Cell Machines ,Health,JPM,,,,,,,,,,,
Cell Medica ,Health,JPM,,,,,,,,,,,
Celldex Therapeutics,Health,GlobalData,United States of America,137,$10,info@celldex.com,www.celldex.com,1 908 2007500,1 908 4541911,"Suite 220, Perryville III Building, 53 Frontage Road",Hampton,New Jersey,United States of America
Cellectis,Health,GlobalData,France,149,$21,,www.cellectis.com,33 1 81691600,33 1 81691606,8 Rue de la Croix-Jarry,Paris,Ile-de-France,France
Cellivery Therapeutics ,Health,JPM,,,,,,,,,,,
CellMedics ,Health,JPM,,,,,,,,,,,
Cellmid Limited,Health,JPM,,,,,,,,,,,
Celltrion,Health,GlobalData,South Korea,"1,074",$893,contact@celltrion.com,www.celltrion.com,82 2 16618722,82 32 8505040,"23, Academy-ro, Yeonsu-gu",Incheon,,South Korea
Cellular Biomedicine Group,Health,GlobalData,United States of America,193,$0,info@cellbiomedgroup.com,www.cellbiomedgroup.com,1 408 9737884,1 408 9737846,"Suite 100
 
 , 19925 Stevens Creek Boulevard",Cupertino,California,United States of America
Celsion,Health,GlobalData,United States of America,29,$1,celsion@celsion.com,celsion.com,1 609 8969100,1 609 8962200,"Suite 100, 997 Lenox Drive",Lawrenceville,New Jersey,United States of America
Celyad,Health,GlobalData,Belgium,96,$4,info@celyad.com,www.celyad.com,32 10 394100,32 10 394141,"Axis Business Park
 
 , Rue Edouard Belin 2",Mont-Saint-Guibert,Brabant Wallon,Belgium
Center Loratories,Health,GlobalData,Taiwan,322,$718,center@centerlab.com.tw,www.centerlab.com.tw,886 2 26558680,886 2 26558380,"No.3-2, 7th Floor, Yuanqu Street",Taipei City,Taipei,Taiwan
CENTOGENE,Health,JPM,,,,,,,,,,,
Central Life Sciences,Health,GlobalData,,,,,,,,,,,
Centrexion Therapeutics,Health,GlobalData,United States of America,14,,,centrexion.com,1 617 8376911,,"6th Floor, 200 State Street",Boston,Massachusetts,United States of America
Centrose,Health,JPM,,,,,,,,,,,
Certerra ,Health,GlobalData,,,,,,,,,,,
Cerus,Health,GlobalData,United States of America,240,$76,,www.cerus.com,1 925 2886000,1 925 2886001,2550 Stanwell Drive,Concord,California,United States of America
Cetylite Industries,Health,JPM,,,,,,,,,,,
CG Pharmaceuticals ,Health,JPM,,,,,,,,,,,
Changchun High-tech Industrial,Health,GlobalData,China,"5,072",$813,,www.cchn.com.cn,86 431 85666376,86 431 85675390,"5th Floor, Torch Building, 2400 Tongzhi Street",Changchun,Jilin,China
CharlestonPharma,Health,JPM,,,,,,,,,,,
Charsire Biotechnology Corp,Health,JPM,,,,,,,,,,,
Checkpoint Therapeutics,Health,GlobalData,United States of America,7,$4,info@checkpointtx.com,www.checkpointtx.com,1 212 5544366,1 302 5313150,2 Gansevoort St Fl 9,NEW YORK,New York,United States of America
ChemoCentryx,Health,GlobalData,United States of America,76,$43,info@chemocentryx.com,www.chemocentryx.com,1 650 2102900,1 650 2102910,850 Maude Avenue,Mountain View,California,United States of America
Chemveda Life Sciences ,Health,JPM,,,,,,,,,,,
Chengdu Kanghong Pharmaceuticals Group,Health,GlobalData,China,"4,382",$441,,www.cnkh.com,86 28 87509966,86 28 87505658,"No. 36, West Road",Chengdu,Sichuan,China
Chengzhi,Health,GlobalData,China,"4,424",$887,web@thcz.com.cn,www.chengzhi.com.cn,86 791 83826890,,"9F, Huajiang Building, TusPark , Economic and Technological Development Zone",Nanchang,Jiangxi,China
Chiasma,Health,GlobalData,United States of America,18,,,www.chiasmapharma.com,1 844 3042462,,"Suite 530, 460 Totten Pond Road",Waltham,Massachusetts,United States of America
Chimera Bioengineering,Health,JPM,,,,,,,,,,,
Chimerix,Health,GlobalData,United States of America,82,$7,,www.chimerix.com,1 919 8061074,1 919 8061146,"Suite 100, 2505 Meridian Parkway",Durham,North Carolina,United States of America
Chimeron Bio,Health,JPM,,,,,,,,,,,
China Baoan Group,Health,GlobalData,China,"13,620","$1,046",,www.chinabaoan.com,86 755 25170336,86 755 25170367,"No. 28-29, Block A, Baoan Plaza, No. 1002, Sungang East Road",Shenzhen,Shenzhen,China
China Chemical & Pharmaceutical,Health,GlobalData,Taiwan,"1,401",$252,info@ccpc.com.tw,www.ccpc.com.tw,886 2 23124200,886 2 23615143,"No. 23, Hsiang Yang Road, Zhongzheng District",Taipei City,Taipei,Taiwan
China Grand,Health,JPM,,,,,,,,,,,
China Meheco,Health,GlobalData,China,"8,610","$4,688",meheco@meheco.com.cn,www.meheco.com,86 10 67116688,86 10 67121579,"No. 18 Guangming Zhongjie, Dongcheng District",Beijing,Beijing,China
China Resources Double-Crane Pharmaceutical,Health,GlobalData,China,"12,010","$1,243",,www.dcpc.com,86 10 64742227,,"No. 1, East 2nd Road",Beijing,Beijing,China
China Resources Pharmaceutical Group,Health,GlobalData,Hong Kong,"62,000","$24,204",pub@crpharm.com,www.crpharm.com,852 25938991,852 25938992,"Room 4105, 41st Floor, China Resources Building, 26 Harbour Road",Hong Kong City,,Hong Kong
China Resources Sanjiu,Health,GlobalData,China,"15,044","$2,030",000999@999.com.cn,www.999.com.cn,86 755 83360999,86 755 83360999,"Guanlan Hi-tech Park, No. 1 Guanqing Road",Shenzen,Guangdong,China
China Shineway Pharmaceutical Group,Health,GlobalData,Hong Kong,"3,649",$389,,www.shineway.com.hk,852 3 5210816,852 3 5210821,"31st Floor, Suite 3109, Central Plaza, 18 Harbour Road",Hong Kong City,,Hong Kong
Chiome Bioscience ,Health,JPM,,,,,,,,,,,
Chiral Logic,Health,JPM,,,,,,,,,,,
CHO Plus ,Health,JPM,,,,,,,,,,,
Chong Kun Dang Pharmaceutical,Health,GlobalData,South Korea,"1,904",$870,,www.ckdpharm.com,82 2 21940300,82 2 21940369,"8, Chungjeong-ro, Seodaemun-gu",Seodaemun-gu,,South Korea
Chongqing Zhifei Biological Products,Health,GlobalData,China,"1,811",$790,,www.zhifeishengwu.com,86 23 86358226,86 23 86358685,"No. 7, 25th Floor, Jinyuan Road",Chongqing City,Chongqing,China
Church & Dwight,Health,GlobalData,United States of America,"4,700","$4,146",,www.churchdwight.com,1 609 8061200,,500 Charles Ewing Boulevard,Ewing,New Jersey,United States of America
Cible,Health,JPM,,,,,,,,,,,
Cidara Therapeutics,Health,GlobalData,United States of America,68,,info@cidara.com,www.cidara.com,1 858 7526170,,"Suite 101, 6310 Nancy Ridge Drive",San Diego,California,United States of America
Cinfa Biotech ,Health,JPM,,,,,,,,,,,
Cinnati Children's Hospital,Health,JPM,,,,,,,,,,,
CinRx Pharma,Health,JPM,,,,,,,,,,,
Cipher Pharmaceuticals ,Health,JPM,,,,,,,,,,,
Cipla,Health,GlobalData,India,"23,610","$2,229",cosecretary@cipla.com,www.cipla.com,91 22 24826000,91 22 24826120,"Cipla House, Peninsula Business Park",Mumbai,Maharashtra,India
Circassia Pharmaceuticals,Health,GlobalData,United Kingdom,366,$60,info@circassia.com,www.circassia.com,44 1865 405560,44 7092 987560,"Northbrook House, Robert Robinson Avenue",Oxford,,United Kingdom
CJ CheilJedang,Health,GlobalData,South Korea,"5,122","$16,983",,www.cj.co.kr/cj-en,82 2 67401114,82 2 7268112,"CJ CheilJedang Center, 330, Dongho-Ro",Seoul City,,South Korea
CJ HealthCare Corporation,Health,JPM,,,,,,,,,,,
Clariant International,Health,GlobalData,Switzerland,"17,901","$6,771",,www.clariant.com,41 614 696005,,Hardstrasse 61,Pratteln,Schwyz,Switzerland
Clearside BioMedical,Health,GlobalData,United States of America,50,$0,info@clearsidebio.com,www.clearsidebio.com,1 678 2703631,1 678 2704033,"Suite 200, 900 North Point Parkway",Alpharetta,Georgia,United States of America
Click Therapeutics,Health,JPM,,,,,,,,,,,
Cloud Pharmaceuticals,Health,JPM,,,,,,,,,,,
Clovis Oncology,Health,GlobalData,United States of America,468,$95,businessdevelopment@clovisoncology.com,www.clovisoncology.com,1 303 6255000,1 302 6555049,"Suite 100, 5500 Flatiron Parkway",Boulder,Colorado,United States of America
CMIC HOLDINGS Co. ,Health,JPM,,,,,,,,,,,
Codexis,Health,GlobalData,United States of America,132,$61,,www.codexis.com,1 650 4218100,1 302 6555049,200 Penobscot Dr,REDWOOD CITY,California,United States of America
Cognition Therapeutics,Health,JPM,,,,,,,,,,,
CohBar,Health,GlobalData,United States of America,12,,info@cohbar.com,www.cohbar.com,1 650 4467888,,1455 Adams Drive,Menlo Park,California,United States of America
Coherus BioSciences,Health,GlobalData,United States of America,232,,,www.coherus.com,1 800 794 5434,,"Suite 600, 333 Twin Dolphin Drive",Redwood City,California,United States of America
CoImmune,Health,GlobalData,United States of America,39,$2,,commune.pro,1 773 9853464,,"Suite 203, 1608 W Belmont Avenue",Chicago,Illinois,United States of America
Coloplast,Health,GlobalData,Denmark,"12,000","$2,605",coloplast@coloplast.com,www.coloplast.com,45 49111111,45 49111555,Holtedam 1-3,Humlebaek,,Denmark
Compugen,Health,GlobalData,Israel,89,$18,info@cgen.com,www.cgen.com,972 3 7658585,972 3 7658555,"Building D, Azrieli Center, 26 Harokmim Street",Holon,Tel Aviv,Israel
Conatus Pharmaceuticals,Health,GlobalData,United States of America,30,$34,info@conatuspharma.com,www.conatuspharma.com,1 858 3762600,,"Suite 200, 16745 West Bernardo Drive",San Diego,California,United States of America
Concert Pharmaceuticals,Health,GlobalData,United States of America,71,$11,info@concertpharma.com,www.concertpharma.com,1 781 8600045,1 302 6365454,"Suite 500, 99 Hayden Avenue",Lexington,Massachusetts,United States of America
Consegna Pharma ,Health,JPM,,,,,,,,,,,
Constellation Pharmaceuticals,Health,GlobalData,United States of America,82,,info@constellationpharma.com,www.constellationpharma.com,1 617 7140555,1 617 5770472,"Suite 200, 215 First Street",Cambridge,Massachusetts,United States of America
ContraFect,Health,GlobalData,United States of America,20,,,www.contrafect.com,1 914 2072300,,28 Wells Avenue,Yonkers,New York,United States of America
Corbion,Health,GlobalData,Netherlands,"2,040","$1,059",communications@corbion.com,www.corbion.com,31 20 5906911,31 20 6951942,Piet Heinkade 127,Amsterdam,Noord-Holland,Netherlands
Corbus Pharmaceuticals ,Health,GlobalData,United States of America,77,$5,info@corbuspharma.com,www.corbuspharma.com,1 617 9630100,,"2nd floor, 500 River Ridge Drive",Norwood,Massachusetts,United States of America
Corcept Therapeutics,Health,GlobalData,United States of America,166,$251,info@corcept.com,www.corcept.com,1 650 3273270,1 650 3273218,149 Commonwealth Dr,MENLO PARK,California,United States of America
Corium International,Health,GlobalData,United States of America,213,$32,,www.coriumintl.com,1 650 2988255,1 650 2988012,235 Constitution Drive,Menlo Park,California,United States of America
CorMedix,Health,GlobalData,United States of America,22,$0,,www.cormedix.com,1 908 5179500,1 908 3758272,"Suite 5000, 400 Connell Drive",Berkeley Heights,New Jersey,United States of America
Cortexyme,Health,GlobalData,United States of America,19,,info@cortexyme.com,www.cortexyme.com,1 415 2793644,1 302 6555049,"Suite 300, 329 Oyster Point Blvd",South San Francisco,California,United States of America
Corvus Pharmaceuticals,Health,GlobalData,United States of America,49,,,www.corvuspharma.com,1 650 9004520,,"Suite 102, 863 Mitten Road",Burlingame,California,United States of America
Cosmo Pharmaceuticals,Health,GlobalData,Ireland,291,$76,info@cosmopharma.com,www.cosmopharma.com,353 1 8170370,,"Riverside II, Sir John Rogerson's Quay",Dublin,Dublin,Ireland
Courier Therapeutics,Health,JPM,,,,,,,,,,,
Covis Pharma,Health,JPM,,,,,,,,,,,
CPC Scientific ,Health,JPM,,,,,,,,,,,
Crinetics Pharmaceuticals,Health,GlobalData,United States of America,47,$2,,www.crinetics.com,1 858 4506464,1 302 6365454,6197 Cornerstone Ct E Ste 111,SAN DIEGO,California,United States of America
CRISPR Therapeutics,Health,GlobalData,Switzerland,188,$3,,www.crisprtx.com,41 41 5613277,,Baarerstrasse 14,Zug,,Switzerland
Crown Bioscience,Health,GlobalData,Taiwan,,$74,,www.crownbio.com,886 2 77181690,,333 Keelung Road,Taipei City,Taipei,Taiwan
CryoLife,Health,GlobalData,United States of America,"1,100",$263,,www.cryolife.com,1 770 4193355,1 770 5903797,1655 Roberts Boulevard N.W.,Kennesaw,Georgia,United States of America
CSPC Pharma,Health,JPM,,,,,,,,,,,
CStone Pharmaceuticals,Health,GlobalData,China,115,,cstone@cstonepharma.com,www.cstonepharma.com,86 512 87186550,,"C1 Building, No. 218, Xinghu Street, Suzhou Industrial Park",Suzhou,Shanghai,China
CTI BioPharma,Health,GlobalData,United States of America,46,$26,,www.ctibiopharma.com,1 206 2827100,1 206 2846206,"Suite 800, 3101 Western Avenue",Seattle,Washington,United States of America
CTX Technology ,Health,JPM,,,,,,,,,,,
Cue Biopharma,Health,GlobalData,United States of America,46,$1,,www.cuebiopharma.com,1 617 9492680,,21 Erie Street,Cambridge,Massachusetts,United States of America
Cullinan Oncology,Health,JPM,,,,,,,,,,,
CURADEV PHARMA PVT ,Health,JPM,,,,,,,,,,,
Curis,Health,GlobalData,United States of America,"5,635",$10,info@curis.com,www.curis.com,1 617 5036500,1 617 5036501,4 Maguire Road,Lexington,Massachusetts,United States of America
Curonz Limited,Health,JPM,,,,,,,,,,,
Curtana Pharmaceuticals,Health,JPM,,,,,,,,,,,
Cutera,Health,GlobalData,United States of America,402,$163,,www.cutera.com,1 415 6575500,1 415 3302444,3240 Bayshore Boulevard,Brisbane,California,United States of America
Cyclacel Pharmaceuticals ,Health,JPM,,,,,,,,,,,
Cymay Therapeutics,Health,GlobalData,United States of America,43,,info@cymabay.com,www.cymabay.com,1 510 2938800,1 510 2939090,"Suite 130, 7999 Gateway Boulevard",Newark,California,United States of America
Cypre ,Health,JPM,,,,,,,,,,,
Cytodyn,Health,GlobalData,United States of America,6,,info@cytodyn.com,www.cytodyn.com,1 360 9808524,1 360 9808549,"Suite 660, 1111 Main Street",Vancouver,Washington,United States of America
Cytokinetics,Health,GlobalData,United States of America,130,$32,,cytokinetics.com,1 650 6243000,1 650 6243010,280 E Grand Ave,SOUTH SAN FRANCISCO,California,United States of America
CytomX Therapeutics,Health,GlobalData,United States of America,137,$60,,cytomx.com,1 650 5153185,1 650 3510353,"Suite 400, 151 Oyster Point Boulevard",South San Francisco,California,United States of America
CytoSen Therapeutics,Health,JPM,,,,,,,,,,,
Cytostrata Biosciences,Health,JPM,,,,,,,,,,,
Cytovance Biologics,Health,JPM,,,,,,,,,,,
Czechbio,Health,JPM,,,,,,,,,,,
Da Volterra,Health,JPM,,,,,,,,,,,
Daeng,Health,GlobalData,South Korea,"3,930","$2,690",webmaster@daesang.com,www.daesang.co.kr,82 2 22209500,82 2 22323719,,Dongdaemun,,South Korea
Daewoong,Health,GlobalData,South Korea,278,"$1,120",,www.daewoongholdings.com,82 2 21906969,82 31 5508009,"244, Galmachi-ro, Jungwon-gu",Seongnam,,South Korea
Daiichi Sankyo,Health,JPM,,,,,,,,,,,
Daito Pharmaceutical,Health,GlobalData,Japan,734,$360,,www.daitonet.co.jp,81 76 4215665,81 76 4216006,"326, Yokamachi",Toyama City,Toyama,Japan
Dauntless Pharmaceuticals ,Health,JPM,,,,,,,,,,,
DBV Technologies,Health,GlobalData,France,244,$17,info@dbv-technologies.com,www.dbv-technologies.com,33 1 55427878,33 1 43261083,177-181 avenue Pierre Brossolette,Montrouge,,France
Debiopharm International ,Health,JPM,,,,,,,,,,,
Dechra Pharmaceuticals,Health,GlobalData,United Kingdom,"1,437",$543,,www.dechra.com,44 1606 814730,,"Cheshire Business Park, 24 Cheshire Avenue",Northwich,England,United Kingdom
Deciphera Pharmaceuticals,Health,GlobalData,United States of America,112,,info@deciphera.com,www.deciphera.com,1 781 2096400,1 785 8302150,"6th Floor
 
 , 500 Totten Pond Road",Waltham,Massachusetts,United States of America
Deinove ,Health,JPM,,,,,,,,,,,
Delcath Systems,Health,GlobalData,United States of America,46,$3,,delcath.com,1 212 4892100,1 212 4892102,"Suite C, 22nd Floor, 1633 Broadway",New York,New York,United States of America
DelNova ,Health,JPM,,,,,,,,,,,
Delta-Fly Pharma ,Health,JPM,,,,,,,,,,,
Denali Therapeutics,Health,GlobalData,United States of America,179,$129,,denalitherapeutics.com,,,"2nd Floor, 151 Oyster Point Blvd.",South San Francisco,California,United States of America
Denovo Biopharma ,Health,JPM,,,,,,,,,,,
Dentsply Sirona,Health,GlobalData,United States of America,"16,400","$3,986",contact@dentsplysirona.com,www.dentsplysirona.com,1 717 8457511,1 302 6365454,"Susquehanna Commerce Center, 221 W. Philadelphia Street",York,Pennsylvania,United States of America
Dermira,Health,GlobalData,United States of America,333,$42,,www.dermira.com,1 650 4217200,,"Suite 150, 275 Middlefield Road",Menlo Park,California,United States of America
DesignMedix,Health,GlobalData,,,,,,,,,,,
DesignMedix ,Health,JPM,,,,,,,,,,,
DeuteRx,Health,JPM,,,,,,,,,,,
DexCom,Health,GlobalData,United States of America,"2,800","$1,032",,www.dexcom.com,1 858 2000200,1 302 6365454,6340 Sequence Drive,San Diego,California,United States of America
Diagnomics ,Health,JPM,,,,,,,,,,,
DiaMedica,Health,JPM,,,,,,,,,,,
Dianomi Therapeutics ,Health,JPM,,,,,,,,,,,
Dicerna Pharmaceuticals,Health,GlobalData,United States of America,78,$6,,www.dicerna.com,1 617 6218097,1 617 6126298,87 Cambridgepark Drive,Cambridge,Massachusetts,United States of America
Diligentia,Health,JPM,,,,,,,,,,,
Dimerix Bioscience Limited,Health,JPM,,,,,,,,,,,
DiscoveRx Corporation,Health,JPM,,,,,,,,,,,
Diurnal Group,Health,GlobalData,United Kingdom,27,$0,,www.diurnal.co.uk,44 29 20682069,,Cardiff Medicentre,Cardiff,Wales,United Kingdom
Dong E E Jiao,Health,GlobalData,China,"4,836","$1,109",webmaster@dongeejiao.com,www.dongeejiao.com,86 635 3262315,,"No. 78, Gelatan Street",LIAOCHENG,Shandong,China
Dong Wha Pharma,Health,GlobalData,South Korea,723,$279,dongwha@dong-wha.co.kr,www.dong-wha.co.kr,82 2 20219300,82 2 7767873,"19th Floor, LG Seoul Station Building, 98, Huam-ro",Seoul City,,South Korea
Dong-A Pharmaceutical Co. ,Health,JPM,,,,,,,,,,,
Dong-A Socio Holdings,Health,GlobalData,South Korea,273,$644,,en.donga.co.kr,82 2 9208114,82 2 9530336,"64, Cheonho-daero, Dongdaemun-gu",Seoul City,,South Korea
Dong-A ST,Health,GlobalData,South Korea,"1,591",$516,,www.donga-st.com,82 2 9208111,82 2 9254026,64 Cheonhodaero,Seoul City,,South Korea
Dongkook Pharmaceutical,Health,GlobalData,South Korea,757,$365,,www.dkpharm.co.kr,82 2 21919850,82 2 20199861,"Dongkook Building 7, Teheran-ro 108-gil",Seoul City,,South Korea
Dova Pharmaceuticals,Health,GlobalData,United States of America,115,$10,info@dova.com,www.dova.com,1 919 7485975,,"Suite 245, 240 Leigh Farm Road",Durham,North Carolina,United States of America
Dr. Reddy's Laboratories,Health,GlobalData,India,"23,524","$2,092",,www.drreddys.com,91 40 49002900,91 40 49002999,"8-2-337, Road No.3",Hyderabad,Telangana,India
DrugCendR ,Health,JPM,,,,,,,,,,,
DS Biopharma,Health,JPM,,,,,,,,,,,
DS Inpharmatics,Health,JPM,,,,,,,,,,,
Dualogics ,Health,JPM,,,,,,,,,,,
DURECT,Health,GlobalData,United States of America,88,$19,,www.durect.com,1 408 7771417,1 408 7773577,10260 Bubb Road,Cupertino,California,United States of America
Dyadic International ,Health,JPM,,,,,,,,,,,
Dynacure,Health,JPM,,,,,,,,,,,
Dynavax Technologies,Health,GlobalData,United States of America,249,$8,contact@dynavax.com,www.dynavax.com,1 510 8485100,1 510 8481327,2929 7th St Ste 100,BERKELEY,California,United States of America
EB Sub,Health,GlobalData,United States of America,73,$1,info@epirusbiopharma.com,www.epirusbiopharma.com,1 617 6003497,,"8th Floor, 699 Boylston St",Boston,Massachusetts,United States of America
Ecole Technologie Superieure,Health,GlobalData,,,,,,,,,,,
Eczacibasi Pharmaceuticals,Health,JPM,,,,,,,,,,,
Edge Therapeutics,Health,GlobalData,United States of America,10,,info@edgetherapeutics.com,www.edgetherapeutics.com,,,"Suite 4000, 300 Connell Drive",Berkeley Heights,New Jersey,United States of America
EdgeOne Medical,Health,GlobalData,,,,,,,,,,,
Editas Medicine,Health,GlobalData,United States of America,133,$32,info@editasmed.com,www.editasmedicine.com,1 617 4019000,1 302 6555049,11 Hurley Street,Cambridge,Massachusetts,United States of America
EffRx Pharmaceuticals ,Health,JPM,,,,,,,,,,,
Eidos Therapeutics,Health,GlobalData,United States of America,28,,info@eidostx.com,eidostx.com,1 415 8871471,,"Suite 2550, 101 Montgomery Street",San Francisco,California,United States of America
Eiger BioPharmaceuticals,Health,GlobalData,United States of America,18,,info@eigerbio.com,www.eigerbio.com,1 650 2799845,1 650 6181621,2155 Park Boulevard,Palo Alto,California,United States of America
Eisai ,Health,JPM,,,,,,,,,,,
EisnerAmper,Health,GlobalData,,,,,,,,,,,
Elanco Animal Health,Health,GlobalData,,,,,,,,,,,
Elanix Biotechnologies ,Health,JPM,,,,,,,,,,,
Ele Pharmaceuticals,Health,GlobalData,United States of America,96,$213,info@eagleus.com,www.eagleus.com,1 201 3265300,1 302 6365454,"Suite 315, 50 Tice Boulevard",Woodcliff Lake,New Jersey,United States of America
Elekta,Health,GlobalData,Sweden,"3,757","$1,331",info@elekta.com,www.elekta.com,46 8 58725400,46 8 58725500,Kungstensgatan 18,Stockholm,,Sweden
Elex Biotech,Health,JPM,,,,,,,,,,,
Eloxx Pharmaceuticals,Health,GlobalData,United States of America,29,,info@seviontherapeutics.com,www.eloxxpharma.com,1 858 9090749,1 302 6365454,"Suite 150, 950 Winter Street",Waltham,Massachusetts,United States of America
Elsalys Biotech,Health,JPM,,,,,,,,,,,
Elthera ,Health,JPM,,,,,,,,,,,
Embera NeuroTherapeutics ,Health,JPM,,,,,,,,,,,
EmeraMed,Health,JPM,,,,,,,,,,,
Emergent BioSolutions,Health,GlobalData,United States of America,"1,705",$782,,www.emergentbiosolutions.com,1 240 6313200,1 240 6313203,"Suite 400, 400 Professional Drive",Gaithersburg,Maryland,United States of America
Enanta Pharmaceuticals,Health,GlobalData,United States of America,113,$207,info@enanta.com,www.enanta.com,1 617 6070800,1 617 6070530,500 Arsenal Street,Watertown,Massachusetts,United States of America
Endo International,Health,GlobalData,Ireland,"2,910","$2,947",,www.endo.com,353 1 2682000,,"First Floor, Minerva House, Simmonscourt Road, Ballsbridge",Dublin,Leinster,Ireland
EndoCyclic Therapeutics,Health,JPM,,,,,,,,,,,
Endocyte,Health,GlobalData,United States of America,44,$0,,www.endocyte.com,1 765 4637175,1 765 4639271,3000 Kent Avenue,West Lafayette,Indiana,United States of America
Enevolv ,Health,JPM,,,,,,,,,,,
enus,Health,GlobalData,United States of America,294,$37,,www.agenusbio.com,1 781 6744400,1 781 6744200,3 Forbes Road,Lexington,Massachusetts,United States of America
ENYO Pharma ,Health,JPM,,,,,,,,,,,
eona Therapeutics,Health,GlobalData,United States of America,83,$3,,www.abeonatherapeutics.com,1 214 9055100,1 302 6555049,"1330 Avenue of the Americas, 33rd Floor",New York City,New York,United States of America
Eone-Diagnomics Genome Center,Health,JPM,,,,,,,,,,,
Epalex Corp.,Health,JPM,,,,,,,,,,,
EpiCombi Therapeutics ,Health,JPM,,,,,,,,,,,
EpiVax ,Health,JPM,,,,,,,,,,,
Epizyme,Health,GlobalData,United States of America,124,$22,contact@Epizyme.com,,1 617 2295872,1 617 3490707,"4th Floor, 400 Technology Square",Cambridge,Massachusetts,United States of America
Epygenix Therapeutics ,Health,JPM,,,,,,,,,,,
Ergomed ,Health,JPM,,,,,,,,,,,
Erytech Pharma,Health,GlobalData,France,135,$5,contact@erytech.com,www.erytech.com,33 4 78744438,,60 Avenue Rockefeller,Lyon,,France
Escala Therapeutics,Health,GlobalData,,,,,,,,,,,
Escend Pharmaceuticals ,Health,JPM,,,,,,,,,,,
ESFAM Biotech,Health,JPM,,,,,,,,,,,
Esperion Therapeutics,Health,GlobalData,United States of America,76,,,www.esperion.com,1 734 8873903,,"Suite 150
 
 , 3891 Ranchero Drive",Ann Arbor,Michigan,United States of America
Espero Pharmaceuticals ,Health,JPM,,,,,,,,,,,
Estlishment Ls,Health,GlobalData,Costa Rica,505,$61,info@motivaimplants.com,establishmentlabs.com,,,Coyol Free Zone,,,Costa Rica
Eternogen,Health,JPM,,,,,,,,,,,
ethris GmbH,Health,JPM,,,,,,,,,,,
Euclises Pharmaceuticals ,Health,JPM,,,,,,,,,,,
Eupraxia Pharmaceuticals ,Health,JPM,,,,,,,,,,,
Eurofarma Laboratórios ,Health,JPM,,,,,,,,,,,
Evaxion Biotech,Health,JPM,,,,,,,,,,,
Evelo Biosciences,Health,GlobalData,United States of America,75,,info@evelobio.com,evelobio.com,1 617 8708281,1 302 6555049,"Suite 200 West, 620 Memorial Drive",Cambridge,Massachusetts,United States of America
Everlight Chemical Industrial,Health,GlobalData,Taiwan,"1,675",$319,,www.ecic.com,886 2 27066006,886 2 27081254,"6th Floor, No. 77, Section 2, DunHua South Road",Taipei City,Taipei,Taiwan
Evofem Biosciences,Health,GlobalData,United States of America,30,,info@evofem.com,www.evofem.com,1 858 5501900,,"Suite 600, 12400 High Bluff Drive",San Diego,California,United States of America
Evogene,Health,GlobalData,Israel,165,$3,info@evogene.com,www.evogene.com,972 8 9311900,972 8 9466724,13 Gad Feinstein Street,Rehovot City,Rehovot,Israel
Evolva Holding,Health,GlobalData,Switzerland,67,$9,info@evolva.com,www.evolva.com,41 61 4852000,41 61 4852001,Duggingerstrasse 23,Reinach,Aargau,Switzerland
EvoRx,Health,JPM,,,,,,,,,,,
Evotec,Health,GlobalData,Germany,"2,268",$443,info@evotec.com,www.evotec.com,49 40 560810,49 40 56081222,Essener Bogen 7,Hamburg City,Hamburg,Germany
Ewopharma AG,Health,JPM,,,,,,,,,,,
Exact Sciences,Health,GlobalData,United States of America,"1,977",$454,,www.exactsciences.com,1 608 2845700,,441 Charmany Drive,Madison,Wisconsin,United States of America
Exelixis,Health,GlobalData,United States of America,484,$854,info@exelixis.com,www.exelixis.com,1 650 8377000,1 650 8378300,210 E Grand Avenue,South San Francisco,California,United States of America
Exicure,Health,GlobalData,United States of America,26,$0,,www.exicuretx.com,1 847 6731700,1 847 5566411,"Suite 410
 
 , 8045 Lamon Avenue",Skokie,Illinois,United States of America
Eyenovia,Health,GlobalData,United States of America,22,,admin@eyenoviabio.com,www.eyenovialab.com,1 813 7669539,1 302 6365454,8748 Technology Way,RENO,Nevada,United States of America
EyePoint Pharmaceuticals,Health,GlobalData,United States of America,55,$3,Info@psivida.com,www.psivida.com,1 617 9265000,1 617 9265050,"Suite B300
 
 , 480 Pleasant Street",Watertown,Massachusetts,United States of America
Facile Therapeutics ,Health,JPM,,,,,,,,,,,
Faes Farma ,Health,JPM,,,,,,,,,,,
Fairjourney Biologics,Health,JPM,,,,,,,,,,,
Faraday Pharmaceuticals ,Health,JPM,,,,,,,,,,,
Faron Pharmaceuticals Oy,Health,GlobalData,Finland,25,,info@faron.com,www.faron.com,358 2 4695151,358 2 4695152,Joukahaisenkatu 6,TURKU,,Finland
Fate Therapeutics,Health,GlobalData,United States of America,104,$5,info@fatetherapeutics.com,fatetherapeutics.com,1 858 8751803,1 302 6365454,"Suite 200, 3535 General Atomics Court",San Diego,California,United States of America
Feldan ,Health,JPM,,,,,,,,,,,
Felicitex Therapeutics ,Health,JPM,,,,,,,,,,,
FenoLogica Biosciences ,Health,JPM,,,,,,,,,,,
Ferrer Internacional ,Health,JPM,,,,,,,,,,,
FibroGen,Health,GlobalData,United States of America,461,$213,info@fibrogen.com,www.fibrogen.com,1 415 9781200,1 415 9781902,409 Illinois Street,San Francisco,California,United States of America
Five Prime Therapeutics,Health,GlobalData,United States of America,168,$50,,www.fiveprime.com,1 415 3655600,1 415 3655601,111 Oyster Point Blvd,South San Francisco,California,United States of America
Flatley Discovery Lab ,Health,JPM,,,,,,,,,,,
Flex Pharma,Health,GlobalData,United States of America,4,$1,info@flex-pharma.com,www.flex-pharma.com,1 617 8741821,,"24th Floor, 800 Boylston Street",Boston,Massachusetts,United States of America
Flexion Therapeutics,Health,GlobalData,United States of America,272,$23,info@flexiontherapeutics.com,flexiontherapeutics.com,1 781 3057777,1 781 2023399,10 Mall Rd Ste 301,Burlington,Massachusetts,United States of America
Flow Pharma ,Health,JPM,,,,,,,,,,,
Fluidigm,Health,GlobalData,United States of America,505,$113,,www.fluidigm.com,1 650 2666000,,"Suite 100, 7000 Shoreline Court",South San Francisco,California,United States of America
FMC,Health,GlobalData,United States of America,"7,300","$4,728",,www.fmc.com,1 215 2996000,1 215 2995998,2929 Walnut Street,Philadelphia,Pennsylvania,United States of America
Foamix Pharmaceuticals,Health,GlobalData,Israel,81,$4,,www.foamix.com,972 8 9316233,972 8 9474356,"2 Holzman Street, Weizmann-Science Park",Rehovot City,Rehovot,Israel
Foresee Pharmaceuticals,Health,GlobalData,Taiwan,15,$1,info@foreseepharma.com,www.foreseepharma.com,886 2 26552658,886 2 26552657,"3rd floor, No.19-3, Sanchong Road",Taipei City,Taipei,Taiwan
Formo Loratories,Health,GlobalData,Taiwan,480,$89,info@formosalab.com,www.formosalab.com,886 3 3240895,886 3 3240923,36 Hoping Street,Taoyuan,,Taiwan
Fortress Biotech,Health,GlobalData,United States of America,88,$27,info@fortressbiotech.com,www.fortressbiotech.com,1 781 6524500,1 781 6524545,"9th Floor, 2 Gansevoort Street",New York,New York,United States of America
Forty Seven,Health,GlobalData,United States of America,58,,info@fortyseveninc.com,www.fortyseveninc.com,1 650 3524150,1 302 6365454,"1490 Obrien Dr Ste A, 1490 Obrien Drive Street A",Menlo Park,California,United States of America
Foundation Medicine,Health,GlobalData,United States of America,682,$153,,www.foundationmedicine.com,1 617 4182200,1 617 4182290,", 150 Second Street",Cambridge,Massachusetts,United States of America
Frequency Therapeutics,Health,JPM,,,,,,,,,,,
Fresenius Kabi,Health,GlobalData,Germany,"112,658","$19,527",,www.freseniusmedicalcare.com,49 6172 6090,49 6172 6092301,Else-Kroener-Strasse 1,Bad Homburg,Hessen,Germany
Frutarom Industries,Health,GlobalData,Israel,"5,223","$1,362",info@frutarom.com,www.frutarom.com,972 4 9877600,972 4 8722517,"P.O. Box 3008, Manofim Street",Herzeliya,Tel Aviv,Israel
Fuan Pharmaceutical,Health,GlobalData,China,"3,030",$404,,www.en.fapharm.com,86 23 61028705,,No. 1 Huanan 1 Road,Chongqing City,Chongqing,China
Fuji Pharma,Health,GlobalData,Japan,"1,511",$342,,www.fujipharma.jp,81 3 35563344,81 3 35564455,5-7 Sanban-cho,Chiyoda-Ku,Tokyo,Japan
Fuso Pharmaceutical Industries,Health,GlobalData,Japan,"1,366",$414,info@fuso-pharm.co.jp,www.fuso-pharm.co.jp,81 6 69691131,,"1-7-10, Doshomachi",Osaka City,Osaka,Japan
G1 Therapeutics,Health,GlobalData,United States of America,84,,info@g1therapeutics.com,www.g1therapeutics.com,1 919 2139835,1 919 7415830,"Suite 100, 79 T.W. Alexander Drive, 4501 Research Commons",Durham,North Carolina,United States of America
Gabather,Health,JPM,,,,,,,,,,,
Galapagos ,Health,JPM,,,,,,,,,,,
Galapos,Health,GlobalData,Belgium,779,$375,,www.glpg.com,32 15 342900,32 15 342901,Generaal De Wittelaan L11 A3,Mechelen,Anvers,Belgium
Galecto Biotech,Health,JPM,,,,,,,,,,,
Galera Therapeutics,Health,JPM,,,,,,,,,,,
Gamida Cell,Health,GlobalData,Israel,70,,,www.gamida-cell.com,972 2 6595666,972 2 6595616,PO Box 34670,Jerusalem,,Israel
GC Pharma,Health,GlobalData,South Korea,"1,766","$1,214",,www.greencross.com,82 31 2609300,82 31 2609413,"107, Ihyeon-ro 30beon-gil",Gyeonggi-do,,South Korea
GEA Group,Health,GlobalData,Germany,"18,642","$5,698",info@gea.com,www.gea.com,49 211 91360,49 211 913631087,Peter-Mueller-Str. 12,Dusseldorf,Nordrhein-Westfalen,Germany
Gemphire Therapeutics,Health,GlobalData,United States of America,9,,,www.gemphire.com,1 734 2451700,1 734 2930444,"Suite 401, 17199 N. Laurel Park Drive",Livonia,Michigan,United States of America
GeneCure Biotechnologies,Health,JPM,,,,,,,,,,,
Genelux Corporation,Health,JPM,,,,,,,,,,,
Genentech,Health,JPM,,,,,,,,,,,
Genesys Biologics ,Health,JPM,,,,,,,,,,,
GeNeuro,Health,GlobalData,Switzerland,27,$9,contact@geneuro.com,www.geneuro.com,41 22 5524800,,"3, Chemin du Pre-Fleuri",Geneva,Genf,Switzerland
Genewiz ,Health,JPM,,,,,,,,,,,
Genexine,Health,GlobalData,South Korea,152,$12,,www.genexine.com,82 31 6283200,82 31 6283229,"700 Daewangpangyo-ro, Korea Bio Park Building",Seongnam,,South Korea
Genfit,Health,GlobalData,France,128,$9,contact@genfit.com,www.genfit.com,33 3 20164000,33 3 20164001,"885, Avenue Eugene Avinee, Parc Eurasante",Loos,Nord-Pas-de-Calais,France
Genisphere,Health,JPM,,,,,,,,,,,
GenKyoTex,Health,GlobalData,France,12,,info@genkyotex.com,www.genkyotex.com,33 5 61287060,,Forum 2 Archamps Technopole 218 avenue Marie Curie,Saint-Julien- en-Genevois,,France
Genm,Health,GlobalData,Denmark,419,$479,,www.genmab.com,45 7020 2728,45 7020 2729,Kalvebod Brygge 43,Copenhagen,,Denmark
Genocea Biosciences,Health,GlobalData,United States of America,61,,,www.genocea.com,1 617 8768191,1 617 5000969,100 Acorn Park Drive,Cambridge,Massachusetts,United States of America
GENOGEN,Health,JPM,,,,,,,,,,,
Genome Profiling  (GenPro),Health,JPM,,,,,,,,,,,
Genomic Health,Health,GlobalData,United States of America,863,$394,,www.genomichealth.com,1 650 5569300,1 302 6365454,301 Penobscot Dr,REDWOOD CITY,California,United States of America
Genscript Biotech,Health,GlobalData,United States of America,"2,620",$231,info@genscript.com,www.genscript.com,1 732 8859188,1 732 2100262,860 Centennial Avenue,Piscataway,New Jersey,United States of America
GenSight Biologics,Health,GlobalData,France,33,,infos@gensight-biologics.com,www.gensight-biologics.com,33 1 76217220,,"74, Rue du Faubourg Saint-Antoine",Paris,Ile-de-France,France
Gensun Biopharma,Health,JPM,,,,,,,,,,,
Genticel,Health,GlobalData,France,12,,business@genticel.com,www.genticel.com,33 5 61287060,33 5 61287069,"Prologue-Biotech, 516 Rue Pierre et Marie Curie",Labege,Midi Pyrenees,France
Genus,Health,GlobalData,United Kingdom,"2,787",$627,,www.genusplc.com,44 1256 347100,44 1256 477385,Matrix House,Basingstoke,Hampshire,United Kingdom
Geom Therapeutics,Health,JPM,,,,,,,,,,,
GeoVax Labs,Health,JPM,,,,,,,,,,,
Geron,Health,GlobalData,United States of America,17,$1,info@geron.com,www.geron.com,1 650 4737700,1 302 4737750,"Suite 2070, 149 Commonwealth Drive",Menlo Park,California,United States of America
Getinge,Health,GlobalData,Sweden,"10,371","$2,781",info@getinge.com,www.getinge.com,46 10 3350000,46 10 3355640,Lindholmspiren 7,Gothenburg,,Sweden
GigaGen ,Health,JPM,,,,,,,,,,,
Gilead Sciences ,Health,JPM,,,,,,,,,,,
Glaukos,Health,GlobalData,United States of America,437,$181,,www.glaukos.com,1 949 3679600,1 949 3679984,229 Avenida Fabricante,San Clemente,California,United States of America
GlaxoSmithKline,Health,GlobalData,,,,,,,,,,,
Glenmark Pharmaceuticals ,Health,JPM,,,,,,,,,,,
Global Blood Therapeutics,Health,GlobalData,United States of America,171,,info@gbt.com,www.gbt.com,1 650 7417700,1 650 7417701,"Suite 300
 
 , 171 Oyster Point Boulevard",South San Francisco,California,United States of America
Gloria Pharmaceuticals Co.,Health,JPM,,,,,,,,,,,
GlycoMimetics,Health,GlobalData,United States of America,40,,info@glycomimetics.com,www.glycomimetics.com,1 240 2431201,1 301 7382137,9708 Medical Center Drive,Rockville,Maryland,United States of America
GlycoNex ,Health,JPM,,,,,,,,,,,
GLyPharma Therapeutic,Health,JPM,,,,,,,,,,,
GO Therapeutics,Health,JPM,,,,,,,,,,,
Goergen & Koeller,Health,GlobalData,,,,,,,,,,,
Gosmer Bio,Health,GlobalData,United States of America,118,,,www.gossamerbio.com,1 858 9220718,1 302 6365454,3013 Science Park Road,San Diego,California,United States of America
Graybug Vision ,Health,JPM,,,,,,,,,,,
Green Cross Holdings,Health,GlobalData,South Korea,170,"$1,409",,www.greencross.com,82 31 2609300,82 31 2609413,"107, Ihyeon-ro 30beon-gil",Yongin-Si,,South Korea
Grifols,Health,GlobalData,Spain,"21,243","$5,295",contact@grifols.com,www.grifols.com,34 935 712199,34 935 710267,"Avinguda de la Generalitat, 152, Parc empresarial Can Sant Joan",Barcelona,Barcelona,Spain
GRIFOLS,Health,JPM,,,,,,,,,,,
Gritstone Oncology,Health,GlobalData,United States of America,102,$1,info@gritstone.com,gritstoneoncology.com,1 510 8716100,1 510 5971488,5858 Horton St Ste 210,EMERYVILLE,California,United States of America
GroupOptima,Health,GlobalData,,,,,,,,,,,
Grupo Biotoscana ,Health,GlobalData,Luxembourg,708,$225,info@grupobiotoscana.com,www.grupobiotoscana.com,,,"2-4, Rue Beck",Luxembourg City,,Luxembourg
GTx,Health,GlobalData,United States of America,21,,,www.gtxinc.com,1 901 2718622,1 901 8448075,"7th Floor, 175 Toyota Plaza",Memphis,Tennessee,United States of America
Guangdong By-Health Biotechnology,Health,GlobalData,China,"2,419",$658,,www.by-health.com.cn,86 20 38372403,86 20 38312692,"23F, East Tower, Twin Cities I, No. 263, Huasui Road",Guangzhou,Guangdong,China
Guangzhou Baiyunshan Pharmaceutical ,Health,GlobalData,China,"23,131","$6,385",,www.gybys.com.cn,86 20 66281011,86 20 66281229,Number 45 Shamian North Street,Guangzhou,Guangdong,China
Guangzhou Pharmaceutical ,Health,GlobalData,China,"23,131","$6,385",,www.gpc.com.cn,86 8620 66281011,86 8620 81216498,"No. 45 Shamian North Street, Liwan District",Guangzhou,Guangdong,China
Guerbet,Health,GlobalData,France,"2,850",$932,,www.guerbet.com,33 1 45915000,33 1 45915199,"15 rue des Vanesses, Zone Paris Nord II",Villepinte,Ile-de-France,France
Guizhou YiBai Pharmaceutical,Health,GlobalData,China,"7,011",$563,,www.gzcci.com,86 851 84705590,86 851 84704019,"No. 220-1, Baiyun Road",Guiyang,Guizhou,China
GW Pharmaceuticals,Health,GlobalData,United Kingdom,791,$11,info@gwpharm.com,www.gwpharm.com/,44 1223 266800,44 1223 235667,"Sovereign House, Vision Park",Cambridge,England,United Kingdom
Haisco Pharmaceutical,Health,GlobalData,China,"2,211",$518,haisco@haisco.com,www.haisco.com,86 893 7834865,,Zetang Hong Qu East,Shannan,Tibet,China
HalioDx,Health,JPM,,,,,,,,,,,
Halozyme Therapeutics,Health,GlobalData,United States of America,281,$152,info@halozyme.com,www.halozyme.com,1 858 7948889,1 302 6555049,11388 Sorrento Valley Road,San Diego,California,United States of America
Han Biopharma,Health,GlobalData,Sweden,57,$0,info@hansamedical.com,www.hansamedical.com,46 46 165670,46 46 127775,Scheelevagen 22,Lund,,Sweden
Handok,Health,GlobalData,South Korea,883,$406,,www.handok.co.kr,82 2 5275114,,132 Teheran-ro,Seoul City,,South Korea
Hanmi Pharmaceuticals,Health,GlobalData,South Korea,"2,095",$924,,www.hanmipharm.com,82 2 4109114,,"14, Wiryeseong-daero",Songpa-gu,,South Korea
Hanwha Chemical,Health,GlobalData,South Korea,"2,417","$8,228",,hcc.hanwha.co.kr,82 2 7292700,82 2 7292999,"Hanwha Building, 86 Cheonggyecheon-ro",Seoul City,,South Korea
Harbin Gloria Pharmaceuticals,Health,GlobalData,China,"2,427",$829,public@gloria.cc,www.gloria.cc,86 451 57351368,86 451 57351991,"No. 29, Beijing Road, Limin Economic and Technological Development Zone",Harbin,Beijing,China
Harbin Pharmaceutical,Health,GlobalData,China,"15,396","$1,635",Master@hayao.com,www.hayao.com,86 45151961111,,"No.7 , Qunli Avenue, Daoli District",Harbin,Heilongjiang,China
Harpoon Therapeutics,Health,GlobalData,United States of America,45,$5,info@harpoontx.com,www.harpoontx.com,1 650 4437400,1 302 6365454,"Suite 250, 4000 Shoreline Court",South San Francisco,California,United States of America
Harvard Bioscience,Health,GlobalData,United States of America,519,$121,info@harvardbioscience.com,www.harvardbioscience.com,1 508 8938999,1 508 4295732,"Suite 10, 84 October Hill Road",Holliston,Massachusetts,United States of America
Hcell ,Health,JPM,,,,,,,,,,,
HEALIOS KK,Health,GlobalData,Japan,93,,,www.healios.com,81 3 57778308,81 3 35448760,"15th Floor, World Trade Center Bldg.",Minato-ku,Tokyo,Japan
Health and Happiness International Holdings,Health,GlobalData,Hong Kong,"2,800","$1,532",info.group@hh.global,www.hh.global,86 800 8301055,,"Suites 4007-09, 40th Floor, One Island East, Taikoo Place,",Quarry Bay,,Hong Kong
Healthcare Entrepreneur,Health,JPM,,,,,,,,,,,
Heat Biologics,Health,GlobalData,United States of America,30,$6,info@heatbio.com,www.heatbio.com,1 919 2407133,1 302 6365454,"Suite 12, 801 Capitola Drive",Durham,North Carolina,United States of America
Hebei Changshan Biochemical Pharmaceutical,Health,GlobalData,China,938,$250,changshan@heparin.cn,www.heparin.cn,86 311 89190160,86 311 89190160,"No. 9, FuQiang Road",ZhengDing,Hebei,China
Heidelberg Pharma,Health,GlobalData,Germany,60,$4,info@hdpharma.com,www.heidelberg-pharma.com,49 6203 10090,49 6203 100919,Schriesheimer Strasse 101,Munich,Baden-Wurttemberg,Germany
Heilongjiang ZBD Pharmaceutical,Health,GlobalData,China,"2,980",$465,,www.zbdzy.com,86 467 5854656,86 467 5835974,"Hulin City, Heilongjiang Province Hongxing Street 72",Hulin City,,China
Hepatx Corporation,Health,JPM,,,,,,,,,,,
Heritage Pharmaceuticals,Health,JPM,,,,,,,,,,,
Heron Therapeutics,Health,GlobalData,United States of America,198,$77,info@herontx.com,www.herontx.com,1 858 2514400,,"Suite 200, 4242 Campus Point Court",San Diego,California,United States of America
HIGHTIDE BIOPHARMACEUTICAL,Health,JPM,,,,,,,,,,,
Hikma Pharmaceuticals,Health,GlobalData,United Kingdom,"8,413","$2,076",,www.hikma.com,44 20 73992760,44 20 73992761,1 New Burlington Place,London,Greater London,United Kingdom
Hillstream BioPharma,Health,JPM,,,,,,,,,,,
Hinge Bio,Health,JPM,,,,,,,,,,,
Histogenics,Health,GlobalData,United States of America,49,,,www.histogenics.com,1 781 4577900,1 302 6555049,"3rd Floor, 830 Winter Street",Waltham,Massachusetts,United States of America
Hisun Pharmaceuticals,Health,JPM,,,,,,,,,,,
HitGen ,Health,JPM,,,,,,,,,,,
Hologic,Health,GlobalData,United States of America,"6,252","$3,218",info@hologic.com,www.hologic.com,1 508 2632900,1 302 6365454,250 Campus Dr,MARLBOROUGH,Massachusetts,United States of America
Homology Medicines,Health,GlobalData,United States of America,149,$4,info@homologymedicines.com,www.homologymedicines.com,1 857 3051825,1 302 6555049,1 Patriots Park,Bedford,Massachusetts,United States of America
Hookipa Pharma,Health,GlobalData,United States of America,60,$8,office@hookipapharma.com,www.hookipapharma.com/,,1 302 6365454,"430 E 29th St Fl 14, New York City",NEW YORK,New York,United States of America
Horizon Discovery Group,Health,GlobalData,United Kingdom,288,$78,info@horizondiscovery.com,www.horizondiscovery.com,44 1223 976000,44 1223 655581,8100 Cambridge Research Park,Cambridge,Cambridgeshire,United Kingdom
Horizon Pharma,Health,GlobalData,Ireland,300,"$1,208",,www.horizonpharma.com,353 1 7722100,,"Connaught House, 1st Floor, 1 Burlington Road",Dublin,Leinster,Ireland
HS Pharma ,Health,JPM,,,,,,,,,,,
HTG Molecular Dinostics,Health,GlobalData,United States of America,107,$22,info@htgmolecular.com,www.htgmolecular.com,1 520 5472827,1 520 5472837,3430 East Global Loop,Tucson,Arizona,United States of America
Hua Medicine Shanghai,Health,GlobalData,China,115,,BD@huamedicine.com,www.huamedicine.com,86 21 58869997,86 21 58866110,"No.275 Ai Di Sheng Road, Zhangjiang Hi-Tech Park",Pudong,Shanghai,China
Huadong Medicine,Health,GlobalData,China,"10,944","$4,636",support@eastchinapharm.com,www.eastchinapharm.com,86 571 89903388,86 571 89903366,No.866 Mogan Mountain Road,Hangzhou,Zhejiang,China
Hualan Biological Engineering,Health,GlobalData,China,"2,144",$486,hualan@hualanbio.com,english.hualanbio.com,86 373 3559991,,"Jia No. 1, Hualan Avenue",Xinxiang,Henan,China
Humanigen,Health,JPM,,,,,,,,,,,
Humanwell Healthcare,Health,GlobalData,China,"15,137","$2,817",,www.humanwell.com.cn,86 27 87173710,86 27 87596393,"666 Gaoxin Road, East Lake High-tech Development Zone",Wuhan,Hubei,China
HuMurine Technologies,Health,JPM,,,,,,,,,,,
Huons Global,Health,GlobalData,South Korea,541,$344,,www.huonsglobal.com,82 2 8544700,82 2 64550740,"901, C Dong, Pangyo Innovalley, 621, Sampyeong-Dong, Bundang-G",Seongnam,,South Korea
Hutchison China MediTech,Health,GlobalData,Hong Kong,563,$214,info@chi-med.com,www.chi-med.com,852 2121 8200,852 2121 8281,"Level 18, The Metropolis Tower, 10 Metropolis Drive",Kowloon,,Hong Kong
HUYA Bioscience International,Health,JPM,,,,,,,,,,,
Hybio Pharmaceutical,Health,GlobalData,China,927,$184,,www.hybio.com.cn,86 755 26588000,86 755 26588022,"Hybio Medicine Park, No. 37, Keji C.2nd, HI-tech Industrial Park",Shenzhen,Guangdong,China
Hybrigenics ,Health,JPM,,,,,,,,,,,
Hypera,Health,GlobalData,Brazil,"8,787","$1,020",,www.hyperapharma.com.br,55 11 36274200,55 11 36274371,"Av. Magalhaes de Castro, 4800 - 24 andar, Edificio Continental Tower",Sao Paulo,Sao Paulo,Brazil
Hyundai Pharmaceutical,Health,GlobalData,South Korea,409,$122,,www.hyundaipharm.co.kr,,,"Hyundai Pharma Building, Bonegeunsa Street 135",Seoul City,,South Korea
Ichor Medical Systems ,Health,JPM,,,,,,,,,,,
ICU Medical,Health,GlobalData,United States of America,"8,100","$1,400",customerservice@icumed.com,www.icumed.com,1 949 3662183,1 949 3668368,951 Calle Amanecer,San Clemente,California,United States of America
Idera Pharmaceuticals,Health,GlobalData,United States of America,36,$1,info@iderapharma.com,www.iderapharma.com,1 484 3481600,,"Suite 212, 505 Eagleview Boulevard",Exton,Pennsylvania,United States of America
Idexx Laboratories,Health,GlobalData,United States of America,"8,377","$2,213",,www.idexx.com,1 207 5560300,1 207 5564346,One Idexx Drive,Westbrook,Maine,United States of America
Idorsia Pharmaceutical,Health,GlobalData,Switzerland,636,$62,,www.idorsia.com,41 58 8440000,,Hegenheimermattweg 91,Allschwil,Basel-Landschaft,Switzerland
Ientiva,Health,GlobalData,France,107,$4,info@inventivapharma.com,www.inventivapharma.com,33 3 80447500,,50 rue de Dijon,Daix,Bourgogne,France
Iitae,Health,GlobalData,United States of America,884,$148,,www.invitae.com,1 415 3747782,1 415 2764164,1400 16th Street,San Francisco,California,United States of America
Ildong Pharmaceutical,Health,JPM,,,,,,,,,,,
Illustris Pharmaceuticals ,Health,JPM,,,,,,,,,,,
Ilyang Pharmaceutical,Health,GlobalData,South Korea,636,$273,,www.ilyang.co.kr,82 31 2817851,82 31 2848141,110 Hagal-ro,Yongin,,South Korea
Imagion Biosystems,Health,JPM,,,,,,,,,,,
IMCYSE,Health,JPM,,,,,,,,,,,
Immix Biopharma,Health,JPM,,,,,,,,,,,
Immune Design,Health,GlobalData,United States of America,48,$2,info@immunedesign.com,www.immunedesign.com,1 206 6820645,1 206 6820648,"Suite 310, 1616 Eastlake Avenue East",Seattle,Washington,United States of America
ImmuneOncia Therapeutics ,Health,JPM,,,,,,,,,,,
IMMUNETHEP,Health,JPM,,,,,,,,,,,
ImmunGene ,Health,JPM,,,,,,,,,,,
Immunic,Health,GlobalData,United States of America,10,,,www.immunic-therapeutics.com,1 858 6736840,1 302 6555049,15222-B Avenue of Science,San Diego,California,United States of America
Immunicum,Health,JPM,,,,,,,,,,,
Immuno Research ,Health,JPM,,,,,,,,,,,
Immuno-Biological Loratories,Health,GlobalData,Japan,57,$7,,www.ibl-japan.co.jp,81 27 4222889,81 27 4236055,1091-1 Naka Aza-Higashida,Fujioka,Gunma,Japan
ImmunoBiochem Corporation,Health,JPM,,,,,,,,,,,
ImmunoCellular Therapeutics,Health,GlobalData,United States of America,4,,info@imuc.com,www.imuc.com,1 818 2642300,1 818 2245287,"Suite 140, 30721 Russell Ranch Road",Westlake Village,California,United States of America
ImmunoGen,Health,GlobalData,United States of America,296,$53,info@immunogen.com,www.immunogen.com,1 781 8950600,,830 Winter Street,Waltham,Massachusetts,United States of America
Immunomedics,Health,GlobalData,United States of America,346,$2,contact@immunomedics.com,www.immunomedics.com,1 973 6058200,1 973 6058282,300 the American Road,Morris Plains,New Jersey,United States of America
Immunomic Therapeutics ,Health,JPM,,,,,,,,,,,
Immunovaccine ,Health,JPM,,,,,,,,,,,
Immusoft Corporation,Health,JPM,,,,,,,,,,,
Impetis Biosciences,Health,JPM,,,,,,,,,,,
Imstem Biotechnology,Health,JPM,,,,,,,,,,,
Indee Labs,Health,JPM,,,,,,,,,,,
Indivior,Health,GlobalData,United Kingdom,"1,024","$1,005",,indivior.com,44 1753 217800,,103-105 Bath Road,Slough,Berkshire,United Kingdom
InfiniteBio,Health,JPM,,,,,,,,,,,
Infinity Pharmaceuticals,Health,GlobalData,United States of America,25,$22,info@infi.com,www.infi.com,1 617 4531000,1 617 4531001,784 Memorial Drive,Cambridge,Massachusetts,United States of America
InflaRx,Health,GlobalData,Germany,38,,info@inflarx.de,www.inflarx.de,49 3641 508180,49 3641 508181,Winzerlaer Strasse 2,Jena,Thuringen,Germany
InGeneron,Health,JPM,,,,,,,,,,,
InMed Pharmaceuticals,Health,JPM,,,,,,,,,,,
Inmunotek,Health,JPM,,,,,,,,,,,
Innate Pharma,Health,GlobalData,France,194,$94,,www.innate-pharma.com,33 4 30303030,,"117, Avenue de Luminy",Marseille,Provence - Alpes- Cote d'Azur,France
Innovate Biopharmaceuticals ,Health,JPM,,,,,,,,,,,
Innovation Pharmaceuticals,Health,GlobalData,United States of America,8,,,www.ipharminc.com,1 978 9214125,1 978 9216564,"Suite 151-B, 100 Cummings Center",Beverly,Massachusetts,United States of America
Innovative Cellular Therapeutics,Health,JPM,,,,,,,,,,,
Innovative Med Concepts,Health,JPM,,,,,,,,,,,
Innovent Biologics,Health,GlobalData,China,959,$1,info@innoventbio.com,innoventbio.com,,,"168, Dongping Street, Suzhou Industrial Park",Suzhou,Jiangsu,China
Inotek Pharmaceuticals,Health,GlobalData,United States of America,40,,info@inotekpharma.com,www.inotekpharma.com,1 781 6762100,,"2nd Floor, 91 Hartwell Avenue",Lexington,Massachusetts,United States of America
Inova Diagnostics,Health,GlobalData,,,,,,,,,,,
Inovalon Holdings,Health,GlobalData,United States of America,"2,104",$528,,www.inovalon.com,1 301 8094000,1 301 8098060,4321 Collington Road,BOWIE,Maryland,United States of America
Inovio Pharmaceuticals,Health,GlobalData,United States of America,281,$30,,www.inovio.com,1 267 4404200,1 267 4404242,"Suite 110, 660 W. Germantown Pike",Plymouth Meeting,California,United States of America
Inserm Transfert,Health,GlobalData,,,,,,,,,,,
Insmed,Health,GlobalData,United States of America,373,$10,,www.insmed.com,1 908 9779900,,"10 Finderne Ave, Building 10",Somerset County,New Jersey,United States of America
Insphero ,Health,JPM,,,,,,,,,,,
Insulet,Health,GlobalData,United States of America,"1,169",$564,,www.myomnipod.com,1 978 6007000,1 978 6000120,100 Nagog Park,ACTON,Massachusetts,United States of America
Insys Therapeutics,Health,GlobalData,United States of America,226,$82,,www.insysrx.com,1 480 5003127,,"Suite 100, 1333 South Spectrum Blvd",Chandler,Arizona,United States of America
Intec Pharma,Health,GlobalData,Israel,70,,info@intecpharma.com,www.intecpharma.com,972 2 5864657,972 2 5869176,"P.O. Box 45219, 12 Hartom street (RMPE building)",Jerusalem,Jerusalem,Israel
Integra LifeSciences,Health,GlobalData,United States of America,"4,500","$1,472",,www.integralife.com,1 609 2750500,1 609 7504277,311 Enterprise Drive,Plainsboro,New Jersey,United States of America
Integral Molecular,Health,JPM,,,,,,,,,,,
Intelgenx Corp,Health,JPM,,,,,,,,,,,
Intellia Therapeutics,Health,GlobalData,United States of America,211,$30,,www.intelliatx.com,1 857 2856200,,"Suite 130, 40 Erie Street",Cambridge,Massachusetts,United States of America
Intellipharmaceutics,Health,GlobalData,Canada,52,$2,,www.intellipharmaceutics.com,1 416 7983001,1 416 7983007,30 Worcester Rd,ETOBICOKE,Ontario,Canada
Intercept Pharmaceuticals,Health,GlobalData,United States of America,330,$180,info@interceptpharma.com,www.interceptpharma.com,1 646 7471000,,"37th Floor , 10 Hudson Yards",New York,New York,United States of America
Intersect ENT,Health,GlobalData,United States of America,393,$108,info@intersectENT.com,www.intersectent.com,1 650 6412100,,1555 Adams Drive,Menlo Park,California,United States of America
Inteum,Health,GlobalData,,,,,,,,,,,
Intra-Cellular Therapies,Health,GlobalData,United States of America,73,,info@intracellulartherapies.com,www.intracellulartherapies.com,1 646 4409333,1 646 4409334,"Suite 900
 
 , 430 East 29th Street",New York,New York,United States of America
Intrexon,Health,GlobalData,United States of America,882,$161,,www.dna.com,1 301 5569809,,"Suite 1400, 1750 Kraft Drive",Blacksburg,Virginia,United States of America
Intrommune Therapeutics,Health,JPM,,,,,,,,,,,
Intron Biotechnology ,Health,JPM,,,,,,,,,,,
Intuitive Surgical,Health,GlobalData,United States of America,"5,527","$3,724",,www.intuitive.com,1 408 5232100,1 408 5231390,1020 Kifer Road,Sunnyvale,California,United States of America
InvivoSciences ,Health,JPM,,,,,,,,,,,
IO Biotech,Health,JPM,,,,,,,,,,,
Ion Beam Applications,Health,GlobalData,Belgium,"1,409",$246,info-worldwide@iba-group.com,www.iba-worldwide.com,32 10 475811,32 10 475810,Chemin du Cyclotron 3,Louvain-La-Neuve,Brabant Flamand,Belgium
Ionis Pharmaceuticals,Health,GlobalData,United States of America,737,$600,,www.ionispharma.com,1 760 9319200,1 302 6555049,2855 Gazelle Court,Carlsbad,California,United States of America
ios Pharmaceuticals,Health,GlobalData,United States of America,482,$94,medinfo@agios.com,www.agios.com,1 617 6498600,1 617 3440070,88 Sidney Street,Cambridge,Massachusetts,United States of America
Iovance Biotherapeutics,Health,GlobalData,United States of America,88,,,www.iovance.com,1 650 2607120,1 302 7301370,"Suite 150, 999 Skyway Road",San Carlos,California,United States of America
Ipsen,Health,GlobalData,France,"5,723","$2,771",contact.web@ipsen.com,www.ipsen.com,33 1 58335000,33 1 58335001,"65, quai Georges Gorse, Boulogne-Billancourt",Paris,Ile-de-France,France
IQVIA,Health,JPM,,,,,,,,,,,
iRhythm Technologies,Health,GlobalData,United States of America,748,$147,info@irhythmtech.com,www.irhythmtech.com,1 415 6325700,1 302 6555049,"Suite 500, 650 Townsend Street",San Francisco,California,United States of America
Ironwood Pharmaceuticals,Health,GlobalData,United States of America,515,$347,info@ironwoodpharma.com,www.ironwoodpharma.com,1 617 6217722,1 617 4940480,301 Binney Street,Cambridge,Massachusetts,United States of America
Ishihara Sangyo Kaisha,Health,GlobalData,Japan,"1,578",$974,,www.iskweb.co.jp,81 6 64441451,81 6 64457798,"1-3-15 Edobori, Nishi-ku",Osaka-shi,Osaka,Japan
ISOThrive ,Health,JPM,,,,,,,,,,,
Issar Pharmaceuticals ,Health,JPM,,,,,,,,,,,
Isu Abxis,Health,JPM,,,,,,,,,,,
Iterum Therapeutics,Health,GlobalData,Ireland,48,$1,,www.iterumtx.com,353 1 9038920,,"Block 2 Floor 3, Harcourt Centre, Harcourt Street",Dublin,,Ireland
ITO EN,Health,GlobalData,Japan,"8,266","$4,463",csr@itoen.co.jp,www.itoen.co.jp,81 3 53717213,81 3 53717196,47-10 Honmachi 3-chome,Shibuya-ku,Tokyo,Japan
Ivax,Health,GlobalData,France,25,,info@abivax.com,www.abivax.com,33 1 53830841,,"5, Rue de la Baume",Paris,Ile-de-France,France
iVeena delivery Systems ,Health,JPM,,,,,,,,,,,
IVERIC bio,Health,GlobalData,United States of America,35,,,www.ophthotech.com,1 212 8458200,1 302 6555049,"Suite 3520, One Penn Plaza",New York,New York,United States of America
Jazz Pharmaceuticals,Health,GlobalData,Ireland,"1,360","$1,891",,www.jazzpharmaceuticals.com,353 1 6347800,353 1 6347850,"5th Floor, Waterloo Exchange, Waterloo Road",Dublin,Leinster,Ireland
Jiangsu Hengrui Medicine,Health,GlobalData,China,"21,016","$2,633",hrs@hrs.com.cn,www.hrs.com.cn,86 400 8283900,86 518 85453845,"No. 7, Kunlun Mountain Road",Lianyungang,Jiangsu,China
Jiangsu Jiujiujiu Technology,Health,GlobalData,China,"4,946","$1,277",,www.jjjkj.com.cn,86 513 84415116,,"No.40 Jianshe Road, Matang Town",Rudong County,Jiangsu,China
Jiangsu Jumpcan,Health,GlobalData,China,"7,145","$1,090",jtb@jumpcan.com,www.jumpcan.com.cn,86 523 87606428,86 523 87606917,"Baota Bay, West Daqing Road",Taizhou,Jiangsu,China
Jiangsu Kanion Pharmaceutical,Health,GlobalData,China,"5,821",$578,,www.kanion.com,86 518 85521999,,"No. 58 , Taishan Road, Economic and Technological Development Zone",Lianyungang,Jiangsu,China
Jiangsu Nhwa Pharmaceutical,Health,GlobalData,China,"4,168",$583,nhwa@nhwa-group.com,www.nhwa-group.com,86 516 87661005,86 516 87767073,"No. 69, Room 1406, Jiangsu En Hua Building, Democratic South",Xuzhou,Jiangsu,China
JiLin AoDong,Health,GlobalData,China,"3,351",$503,,www.jlaod.com,86 433 6238973,86 433 6238973,"No. 2158, Aodong Avenue, Dunhua City",YANBIAN,,China
Jinyu Bio-technology,Health,GlobalData,China,"1,512",$281,,www.jinyu.com.cn,86 471 6539434,86 471 6539430,58 Erdos Street West,Hohhot,Inner Mongolia,China
Jiuzhitang,Health,GlobalData,China,"4,231",$568,hnjzt@hnjzt.com,www.hnjzt.com,86 731 84499738,86 731 84499777,"No. 339, Tongzipo West Road",Changsha,Hunan,China
JK BioPharma Solutions,Health,JPM,,,,,,,,,,,
Joare Pharmaceutical,Health,GlobalData,China,"10,574","$1,595",joincare@joincare.com,www.joincare.com,86 755 86252388,86 755 86252398,"No. 17 , Pharmaceutical Group Health yuan Building, North Lang Road",Shenzhen,Guangdong,China
Jounce Therapeutics,Health,GlobalData,United States of America,115,$65,,jouncetx.com,1 857 2593840,1 888 4592940,780 Memorial Drive,Cambridge,Massachusetts,United States of America
JSC Pharmasyntez,Health,JPM,,,,,,,,,,,
Juventas Therapeutics ,Health,JPM,,,,,,,,,,,
JW Pharmaceutical,Health,GlobalData,South Korea,"1,095",$489,,www.jw-pharma.co.kr,82 2 8406777,,"2477, Nambusunhwan-ro",Seoul City,,South Korea
Kadmon Holdings,Health,GlobalData,United States of America,116,$1,info@kadmon.com,kadmon.com,1 212 3086000,1 646 6667978,450 E 29th Street,New York,New York,United States of America
Kaken Pharmaceutical,Health,GlobalData,Japan,"1,389",$888,,www.kaken.co.jp,81 3 59775046,81 3 59775133,"20th Floor, 2-28-8 Honkomagome, Bunkyo Green Court Center Office",Bunkyo-ku,Tokyo,Japan
Kala Pharmaceuticals,Health,GlobalData,United States of America,130,,info@kalarx.com,www.kalarx.com,1 781 9965252,1 781 6420399,"Suite 201
 
 , 100 Beaver Street",Waltham,Massachusetts,United States of America
Kaleido Biosciences,Health,GlobalData,United States of America,118,,info@kaleido.com,kaleido.com,1 617 6749000,1 302 6555049,18 Crosby Drive,Bedford,Massachusetts,United States of America
Kalvista Pharmaceuticals,Health,GlobalData,United States of America,14,$8,info@kalvista.com,www.kalvista.com,1 857 9990075,1 866 5533269,"Suite 901E, 55 Cambridge Parkway",Cambridge,Massachusetts,United States of America
Kaneka,Health,GlobalData,Japan,"10,234","$5,378",,www.kaneka.co.jp,81 6 62265050,81 6 62265037,"35th floor of Nakanoshima Festival Tower., 2-3-18, Nakanoshima",Kita-ku,Osaka,Japan
Kangmei Pharmaceutical,Health,GlobalData,China,"12,596","$2,926",,www.kangmei.com.cn,86 755 33187777,86 755 33915850,3rd Floor,Shenzhen,Guangdong,China
Karyopharm Therapeutics,Health,GlobalData,United States of America,332,$30,,karyopharm.com/,1 617 6580600,1 302 6555049,85 Wells Ave,NEWTON CENTER,Massachusetts,United States of America
Katakura Industries,Health,GlobalData,Japan,"1,350",$400,,www.katakura.co.jp,81 3 68321873,81 3 68320256,6-4 Akashicho,Tokyo City,Tokyo,Japan
Kazia Therapeutics Limited,Health,JPM,,,,,,,,,,,
Kedalion Therapeutics,Health,JPM,,,,,,,,,,,
Kelun Pharmaceutical,Health,JPM,,,,,,,,,,,
KemPharm,Health,GlobalData,United States of America,33,,info@kempharm.com,www.kempharm.com,1 319 6652575,,"Suite E126, 2500 Crosspark Road",Coralville,Iowa,United States of America
Keryx Biopharmaceuticals,Health,GlobalData,United States of America,210,$61,,www.keryx.com,1 617 4663500,1 212 5315961,"One Marina Park Drive, Twelfth Floor",Boston,Massachusetts,United States of America
Kezar Life Sciences,Health,GlobalData,United States of America,24,,contact@kezarbio.com,kezarlifesciences.com,1 650 8225600,,"Suite 300, 4000 Shoreline Court",South San Francisco,California,United States of America
Kiadis Pharma,Health,GlobalData,Netherlands,68,,,www.kiadis.com,31 20 3140250,31 20 3140251,Paasheuvelweg 25,Amsterdam,Noord-Holland,Netherlands
Kinik Pharmaceuticals,Health,GlobalData,Bermuda,111,,,www.kiniksa.com,1 441 7814399100,,"Clarendon House, 2 Church Street",Hamilton,,Bermuda
Kiromic,Health,JPM,,,,,,,,,,,
Kissei Pharmaceutical,Health,GlobalData,Japan,"1,903",$668,,www.kissei.co.jp,81 263 259081,81 263 257899,"19-48, Yoshino",Matsumoto City,Nagano,Japan
Kleo Pharmaceuticals,Health,JPM,,,,,,,,,,,
Klyss Biotech,Health,JPM,,,,,,,,,,,
Knight Therapeutics,Health,JPM,,,,,,,,,,,
Kobayashi Pharmaceutical,Health,GlobalData,Japan,"3,271","$1,511",,www.kobayashi.co.jp,81 6 62220142,81 6 62224261,"KDX Kobayashi Doshomachi Bldg., 4-10, Doshomachi 4-chome",Chuo-ku,Osaka,Japan
Kodiak Sciences,Health,GlobalData,United States of America,28,,info@kodiak.com,kodiak.com,,,", 2631 Hanover Street",Palo Alto,California,United States of America
Kolon Life Science,Health,GlobalData,South Korea,543,$121,,www.kolonls.co.kr,82 2 36774150,,"Kolonro 13, Gyeyang-dong, Gwacheon-si",Gyunggi-do,,South Korea
Kolon TissueGene,Health,GlobalData,United States of America,71,$3,,www.tissuegene.com,1 301 9216000,1 301 9216011,"Suite 200, 9605 Medical Center Drive",Rockville,Maryland,United States of America
Konruns Pharmaceutical,Health,GlobalData,China,263,$155,info@konruns.cn,www.konruns.cn,86 10 82898888,86 10 82898877,"7th Floor, Building A, Jiahua Mansion, No.9, Shangdi 3 Street",beijing,Beijing,China
Korea United Pharm,Health,GlobalData,South Korea,834,$193,,www.kup.co.kr,82 2 5129982,82 2 5120144,154-8 Nonhyun-Dong,Seoul City,,South Korea
KPC Pharmaceuticals,Health,GlobalData,China,"4,121","$1,074",,www.kpc.com.cn,86 871 68319868,86 871 68311968,No 166 Keyi Road High-tech Development Zone,Kunming,Yunnan,China
Krka dd Novo Mesto,Health,GlobalData,Slovenia,"11,390","$1,572",info@krka.biz,www.krka.biz,386 7 3312111,386 7 3321537,Smarjeska Cesta 6,Novo Mesto,,Slovenia
Kura Oncology,Health,GlobalData,United States of America,43,,,kuraoncology.com,1 858 5008800,,"Suite 220, 3033 Science Park Road",San Diego,California,United States of America
Kuraray,Health,GlobalData,Japan,"10,768","$5,439",,www.kuraray.co.jp,81 3 67011000,81 3 67011005,"9F, Ote Center Bldg., 1-1-3, Ote-machi",Chiyoda-Ku,Tokyo,Japan
Kureha,Health,GlobalData,Japan,"4,374","$1,329",,www.kureha.co.jp,81 3 32494666,81 3 32494744,"3-3-2 Nihonbashi Hamacho,",Tokyo City,Tokyo,Japan
Kymab ,Health,JPM,,,,,,,,,,,
KYORIN Holdings,Health,GlobalData,Japan,"2,348",$998,,www.kyorin-gr.co.jp,81 3 35254700,81 3 35254780,"6, Kanda Surugadai 4-Chome",Chiyoda-ku,Tokyo,Japan
Kyowa Hakko Kirin,Health,GlobalData,Japan,"7,242","$3,126",,www.kyowa-kirin.com,81 3 52057200,81 3 52057182,"Room 548, 5th Floor, 1-9-2 Otemachi",Tokyo City,,Japan
La Jolla Pharmaceutical Company,Health,GlobalData,United States of America,169,$10,info@ljpc.com,www.ljpc.com,1 858 2074264,1 619 4526893,4550 Towne Centre Court,SAN DIEGO,California,United States of America
Labatec Pharma,Health,JPM,,,,,,,,,,,
Labfive,Health,JPM,,,,,,,,,,,
Lacerta Bio,Health,JPM,,,,,,,,,,,
Landos Biopharma,Health,JPM,,,,,,,,,,,
Lannett Company,Health,GlobalData,United States of America,"1,251",$685,customerservice@lannett.com,www.lannett.com,1 215 3339000,,13200 Townsend Road,Philadelphia,Pennsylvania,United States of America
Lantern Pharma,Health,JPM,,,,,,,,,,,
Lantheus Holdings,Health,GlobalData,United States of America,488,$343,,www.lantheus.com,1 978 6718001,,331 Treble Cove Road,North Billerica,Massachusetts,United States of America
Lanxess,Health,GlobalData,Germany,"15,441","$8,493",,www.lanxess.com,49 221 88850,,Kennedyplatz 1,Cologne,,Germany
Lava Therapeutics,Health,JPM,,,,,,,,,,,
Lead Pharma,Health,JPM,,,,,,,,,,,
leadXpro ,Health,JPM,,,,,,,,,,,
Leap Therapeutics,Health,GlobalData,United States of America,23,,info@leaptx.com,www.leaptx.com/,1 617 2524343,1 302 6555049,47 Thorndike St Ste B1-1,CAMBRIDGE,Massachusetts,United States of America
Lee's Pharmaceutical,Health,GlobalData,Hong Kong,"1,028",$145,info@leespharm.com,www.leespharm.com,852 23141282,852 23141708,"1st Floor, Building 20E, Phase 3",Shatin,,Hong Kong
LegoChem Biosciences,Health,GlobalData,South Korea,80,$23,,www.legochembio.com,82 42 8610688,82 42 8610689,8-26 Munpyeongseo-ro,Daejeon,,South Korea
Leidos Health,Health,JPM,,,,,,,,,,,
Lepu Medical Technology,Health,GlobalData,China,"7,689",$961,international@lepumedical.com,en.lepumedical.com,86 10 80120666,86 10 80120600,37 Chaoqian Road,Beijing,Beijing,China
Lexicon Pharmaceuticals,Health,GlobalData,United States of America,202,$63,,www.lexpharma.com,1 281 8633000,1 281 8638088,8800 Technology Forest Place,The Woodlands,Texas,United States of America
LG Chem,Health,GlobalData,South Korea,"14,280","$25,636",,www.lgchem.com,82 2 37731114,82 2 37737813,LG Twin Tower,Seoul,,South Korea
Lianhe Chemical Technology,Health,GlobalData,China,"5,311",$622,,www.lianhetech.com,86 576 84275170,86 576 84275110,"8 Yongjiao Road, Huangyan Economic Development Zone",Taizhou,Zhejiang,China
Lifco,Health,GlobalData,Sweden,"5,219","$1,375",ir@lifco.se,lifco.se,,,Verkmastaregatan 1,Enkoping,,Sweden
Lifex Biolabs,Health,JPM,,,,,,,,,,,
Ligand Pharmaceuticals,Health,GlobalData,United States of America,116,$251,,www.ligand.com,1 858 5507500,,"Suite 110, 3911 Sorrento Valley Boulevard",San Diego,California,United States of America
LignaMed,Health,JPM,,,,,,,,,,,
Lin BioScience,Health,JPM,,,,,,,,,,,
Linde,Health,GlobalData,Germany,"62,057","$19,293",info@linde.com,www.the-linde-group.com,49 893 575701,49 893 57571075,Klosterhofstrasse 1,Munich,Bayern,Germany
Lion,Health,GlobalData,Japan,"6,941","$3,152",,www.lion.co.jp,81 3 36216211,,"1-3-7, Honjo",Sumida Ku,Tokyo,Japan
Liquidia Technologies,Health,GlobalData,United States of America,63,$3,info@liquidia.com,liquidia.com,1 919 3284400,1 919 3284402,"PO Box 110085, Research Triangle Park",,North Carolina,United States of America
LivaNova,Health,GlobalData,United Kingdom,"4,000","$1,107",,www.livanova.com,44 20 33250660,,20 Eastbourne Terrace,London,England,United Kingdom
Livzon Pharmaceutical Group,Health,GlobalData,China,"7,671","$1,340",overseas@livzon.com.cn,www.livzon.com.cn,86 756 8135859,86 756 8891070,"No.38, Chuangye Road North",Zhuhai,Guangdong,China
LMP Bio Co. ,Health,JPM,,,,,,,,,,,
Locus Biosciences ,Health,JPM,,,,,,,,,,,
Logicbio Therapeutics,Health,GlobalData,United States of America,23,,contact@logicbio.com,www.logicbio.com,1 614 2450399,,"3rd Floor, 610 Main Street",Cambridge,Massachusetts,United States of America
Longevity Biotech,Health,JPM,,,,,,,,,,,
Lonza Group,Health,GlobalData,Switzerland,"15,375","$5,666",info@lonza.com,www.lonza.com,41 61 3168111,41 61 3169111,Muenchensteinerstrasse 38,Basel,Basel-Stadt,Switzerland
Loratorios Farmaceuticos Rovi,Health,GlobalData,Spain,"1,224",$358,rovi@rovi.es,www.rovi.es,34 913 756230,34 913 047881,"Calle Jose Isbert, 2",Pozuelo de Alarcon,Madrid,Spain
Loxo Oncology,Health,GlobalData,United States of America,96,$21,info@loxooncology.com,www.loxooncology.com,1 203 6533880,1 302 6365454,281 Tresser Blvd Fl 9,STAMFORD,Connecticut,United States of America
Lumen Bioscience,Health,JPM,,,,,,,,,,,
Lumosa Therapeutics Co. ,Health,JPM,,,,,,,,,,,
Luye Pharma Group,Health,GlobalData,China,"4,417",$782,luye@luye.cn,www.luye.cn,86 535 3808593,86 535 6717718,"No. 9, Baoyuan Road",Yantai,Shandong,China
lynx,Health,GlobalData,Belgium,438,$63,info@ablynx.com,www.ablynx.com,32 9 2620000,32 9 2620001,"Technology Park, Zwijnaarde 21",Ghent,Flandre Orientale,Belgium
Lynx Biosciences,Health,JPM,,,,,,,,,,,
Lysosomal Therapeutics ,Health,JPM,,,,,,,,,,,
M3 Biotechnology ,Health,JPM,,,,,,,,,,,
MAA Laboratories,Health,JPM,,,,,,,,,,,
Mabspace Biosciences,Health,JPM,,,,,,,,,,,
MacroGenics,Health,GlobalData,United States of America,364,$60,,www.macrogenics.com,1 301 2515172,1 301 2515321,9704 Medical Center Drive,Rockville,Maryland,United States of America
Madison Vaccines orporated,Health,JPM,,,,,,,,,,,
Madrigal Pharmaceuticals,Health,GlobalData,United States of America,17,,info@madrigalpharma.com,www.madrigalpharma.com,1 404 3809263,1 302 6555049,"Suite 400, 200 Barr Harbor Drive",Conshohocken,Pennsylvania,United States of America
Mallinckrodt Pharmaceuticals,Health,GlobalData,United Kingdom,"3,700","$3,216",,mallinckrodt.com,44 17 84636700,,"3 Lotus Park, The Causeway",Staines,Surrey,United Kingdom
Manzanita Pharmaceuticals ,Health,JPM,,,,,,,,,,,
Marinus Pharmaceuticals,Health,GlobalData,United States of America,28,,,www.marinuspharma.com,1 484 8014670,,"Suite 250
 
 , 170 North Radnor Chester Road",Radnor,Pennsylvania,United States of America
Marinus Pharmaceuticals ,Health,JPM,,,,,,,,,,,
Masimo,Health,GlobalData,United States of America,"1,500",$858,customerorders@masimo.com,www.masimo.com,1 949 2977000,1 949 2977499,52 Discovery,Irvine,California,United States of America
MatriSys Bioscience ,Health,JPM,,,,,,,,,,,
MaveriX Oncology ,Health,JPM,,,,,,,,,,,
Mawdsley-Brooks,Health,JPM,,,,,,,,,,,
MaxCyte,Health,GlobalData,United States of America,32,$17,info@maxcyte.com,www.maxcyte.com,1 301 9441700,1 301 9441703,"Suite 110, 22 Firstfield Road",Gaithersburg,Maryland,United States of America
McKesson,Health,GlobalData,United States of America,"78,000","$214,319",,www.mckesson.com,1 415 9838300,,One Post Street,San Francisco,California,United States of America
MD2 Biosciences,Health,JPM,,,,,,,,,,,
MDxHealth,Health,JPM,,,,,,,,,,,
Medicenna Therapeutics ,Health,JPM,,,,,,,,,,,
Medicines360,Health,JPM,,,,,,,,,,,
Medicus Biosciences,Health,JPM,,,,,,,,,,,
Medidata Solutions,Health,GlobalData,United States of America,"1,998",$636,,www.medidata.com,1 212 9181800,,"9th Floor, 350 Hudson Street",New York,New York,United States of America
Medigen Biotechnology,Health,GlobalData,Taiwan,67,$14,info@medigen.com.tw,www.medigen.com.tw,886 2 77361234,886 2 77361233,"14F. No.3, Park Street, Nangang District",Taipei City,Taipei,Taiwan
Medigen Vaccine Biologics,Health,GlobalData,Taiwan,103,,info@medigenvac.com,www.medigenvac.com,886 3 6684866,886 36 684865,"7 Floor., No. 16, Ln. 120, Sec. 1, Neihu Road",Taipei City,,Taiwan
MediGene,Health,GlobalData,Germany,118,$9,medigene@medigene.com,www.medigene.com,49 89 2000330,49 89 2000332920,Lochhamer Strasse 11,Planegg,Bayern,Germany
Medikine,Health,JPM,,,,,,,,,,,
Meditope Biosciences,Health,JPM,,,,,,,,,,,
Medivir,Health,GlobalData,Sweden,36,$3,info@medivir.com,www.medivir.com,46 8 54683100,46 8 4076439,Lunastigen 7,Huddinge,,Sweden
MediWound,Health,GlobalData,Israel,73,$3,info@mediwound.com,www.mediwound.com,972 77 9714100,972 77 9714111,42 Hayarkon Street,Yavne,Rishon LeZion,Israel
Medline Industries,Health,GlobalData,,,,,,,,,,,
Medpharm ,Health,JPM,,,,,,,,,,,
MedWorld Advisors,Health,JPM,,,,,,,,,,,
Medytox,Health,GlobalData,South Korea,280,$187,yongki_oh@medy-tox.co.kr,www.medytox.com,82 43 2171555,82 43 2171557,Medytox Bldg. 626,Seoul,,South Korea
Megmilk Snow Brand,Health,GlobalData,Japan,"5,009","$5,378",,www.meg-snow.com,81 3 68873690,,5-1 Yotsuyahonshio-cho,Shinjuku-ku,Tokyo,Japan
MEI Pharma,Health,GlobalData,United States of America,32,$2,,www.meipharma.com,1 858 3697100,,"Suite 500, 3611 Valley Centre Drive",San Diego,California,United States of America
Meiji Seika Pharma Co. ,Health,JPM,,,,,,,,,,,
MeirTx Holdings,Health,GlobalData,United States of America,68,,info@meiragtx.com,meiragtx.com,1 646 4902965,,"10th Floor, 430 East 29th Street",New York,New York,United States of America
Melinta Therapeutics,Health,GlobalData,United States of America,290,$96,info@melinta.com,melinta.com,1 312 7670291,1 302 6555049,"Suite 301, 300 George Street",New Haven,Connecticut,United States of America
Menlo Therapeutics,Health,GlobalData,United States of America,41,$11,info@menlotx.com,www.menlotherapeutics.com,1 650 4861416,1 302 6555049,"Floor 2, 200 Cardinal Way",Redwood City,California,United States of America
Menta Therapeutics,Health,GlobalData,United States of America,59,,info@magentatx.com,www.magentatx.com,1 857 2420170,1 302 6555049,"8th Floor, 50 Hampshire Street",Cambridge,Massachusetts,United States of America
Merck,Health,GlobalData,,,,,,,,,,,
Mereo Biopharma Group,Health,GlobalData,United Kingdom,31,,,www.mereobiopharma.com,44 333 0237300,,"Fourth Fl, 1 Cavendish Place",London,England,United Kingdom
Meridian Bioscience,Health,GlobalData,United States of America,585,$214,mbi@meridianbioscience.com,www.meridianbioscience.com,1 513 2713700,1 513 2713762,3471 River Hills Drive,Cincinnati,Ohio,United States of America
Merna Therapeutics,Health,GlobalData,United States of America,86,$11,info@mersana.com,www.mersana.com,1 617 4980020,,840 Memorial Drive,Cambridge,Massachusetts,United States of America
Merrimack Pharmaceuticals,Health,GlobalData,United States of America,27,,,www.merrimackpharma.com,1 617 4411000,1 617 4911386,"Suite # B7201, 1 Kendall Squire",Cambridge,Massachusetts,United States of America
Merus,Health,GlobalData,Netherlands,98,$37,enquiries@merus.nl,www.merus.nl,31 30 2538800,,Yalelaan 62,Utrecht City,Utrecht,Netherlands
Mesoblast,Health,GlobalData,Australia,81,$17,info@mesoblast.com,www.mesoblast.com,61 3 96396036,61 3 96396030,"55 Collins Street , Level 38",Melbourne,Victoria,Australia
Metabolon,Health,GlobalData,,,,,,,,,,,
Mettler-Toledo International,Health,GlobalData,United States of America,"16,000","$2,936",,in.mt.com,1 614 4384511,1 302 6555049,1900 Polaris Parkway,Columbus,Ohio,United States of America
Metys Pharmaceuticals,Health,JPM,,,,,,,,,,,
Mezzion Pharma,Health,GlobalData,South Korea,24,$17,,www.mezzion.co.kr,82 2 5608000,82 2 5636517,"3rd Floor, C and H Building, 154-8 Samseong-dong",Seoul City,,South Korea
Microbial Medical ,Health,JPM,,,,,,,,,,,
Midatech Pharma,Health,GlobalData,United Kingdom,85,$3,info@midatechpharma.com,www.midatechpharma.com,44 1235 888300,,"65 Innovation Drive, Milton Park",Abingdon,Oxfordshire,United Kingdom
Midatech Pharma,Health,JPM,,,,,,,,,,,
Militia Hill Ventures,Health,JPM,,,,,,,,,,,
MilliporeSigma,Health,JPM,,,,,,,,,,,
Miltenyi Biotec ,Health,GlobalData,,,,,,,,,,,
Mimetas,Health,JPM,,,,,,,,,,,
MimiVax,Health,JPM,,,,,,,,,,,
Minerva Biotechnologies Corporation,Health,JPM,,,,,,,,,,,
Minerva Neurosciences,Health,GlobalData,United States of America,13,,info@minervaneurosciences.com,www.minervaneurosciences.com,1 617 6007373,,"Suite 286, 1601 Trapelo Road",Waltham,Massachusetts,United States of America
Mingsight Pharmaceuticals,Health,JPM,,,,,,,,,,,
Mion,Health,GlobalData,Poland,196,,info@mabion.eu,www.mabion.eu,48 42 2032703,,gen. Mariana Langiewicza 60 Street,Konstantynow Lodzki,Lodz,Poland
Miraca Holdings,Health,GlobalData,Japan,"5,541","$1,763",,www.miraca-holdings.co.jp,81 3 59093335,81 3 59093336,"2-1-1 Nishi Shinjuku, Shinjuku Mitsui Building",Shinjuku-Ku,Tokyo,Japan
Mirata BioPharma,Health,JPM,,,,,,,,,,,
Mirati Therapeutics,Health,GlobalData,United States of America,63,$13,info@mirati.com,www.mirati.com,1 858 3323410,1 302 6555049,"Suite 200, 9393 Towne Centre Drive",San Diego,California,United States of America
miRecule,Health,JPM,,,,,,,,,,,
Miren Therapeutics,Health,GlobalData,United States of America,77,$8,info@miragenrx.com,www.miragen.com,1 303 5315952,1 845 8183588,6200 Lookout Rd,Boulder,Colorado,United States of America
Mirna Therapeutics,Health,GlobalData,United States of America,74,$3,,www.mirnatherapeutics.com,1 512 9010900,1 512 681-5201,"Suite 400, 1250 South Capital of Texas Highway, Building 3",Austin,Texas,United States of America
Mironid,Health,JPM,,,,,,,,,,,
Mithra Pharmaceuticals,Health,GlobalData,Belgium,104,$68,info@mithra.com,www.mithra.com,32 4 3492822,32 4 3492821,Rue Saint-Georges 5,Liege City,Liege,Belgium
Mitsui Chemicals,Health,GlobalData,Japan,"17,277","$11,984",web_master@mitsuichem.com,www.mitsuichem.com,81 3 62532225,81 3 62534247,"18F, Shiodome City Center, 1-5-2, Higashi-Shimbashi",MINATO-KU,Tokyo,Japan
Moberg Pharma ,Health,JPM,,,,,,,,,,,
Mochida Pharmaceutical ,Health,GlobalData,Japan,"1,666",$963,,www.mochida.co.jp,81 3 33587211,81 3 33587887,"1-7, Yotsuya",Tokyo City,Tokyo,Japan
Moderna Therapeutics,Health,GlobalData,United States of America,760,$135,info@modernatx.com,www.modernatx.com,1 617 7146500,1 617 5831998,200 Technology Square,Cambridge,Massachusetts,United States of America
Molecular Partners,Health,GlobalData,Switzerland,118,$11,,www.molecularpartners.com,41 44 7557700,41 44 7557707,Wagistrasse 14,Schlieren,Zurich,Switzerland
Molecular Templates,Health,GlobalData,United States of America,68,$13,info@mtem.com,www.mtem.com,1 512 8961555,,"Suite 100, 9301 Amberglen Boulevard",Austin,Texas,United States of America
Molecular Templates ,Health,JPM,,,,,,,,,,,
Moleculera Labs,Health,JPM,,,,,,,,,,,
Momenta Pharmaceuticals,Health,GlobalData,United States of America,131,$76,info@momentapharma.com,www.momentapharma.com,1 617 4919700,1 617 6210431,301 Binney Street,Cambridge,Massachusetts,United States of America
monARC Bionetworks,Health,JPM,,,,,,,,,,,
Monosol Rx ,Health,JPM,,,,,,,,,,,
Moonlight Therapeutics ,Health,JPM,,,,,,,,,,,
Morina & Co,Health,GlobalData,Japan,"3,169","$1,849",,www.morinaga.co.jp,81 3 34560115,,"2F, Morinaga Plaza Bldg, 5-33-1, Shiba",Minato,Tokyo,Japan
MorphoSys,Health,GlobalData,Germany,340,$90,info@morphosys.com,www.morphosys.de,49 89 89927000,49 89 89927222,Semmelweisstreet 7,Planegg,Bayern,Germany
Motif Bio,Health,GlobalData,United Kingdom,7,,info@motifbio.com,www.motifbio.com,,,"201 Temple Chambers, 3-7 Temple Avenue",London,Greater London,United Kingdom
MotionHall,Health,JPM,,,,,,,,,,,
Mount Tam Biotechnologies,Health,JPM,,,,,,,,,,,
MSI Methylation Sciences ,Health,JPM,,,,,,,,,,,
Multimeric Biotherapeutics ,Health,JPM,,,,,,,,,,,
MultiVir ,Health,JPM,,,,,,,,,,,
Mundipharma International ,Health,JPM,,,,,,,,,,,
Mylan,Health,JPM,,,,,,,,,,,
MyoKardia,Health,GlobalData,United States of America,165,$34,info@myokardia.com,www.myokardia.com,1 650 7410900,,333 Allerton Ave,South San Francisco,California,United States of America
Myovant Sciences,Health,GlobalData,United Kingdom,104,,,myovant.com,44 1824 8101,,20-22 Bedford Row,London,Greater London,United Kingdom
Myriad Genetics,Health,GlobalData,United States of America,"2,400",$773,,www.myriad.com,1 801 5843600,1 801 5843640,320 Wakara Way,Salt Lake City,Utah,United States of America
Naked Biome,Health,JPM,,,,,,,,,,,
NAL Pharmaceutical Group ,Health,JPM,,,,,,,,,,,
Nanjing King-friend Biochemical Pharmaceutical,Health,GlobalData,China,713,$165,,www.nkf-pharma.com,86 25 86990789,86 25 86990701,1-16 Xuefu Road,Nanjing,Jiangsu,China
Nanobiotix,Health,GlobalData,France,102,$0,contact@nanobiotix.com,www.nanobiotix.com,33 1 40260470,33 1 40260444,60 Rue de Wattignies,Paris,Ile-de-France,France
NanoCarrier,Health,GlobalData,Japan,51,$2,info@nanocarrier.co.jp,www.nanocarrier.co.jp,81 47 1977621,81 47 1977624,"Chuou 144-15, 226-39 Wakashiba",Kashiwa,Chubu,Japan
Nanocarrier Co. ,Health,JPM,,,,,,,,,,,
NanOlogy,Health,JPM,,,,,,,,,,,
Nanome ,Health,JPM,,,,,,,,,,,
NanoString Technologies,Health,GlobalData,United States of America,476,$107,info@nanostring.com,www.nanostring.com,1 206 3786266,1 206 3786288,530 Fairview Avenue North,Seattle,Washington,United States of America
NantHealth,Health,GlobalData,United States of America,543,$89,info@nanthealth.com,www.nanthealth.com,1 310 8831300,,9920 Jefferson Blvd,Culver City,California,United States of America
NantKwest,Health,GlobalData,United States of America,161,$0,contact@nantkwest.com,nantkwest.com,1 858 6330300,1 302 6745266,3530 John Hopkins Court,San Diego,California,United States of America
Nashville Biosciences,Health,JPM,,,,,,,,,,,
Natera,Health,GlobalData,United States of America,975,$258,info@natera.com,www.natera.com,1 650 2499090,1 302 6745266,"Suite 410 , 201 Industrial Road",San Carlos,California,United States of America
Navidea Biopharmaceuticals ,Health,JPM,,,,,,,,,,,
Navigen Pharmaceuticals ,Health,JPM,,,,,,,,,,,
Ncardia,Health,JPM,,,,,,,,,,,
Nektar Therapeutics,Health,GlobalData,United States of America,618,"$1,193",nektarSF@nektar.com,www.nektar.com,1 415 4825300,1 415 3395300,455 Mission Bay Boulevard South,San Francisco,California,United States of America
Neon Therapeutics,Health,GlobalData,United States of America,102,,info@neontherapeutics.com,neontherapeutics.com,1 617 3374701,,"Suite 110, 40 Erie Street",Cambridge,Massachusetts,United States of America
Neopharm ,Health,JPM,,,,,,,,,,,
NEOPHARMA,Health,JPM,,,,,,,,,,,
Nephrian ,Health,JPM,,,,,,,,,,,
Netrin Pharmaceuticals,Health,JPM,,,,,,,,,,,
Neuclone,Health,JPM,,,,,,,,,,,
NeuCyte,Health,JPM,,,,,,,,,,,
Neuracle Science,Health,JPM,,,,,,,,,,,
Neuralstem ,Health,JPM,,,,,,,,,,,
NeuroActiva ,Health,JPM,,,,,,,,,,,
Neurocrine Biosciences,Health,GlobalData,United States of America,585,$451,,www.neurocrine.com,1 858 6177600,1 858 6177602,12780 El Camino Real,San Diego,California,United States of America
Neurogastrx orporated,Health,JPM,,,,,,,,,,,
NeuroHealing Pharmaceuticals,Health,JPM,,,,,,,,,,,
NeuroNascent ,Health,JPM,,,,,,,,,,,
Neuropore,Health,JPM,,,,,,,,,,,
Neurotrope Bioscience,Health,JPM,,,,,,,,,,,
Nevro,Health,GlobalData,United States of America,804,$387,,www.nevro.com,1 650 2510005,13026555049,1800 Bridge Parkway,Redwood City,California,United States of America
NewLink Genetics,Health,GlobalData,United States of America,55,$12,info@newlinkgenetics.com,newlinkgenetics.com,1 515 2965555,1 515 2963520,2503 S Loop Dr Ste 5100,AMES,Iowa,United States of America
Nexgenia,Health,JPM,,,,,,,,,,,
Next Science,Health,JPM,,,,,,,,,,,
NextCure,Health,GlobalData,United States of America,44,,,,1 240 4181773,1 302 6555049,13503 Sanderling Pl,GERMANTOWN,Maryland,United States of America
NIBEC,Health,JPM,,,,,,,,,,,
Nichiban,Health,GlobalData,Japan,"1,241",$417,,www.nichiban.com,81 3 59785622,81 3 59785640,"2-3-3, Sekiguchi",Tokyo City,Tokyo,Japan
NicOx,Health,GlobalData,France,34,$5,,www.nicox.com,33 4 97245300,33 4 97245399,"Drakkar 2, Bat D 2405 Route Des Dolines",Valbonne,Provence - Alpes- Cote d'Azur,France
Nightstar Therapeutics,Health,GlobalData,United Kingdom,47,,enquiries@nightstartx.com,www.nightstartx.com,44 20 70622777,,9-10 Midford Place,London,Greater London,United Kingdom
Nihon Dempa Kogyo,Health,GlobalData,Japan,"3,514",$396,,www.ndk.com,81 3 54536771,81 3 54536756,"Merkmal Keio Sasazuka Building, 1-47-1, Sasazuka",Shibuya-ku,Tokyo,Japan
Nihon Nohyaku,Health,GlobalData,Japan,"1,443",$552,,www.nichino.co.jp,81 3 63611400,81 3 63611450,"Kyobashi OM Bldg., , 1-19-8, Kyobashi",Tokyo City,Tokyo,Japan
Ningbo Medical System Biotechnology,Health,GlobalData,China,"2,863",$474,,www.nb-medicalsystem.com,86 574 88223000,86 574 88231889,"No.299, Qiming South Road",Ningbo,Zhejiang,China
Ningbo Tech-Bank,Health,GlobalData,China,"4,397",$683,,www.tianbang.com,86 21 55285528,86 21 54484566,"No. 65 , Guangxi Jinglu, new 11 Storey Building",Shanghai City,Shanghai,China
Nippon Chemiphar,Health,GlobalData,Japan,816,$319,,www.chemiphar.co.jp,81 3 38631211,81 3 38645940,"2-2-3, Iwamoto-cho",Tokyo City,Tokyo,Japan
Nippon Kayaku,Health,GlobalData,Japan,"5,684","$1,514",,www.nipponkayaku.co.jp,81 3 67315200,,"Meiji Yasuda Seimei Building 19th and 20th Floors, 1-1, Marunouchi 2-chome",Chiyoda-ku,Tokyo,Japan
Nippon Shinyaku,Health,GlobalData,Japan,"1,928",$915,,www.nippon-shinyaku.co.jp,81 75 3211111,81 75 3210678,"14, Nishinosho Monguchi-cho, Kisshoin, Minami-ku",Kyoto,Kyoto,Japan
Nippon Suin Kaisha .,Health,GlobalData,Japan,"9,003","$6,161",,www.nissui.co.jp,81 3 62067000,,"Nishi-Shimbashi Square, 1-3-1, Nishi Shimbashi",Minato-ku,Tokyo,Japan
NL Industries,Health,GlobalData,United States of America,"2,195",$118,,www.nl-ind.com,1 972 2331700,,"Suite 1700, 5430 Lbj Freeway",Dallas,Texas,United States of America
Nobelpharma Co. ,Health,JPM,,,,,,,,,,,
Nodus Therapeutics ,Health,JPM,,,,,,,,,,,
Noevir Holdings,Health,GlobalData,Japan,"1,531",$522,,www.noevirholdings.co.jp/english/,81 3 55680305,81 3 55680441,"7-6-15 Ginza, Chuo-ku",Tokyo City,Tokyo,Japan
NOIGEL ,Health,JPM,,,,,,,,,,,
NoNO ,Health,JPM,,,,,,,,,,,
North China Pharmaceutical,Health,GlobalData,China,"10,909","$1,393",,www.ncpc.com,86 311 85993999,86 311 86672430,388 Heping East Road,Shijiazhuang,Hebei,China
Northeast Pharmaceutical Group,Health,GlobalData,China,"8,106","$1,129",,www.nepharm.com,,86 24 22724536,"19th Floor, Block B, Chamber of Commerce head quarter Mansion. No.51, The Youth Street",Shenyang,Liaoning,China
Northwest Biotherapeutics,Health,GlobalData,United States of America,10,$0,,www.nwbio.com,1 240 4979024,1 302 6365454,"Suite 800, 4800 Montgomery Lane",Bethesda,Maryland,United States of America
Notable Labs,Health,JPM,,,,,,,,,,,
Notogen ,Health,JPM,,,,,,,,,,,
Nouvant,Health,GlobalData,,,,,,,,,,,
Novadiol,Health,JPM,,,,,,,,,,,
Novadiscovery,Health,JPM,,,,,,,,,,,
Novan,Health,GlobalData,United States of America,48,$6,,www.novan.com,1 919 4858080,1 302 5313150,4105 Hopson Rd,MORRISVILLE,North Carolina,United States of America
Novartis ,Health,JPM,,,,,,,,,,,
Novavax,Health,GlobalData,United States of America,379,$34,,www.novavax.com,1 240 2682000,1 302 6555049,20 Firstfield Road,Gaithersburg,Maryland,United States of America
Novelion Therapeutics,Health,GlobalData,Canada,109,$130,infogroup@novelion.com,www.novelion.com,1 617 5007867,1 617 9457968,"1800-510 , West Georgia St",Vancouver,British Columbia,Canada
Noven Pharmaceuticals,Health,GlobalData,,,,,,,,,,,
NovMetaPharma Co.,Health,JPM,,,,,,,,,,,
Novoclem Therapeutics ,Health,JPM,,,,,,,,,,,
Novocol Healthcare ,Health,JPM,,,,,,,,,,,
NovoCure,Health,GlobalData,United Kingdom,598,$248,generalinfo@novocure.com,www.novocure.com,44 1534 756700,,"Second Floor
 
 , No. 4 The Forum Grenville Street",Saint Helier,Jersey,United Kingdom
Novozymes,Health,GlobalData,Denmark,"6,463","$2,279",,www.novozymes.com,45 44 460000,45 44 469999,Krogshoejvej 36,Bagsvaerd,,Denmark
Novum Pharma,Health,JPM,,,,,,,,,,,
Nriva Therapeutics,Health,GlobalData,Ireland,110,$10,office@nabriva.com,www.nabriva.com,353 1 6492000,,25-28 North Wall Quay,Dublin City,Dublin,Ireland
Nu Skin Enterprises,Health,GlobalData,United States of America,"4,900","$2,679",,www.nuskin.com,1 801 3451000,1 801 3455999,75 W Center St,PROVO,Utah,United States of America
Nuance Communications,Health,GlobalData,United States of America,"10,400","$2,052",,www.nuance.com,1 781 5655000,,One Wayside Road,Burlington,Massachusetts,United States of America
NuCana,Health,GlobalData,United Kingdom,24,,info@nucana.com,www.nucana.com,44 131 3571111,,3 Lochside Way,Edinburgh,Scotland,United Kingdom
Numerate ,Health,JPM,,,,,,,,,,,
NuvOx Pharma ,Health,JPM,,,,,,,,,,,
NxSte Medical,Health,GlobalData,United States of America,"3,800",$394,info@nxstage.com,www.nxstage.com,1 866 6978243,,350 Merrimack Street,Lawrence,Massachusetts,United States of America
OBI Pharma,Health,GlobalData,Taiwan,40,$0,info@obipharma.com,www.obipharma.com,886 2 26558799,886 2 26558798,"19F, No.3, Yuanqu Street, Nangang District",TAIPEI,,Taiwan
ObsEva,Health,GlobalData,Switzerland,45,$0,contact@obseva.ch,www.obseva.com,41 22 5523840,,Chemin des Aulx 12,PLAN-LES-OUATES,,Switzerland
Obsidio Therapeutics,Health,JPM,,,,,,,,,,,
Ocera Therapeutics,Health,GlobalData,United States of America,19,$1,,www2.mallinckrodt.com/ocera,,,"Suite 610, 525 University Avenue",Palo Alto,California,United States of America
Ocular Therapeutix,Health,GlobalData,United States of America,167,$2,info@ocutx.com,www.ocutx.com,1 781 3574000,1 781 3574001,15 Crosby Drive,Bedford,Massachusetts,United States of America
Odonate Therapeutics,Health,GlobalData,United States of America,117,,,www.odonate.com,1 858 7318180,,"Suite 510, 4747 Executive Drive",San Diego,California,United States of America
Omeros,Health,GlobalData,United States of America,236,$30,info@omeros.com,www.omeros.com,1 206 6765000,1 206 6765005,201 Elliott Avenue West,Seattle,Washington,United States of America
Omnicell,Health,GlobalData,United States of America,"2,480",$787,,www.omnicell.com,1 650 2516100,1 650 2516266,590 East Middlefield Road,Mountain View,California,United States of America
Onco Therapies ,Health,JPM,,,,,,,,,,,
Oncoceutics ,Health,JPM,,,,,,,,,,,
Oncolytics Biotech ,Health,JPM,,,,,,,,,,,
OncoMed Pharmaceuticals,Health,GlobalData,United States of America,22,$44,info@oncomed.com,www.oncomed.com,1 650 9958200,1 650 2988600,800 Chesapeake Drive,Redwood City,California,United States of America
Onconova Therapeutics,Health,GlobalData,United States of America,25,$1,info@onconova.us,www.onconova.com,1 267 7593680,,375 Pheasant Run,Newtown,Pennsylvania,United States of America
Oncopeptides,Health,GlobalData,Sweden,27,,info@oncopeptides.se,www.oncopeptides.se,46 8 6152040,,Vastra Tradgardsgatan 15,Stockholm City,,Sweden
OncoSec Medical,Health,GlobalData,United States of America,33,,info@oncosec.com,oncosec.com,1 855 6626732,1 858 4303832,"Suite 100, 3565 General Atomics Court",San Diego,California,United States of America
OncoTab ,Health,JPM,,,,,,,,,,,
OncoTherapy Science,Health,GlobalData,Japan,56,$2,,www.oncotherapy.co.jp,81 44 8208251,81 44 8208260,"11th Floor, 3-2-1 Sakado, Building D",Kawasaki,Kanagawa,Japan
ONL Therapeutics ,Health,JPM,,,,,,,,,,,
Ono Pharmaceutical,Health,JPM,,,,,,,,,,,
Ophthotech Corporation,Health,JPM,,,,,,,,,,,
OPKO Health,Health,GlobalData,United States of America,"5,690",$990,,www.opko.com,1 305 5754100,,4400 Biscayne Boulevard,Miami,Florida,United States of America
Opsona Therapeutics ,Health,JPM,,,,,,,,,,,
Opthea,Health,GlobalData,Australia,5,$1,info@opthea.com,www.opthea.com,61 3 98260399,61 3 98240083,"Suite 0403, Level 4, 650 Chapel Street",Melbourne,Victoria,Australia
OptiNose US,Health,GlobalData,United States of America,99,$7,info@optinose.com,www.optinose.com,1 267 3643500,1 267 3952119,"Suite 300, 1020 Stony Hill Road",Yardley,Pennsylvania,United States of America
Ora ,Health,JPM,,,,,,,,,,,
Oramed Pharmaceuticals,Health,GlobalData,United States of America,13,$2,,oramed.com,972 2 5660001,1 845 8183588,142 W 57th St Fl 11,NEW YORK,New York,United States of America
OraSure Technologies,Health,GlobalData,United States of America,398,$182,,www.orasure.com,1 503 6416115,1 610 8821830,220 East First Street,Bethlehem,Pennsylvania,United States of America
Orchard Therapeutics,Health,GlobalData,United Kingdom,180,$2,info@orchard-tx.com,www.orchard-tx.com,44 20 33846700,,108 Cannon Street,London,Greater London,United Kingdom
Orexo,Health,GlobalData,Sweden,131,$90,info@orexo.com,www.orexo.com,46 18 7808800,46 18 7808888,Virdings alle 32 A,Uppsala,,Sweden
OrganoLinX,Health,JPM,,,,,,,,,,,
Organovo ,Health,JPM,,,,,,,,,,,
Organovo Holdings,Health,GlobalData,United States of America,75,$5,,www.organovo.com,1 858 2241000,,"Suite 110, 6275 Nancy Ridge Drive",San Diego,California,United States of America
Orgenesis ,Health,JPM,,,,,,,,,,,
Orient Europharma,Health,GlobalData,Taiwan,800,$183,,www.oep.com.tw,886 2 27554881,,"7th Floor, No. 368, Section 1, Fu Hsing South Road",Taipei City,Taipei,Taiwan
ORIG3N ,Health,JPM,,,,,,,,,,,
Orion,Health,GlobalData,Finland,"3,184","$1,154",,www.orion.fi,358 10 4261,358 10 4264435,"P.O. Box 65, Orionintie 1A",Espoo,,Finland
Orpha Labs,Health,JPM,,,,,,,,,,,
Orphazyme,Health,GlobalData,Denmark,57,,contact@orphazyme.com,www.orphazyme.com,45 70 702980,,Ole Maaloees Vej 3,Copenhagen,,Denmark
OrPro Therapeutics ,Health,JPM,,,,,,,,,,,
OSE Immunotherapeutics,Health,GlobalData,France,28,$29,contact@ose-immuno.com,www.ose-immuno.com,33 2 28291010,,"22, Boulevard Benoni Goullin",Nantes,Pays-de-la-Loire,France
Osmotica Pharmaceutical,Health,GlobalData,United States of America,414,$264,,www.osmotica.com,1 908 8091300,,895 Sawyer Road,Marietta,Georgia,United States of America
Otonomy,Health,GlobalData,United States of America,49,$1,info@otonomy.com,www.otonomy.com,1 619 3232200,1 619 2919190,4796 Executive Drive,San Diego,California,United States of America
Otsuka Pharmaceuticals,Health,JPM,,,,,,,,,,,
Outlook Therapeutics,Health,GlobalData,United States of America,56,$3,info@outlooktherapeutics.com,outlooktherapeutics.com,1 609 6193990,,7 Clarke Drive,Cranbury,New Jersey,United States of America
OvaScience,Health,GlobalData,United States of America,36,,,www.ovascience.com,1 617 5002802,1 302 6554620,9 4th Ave,Waltham,Massachusetts,United States of America
Ovid Therapeutics,Health,GlobalData,United States of America,53,,info@ovidrx.com,www.ovidrx.com,1 646 6617661,1 302 6365454,1460 Broadway Ste 15044,New York,New York,United States of America
Oxford BioMedica,Health,GlobalData,United Kingdom,377,$89,enquiries@oxfordbiomedica.co.uk,www.oxfordbiomedica.co.uk,44 1865 783000,44 1865 783001,Windrush Court,Oxford,Oxfordshire,United Kingdom
Oxford Biotherapeutics,Health,JPM,,,,,,,,,,,
Oxford Instruments,Health,GlobalData,United Kingdom,"1,642",$396,info.oiplc@oxinst.com,www.oxinst.com,44 1865 393200,44 1865 393333,Tubney Woods,Abingdon,Oxfordshire,United Kingdom
OxStem ,Health,JPM,,,,,,,,,,,
Oxurion,Health,GlobalData,Belgium,74,$6,info@thrombogenics.com,www.thrombogenics.com,32 16 751310,32 16 751311,Gaston Geenslaan 1,Leuven,Brabant Flamand,Belgium
Pacific Biosciences of California,Health,GlobalData,United States of America,401,$79,support@pacb.com,www.pacificbiosciences.com,1 650 5218000,1 302 6365454,1305 O'Brien Drive,Menlo Park,California,United States of America
Pacira BioSciences,Health,GlobalData,United States of America,518,$337,info@pacira.com,www.pacira.com,1 973 2543560,1 302 6555049,"Suite 300, 5 Sylvan Way",Parsippany,New Jersey,United States of America
Paion,Health,GlobalData,Germany,40,$3,info@paion.com,www.paion.com,49 241 44530,49 241 4453100,Martinstrasse 10-12,Aachen,Nordrhein-Westfalen,Germany
Paladin Labs ,Health,JPM,,,,,,,,,,,
Palatin Technologies,Health,GlobalData,United States of America,19,$67,info@palatin.com,www.palatin.com,1 609 4952200,1 609 4952202,4B Cedarbrook Dr,Cranbury,New Jersey,United States of America
Palladio,Health,JPM,,,,,,,,,,,
Paragon Bioservices ,Health,JPM,,,,,,,,,,,
Parallume ,Health,JPM,,,,,,,,,,,
Paratek Pharmaceuticals,Health,GlobalData,United States of America,101,$17,info@paratekpharma.com,paratekpharma.com,1 617 8076600,1 617 2750039,"4th Floor, 75 Park Plaza",BOSTON,Massachusetts,United States of America
Path BioAnalytics ,Health,JPM,,,,,,,,,,,
PDL BioPharma,Health,JPM,,,,,,,,,,,
Penumbra,Health,GlobalData,United States of America,"2,200",$445,info@penumbrainc.com,www.penumbrainc.com,1 510 9952486,1 302 5313150,1 Penumbra,Alameda,California,United States of America
PepVax ,Health,JPM,,,,,,,,,,,
Peregrine Pharmaceuticals,Health,JPM,,,,,,,,,,,
PerkinElmer,Health,GlobalData,United States of America,"12,500","$2,778",CustomerCareUS@perkinelmer.com,www.perkinelmer.com,1 781 6635776,,940 Winter Street,Waltham,Massachusetts,United States of America
Perrigo,Health,GlobalData,Ireland,"10,600","$4,732",,www.perrigo.com,353 1 7094000,,"Treasury Building, Grand Canal Street Lower",Dublin,Leinster,Ireland
Pfenex,Health,GlobalData,United States of America,71,$15,,www.pfenex.com,1 858 3524400,1 858 3524602,10790 Roselle Street,San Diego,California,United States of America
Pfizer ,Health,JPM,,,,,,,,,,,
pH Pharma,Health,JPM,,,,,,,,,,,
Phagelux ,Health,JPM,,,,,,,,,,,
Pharma Mar,Health,GlobalData,Spain,599,$192,pharmamar@pharmamar.com,www.pharmamar.comes,34 918 466000,34 918 466001,"Avda. De los Reyes, 1, Pol. Ind. La Mina",Colmenar Viejo,Madrid,Spain
Pharmacosmos ,Health,JPM,,,,,,,,,,,
PharmaEssentia,Health,GlobalData,Taiwan,131,$1,info@pharmaessentia.com,www.pharmaessentia.com,886 2 26557688,886 2 26557626,"13th Floor, No.3, Yuanqu Street",Taipei City,,Taiwan
Pharmathen,Health,JPM,,,,,,,,,,,
PharmAthene,Health,GlobalData,United States of America,27,$10,info@pharmathene.com,www.altimmune.com,1 240 6541450,1 302 6745266,19 Firstfield Rd,GAITHERSBURG,Maryland,United States of America
Pharming Group,Health,GlobalData,Netherlands,127,$159,info@pharming.com,www.pharming.com,31 71 5247400,31 71 5247445,Darwinweg 24,Leiden,Zuid-Holland,Netherlands
PharPoint Research ,Health,JPM,,,,,,,,,,,
PhaseBio Pharmaceuticals,Health,GlobalData,United States of America,24,$1,,phasebio.com,1 610 9816500,1 302 5313150,"Suite 30, One Great Valley Parkway",Malvern,Pennsylvania,United States of America
Phelix Therapeutics,Health,JPM,,,,,,,,,,,
Phosplatin Therapeutics ,Health,JPM,,,,,,,,,,,
Phyteau,Health,JPM,,,,,,,,,,,
Pieris Pharmaceuticals,Health,GlobalData,United States of America,107,$29,info@pieris.com,www.pieris.com,1 857 2468998,,"9th Floor, 255 State Street",Boston,Massachusetts,United States of America
Pivotal BioSciences ,Health,JPM,,,,,,,,,,,
Pluristem Therapeutics,Health,GlobalData,Israel,172,$0,info@pluristem.com,www.pluristem.com,972 74 7108600,972 74 7108787,Matam Advanced Technology Park Building Number 5,Haifa City,,Israel
Polus ,Health,JPM,,,,,,,,,,,
PolyActiva,Health,JPM,,,,,,,,,,,
PolyAurum ,Health,JPM,,,,,,,,,,,
Polyphor ,Health,JPM,,,,,,,,,,,
PorA Pharmaceuticals,Health,JPM,,,,,,,,,,,
Portola Pharmaceuticals,Health,GlobalData,United States of America,324,$40,info@portola.com,www.portola.com,1 650 2467000,1 650 2467376,270 East Grand Avenue,South San Francisco,California,United States of America
Poxel,Health,GlobalData,France,30,$88,,www.poxelpharma.com,,,259-261 Avenue Jean Jaures,Lyon,Auvergne,France
Praxair,Health,GlobalData,United States of America,"80,820","$14,900",info@praxair.com,www.praxair.com,1 203 8372000,1 800 7729985,10 Riverview Drive,Danbury,Connecticut,United States of America
Precision Biosciences,Health,GlobalData,United States of America,127,$11,,precisionbiosciences.com,1 919 3145512,1 480 3935553,"Suite A-100, 302 East Pettigrew Street, Dibrell Building",Durham,North Carolina,United States of America
PrecisionProfile ,Health,JPM,,,,,,,,,,,
PrEP Biopharm,Health,JPM,,,,,,,,,,,
Primordial Genetics ,Health,JPM,,,,,,,,,,,
Pripia Biopharma,Health,GlobalData,United States of America,69,$69,info@principiabio.com,www.principiabio.com,1 650 4167700,1 302 6555049,"Ste 302, 400 E Jamie Ct",South San Francisco,California,United States of America
PRISM Pharma Co ,Health,JPM,,,,,,,,,,,
ProFarma,Health,JPM,,,,,,,,,,,
Progenics Pharmaceuticals,Health,GlobalData,United States of America,79,$16,,www.progenics.com,1 646 9752500,1 914 7892817,"Suite J, One World Trade Center, 47Th Floor",New York,New York,United States of America
Progenra,Health,JPM,,,,,,,,,,,
Promega ,Health,GlobalData,,,,,,,,,,,
ProMetic Life Sciences,Health,GlobalData,Canada,487,$37,info@prometic.com,prometic.com,1 450 7810115,1 450 7814477,"Suite 300 , 440 Armand-Frappier Blvd",Laval,Quebec,Canada
ProNAi Therapeutics .,Health,GlobalData,Canada,79,,,sierraoncology.staging.wpengine.com,1 604 5586536,,"Suite 2150 , 885 West Georgia Street",Vancouver,British Columbia,Canada
ProQR Therapeutics,Health,GlobalData,Netherlands,130,$7,info@proqr.com,www.proqr.com,31 88 1667000,,Zernikedreef 9,Leiden,Zuid-Holland,Netherlands
Protagen ,Health,JPM,,,,,,,,,,,
Protalix BioTherapeutics,Health,GlobalData,Israel,184,$34,,www.protalix.com,972 4 9028100,972 4 9889489,"2 Snunit Street, Science Park",Karmiel,,Israel
Proteon Therapeutics,Health,GlobalData,United States of America,17,,,www.proteontherapeutics.com,1 781 8900102,1 302 6555049,200 West Street,Waltham,Massachusetts,United States of America
Proteostasis Therapeutics,Health,GlobalData,United States of America,48,$3,,www.proteostasis.com,1 617 2250096,,"5th Floor, 80 Guest Street",Cambridge,Massachusetts,United States of America
ProteXase Therapeutics,Health,JPM,,,,,,,,,,,
Prothena,Health,GlobalData,Ireland,59,$1,info@prothena.com,www.prothena.com,353 1 2362500,353 1 9023510,Adelphi Plaza,Dublin,Leinster,Ireland
Prothena Corporation,Health,JPM,,,,,,,,,,,
Protomer Technologies ,Health,JPM,,,,,,,,,,,
Protonist Therapeutics,Health,GlobalData,United States of America,62,$31,info@protagonist-inc.com,www.protagonist-inc.com,1 510 4740170,1 302 6365454,"Suite 140, 7707 Gateway Boulevard",Newark,California,United States of America
Provention Bio,Health,GlobalData,United States of America,13,,info@proventionbio.com,www.proventionbio.com,1 908 3360360,,,Oldwick,New Jersey,United States of America
Psioxus Therapeutics ,Health,JPM,,,,,,,,,,,
PT Kalbe Farma Tbk,Health,GlobalData,Indonesia,"12,520","$1,481",Corp.Comm@kalbe.co.id,www.kalbe.co.id,62 21 42873888,62 21 42873678,"Gedung KALBE, Jl. Let. Jnd. Sprpto Kav. 4,Cmpk Putih",JAKARTA PUSAT,,Indonesia
PTC Therapeutics,Health,GlobalData,United States of America,517,$265,info@ptcbio.com,www.ptcbio.com,1 908 2227000,1 908 2227231,100 Corporate Court,South Plainfield,New Jersey,United States of America
Pulmatrix,Health,GlobalData,United States of America,6,$0,info@pulmatrix.com,www.pulmatrix.com,1 781 3572333,1 302 6365454,"Suite 390, 99 Hayden Avenue",Lexington,Massachusetts,United States of America
Puma Biotechnology,Health,GlobalData,United States of America,272,$251,info@pumabiotechnology.com,www.pumabiotechnology.com,1 424 2486500,1 424 2486501,"Suite 2150, 10880 Wilshire Blvd.",Los Angeles,California,United States of America
Purdue Pharma ,Health,JPM,,,,,,,,,,,
Puretech Health,Health,GlobalData,United States of America,225,$21,info@puretechhealth.com,www.puretechhealth.com,1 617 4822333,1 617 4823337,501 Boylston Street,Boston,Massachusetts,United States of America
QIAGEN (Suzhou) Translational Medicine Co. ,Health,JPM,,,,,,,,,,,
Qien,Health,GlobalData,Netherlands,"4,952","$1,502",qiagen@qiagen.com,www.qiagen.com,31 77 3556600,31 77 3208409,Hulsterweg 82,Venlo,,Netherlands
Quanterix,Health,GlobalData,United States of America,177,$38,sales@quanterix.com,www.quanterix.com,1 617 3019400,,113 Hartwell Avenue,Lexington,Massachusetts,United States of America
QuarryBio,Health,JPM,,,,,,,,,,,
Quegen Biotech,Health,JPM,,,,,,,,,,,
Quellthera ,Health,JPM,,,,,,,,,,,
Quidel,Health,GlobalData,United States of America,"1,224",$522,,www.quidel.com,1 858 5521100,1 858 4534338,"Suite 200, 12544 High Bluff Drive",San Diego,California,United States of America
Quivive Pharma,Health,JPM,,,,,,,,,,,
Qurient,Health,GlobalData,South Korea,17,,info@qurient.com,www.qurient.com,82 31 80601600,82 31 80601649,"8th Floor, 242, Pangyo-ro",Seongnam,,South Korea
Quthero ,Health,JPM,,,,,,,,,,,
R-Pharm,Health,JPM,,,,,,,,,,,
Ra Pharmaceuticals,Health,GlobalData,United States of America,72,$3,info@rapharma.com,rapharma.com,1 617 4014060,1 302 6555049,87 Cambridgepark Dr,CAMBRIDGE,Massachusetts,United States of America
Radius Health,Health,GlobalData,United States of America,398,$99,info@radiuspharm.com,www.radiuspharm.com,1 617 5514000,1 617 5514701,950 Winter Street,Waltham,Massachusetts,United States of America
Rafael Pharmaceuticals ,Health,JPM,,,,,,,,,,,
RareMoon Orphan Product Consulting,Health,JPM,,,,,,,,,,,
Raysearch Loratories,Health,GlobalData,Sweden,278,$72,info@raysearchlabs.com,www.raysearchlabs.com,46 8 51053000,,P.O. Box 3297,Stockholm City,,Sweden
Raziel Therapeutics ,Health,JPM,,,,,,,,,,,
ReadCoor,Health,JPM,,,,,,,,,,,
Reata Pharmaceuticals,Health,GlobalData,United States of America,123,$54,info@reatapharma.com,reatapharma.com,1 972 8652219,,"Suite 150, 2801 Gateway Drive",Irving,Texas,United States of America
RECARDIO ,Health,JPM,,,,,,,,,,,
Recensa Therapeutics ,Health,JPM,,,,,,,,,,,
Reckitt Benckiser Group,Health,GlobalData,United Kingdom,"42,400","$16,798",,www.rb.com,44 1753 217800,,103-105 Bath Road,Slough,Berkshire,United Kingdom
Recordati,Health,GlobalData,Italy,"4,142","$1,596",,www.recordati.com,39 02 487871,39 02 40073747,"Via M. Civitali, 1",Milan,Lombardia,Italy
Recro Pharma,Health,GlobalData,United States of America,255,$77,info@recropharma.com,www.recropharma.com,1 484 3952470,1 484 3952471,490 Lapp Road,Malvern,Pennsylvania,United States of America
RedHill Biopharma,Health,GlobalData,Israel,75,$8,info@redhillbio.com,www.redhillbio.com,972 3 5413131,972 3 5413144,21 Ha'arba'a Street,Tel Aviv City,Tel Aviv,Israel
Regeneron Pharmaceuticals ,Health,JPM,,,,,,,,,,,
RegenxBio,Health,GlobalData,United States of America,192,$219,info@regenxbio.com,regenxbio.com,1 240 5528181,1 302 6555049,"Suite 210, 9600 Blackwell Road",Rockville,Maryland,United States of America
Regulus Therapeutics,Health,GlobalData,United States of America,63,$0,info@regulusrx.com,www.regulusrx.com,1 858 2026300,,10614 Science Center Drive,San Diego,California,United States of America
Rejuvenix Technology,Health,JPM,,,,,,,,,,,
Reminisciences,Health,JPM,,,,,,,,,,,
Renew Biopharma ,Health,JPM,,,,,,,,,,,
Repligen,Health,GlobalData,United States of America,548,$194,,www.repligen.com,1 781 2500111,1 781 2500115,"Suite 100, 41 Seyon Street, Building 1",Waltham,Massachusetts,United States of America
Replimune,Health,GlobalData,United States of America,44,,info@replimune.com,www.replimune.com,1 781 9952443,1 302 6555049,18 Commerce Way,Woburn,Massachusetts,United States of America
Reset Therapeutics,Health,JPM,,,,,,,,,,,
Resonant Therapeutics ,Health,JPM,,,,,,,,,,,
RespireRx Pharmaceuticals ,Health,JPM,,,,,,,,,,,
resTORbio,Health,GlobalData,United States of America,21,,contact@restorbio.com,www.restorbio.com,1 617 4822333,1 302 6555049,"12th Floor, 500 Boylston Street",Boston,Massachusetts,United States of America
Resverlogix,Health,GlobalData,Canada,28,,info@resverlogix.com,www.resverlogix.com,1 403 2549252,1 403 2568495,"300, 4820 Richard Road SW",Calgary,Alberta,Canada
Retrophin,Health,GlobalData,United States of America,214,$164,,www.retrophin.com,1 760 2608600,1 302 6451280,"Suite 200, 3721 Valley Centre Drive",San Diego,California,United States of America
REVA Medical,Health,GlobalData,United States of America,45,$0,info@revamedical.com,www.teamreva.com,1 858 9663000,1 858 9663099,5751 Copley Drive,San Diego,California,United States of America
Revance Therapeutics,Health,GlobalData,United States of America,170,$4,contacts@revance.com,www.revance.com,1 510 7423400,1 510 7423401,7555 Gateway Boulevard,Newark,California,United States of America
Rexahn Pharmaceuticals,Health,GlobalData,United States of America,10,,info@rexahn.com,www.rexahn.com,1 240 2685300,1 240 2685310,"Suite 455, 15245 Shady Grove Road",Rockville,Maryland,United States of America
Rhythm Pharmaceuticals,Health,GlobalData,United States of America,54,,info@rhythmtx.com,www.rhythmtx.com,1 857 2644280,1 857 2644299,"11th Floor, 500 Boylston Street",Boston,Massachusetts,United States of America
Richter Gedeon Nyrt,Health,GlobalData,Hungary,"12,667","$1,650",,www.richter.hu,36 1 4314000,36 1 2604891,Gyomroi ut 19-21.,Budapest,,Hungary
Rigel Pharmaceuticals,Health,GlobalData,United States of America,158,$45,pubrel@rigel.com,www.rigel.com,1 650 6241100,1 650 6241101,1180 Veterans Blvd,South San Francisco,California,United States of America
Ritter Pharmaceuticals,Health,GlobalData,United States of America,5,,,www.ritterpharmaceuticals.com,1 310 2031000,1 310 9191600,"Suite 1000, 1880 Century Park East",Los Angeles,California,United States of America
Rohto Pharmaceutical,Health,GlobalData,Japan,"6,448","$1,549",,www.rohto.co.jp,81 6 67581231,,"1-8-1, Tatsumi-nishi",Osaka,Osaka,Japan
Rottapharm Biotech,Health,JPM,,,,,,,,,,,
RoveRMed BioSciences,Health,JPM,,,,,,,,,,,
Royal DSM,Health,GlobalData,Netherlands,"21,438","$10,936",media.relations@dsm.com,www.dsm.com,31 45 5788111,31 45 5742595,Het Overloon 1,Heerlen,Limburg,Netherlands
RTI International,Health,JPM,,,,,,,,,,,
RTI Surgical,Health,GlobalData,United States of America,891,$281,,www.rtix.com,1 386 4188888,1 386 4180342,11621 Research Circle,Alachua,Florida,United States of America
Rubius Therapeutics,Health,GlobalData,United States of America,142,,,www.rubiustx.com,1 617 6799600,,"Suite 1A, 325 Vassar Street",Cambridge,Massachusetts,United States of America
RXi Pharmaceuticals Corporation,Health,JPM,,,,,,,,,,,
S&P Pharmaceutical,Health,GlobalData,China,"9,635","$2,647",,www.600869.com,86 510 87241700,86 510 87241200,"No6 Yuandong Avenue, Gaoteng",Yixing,Jiangsu,China
Sailent Technologies,Health,GlobalData,United States of America,"15,300","$4,914",contact_us@agilent.com,www.agilent.com,1 408 3458886,1 408 3458474,5301 Stevens Creek Blvd,Santa Clara,California,United States of America
Salt Creek Biosciences ,Health,JPM,,,,,,,,,,,
SALVAT,Health,JPM,,,,,,,,,,,
Samyang,Health,GlobalData,South Korea,885,"$1,932",,www.samyangcorp.com,82 2 7407114,82 2 7407140,"31, Jong-ro 33-gil",Seoul City,,South Korea
Samyang Holdings,Health,GlobalData,South Korea,155,"$2,332",,www.samyang.com,82 2 7407111,82 2 7407112,31 Jongno 33-gil,Seoul City,,South Korea
Sanford Burnham Prebys Medical Discovery Institute,Health,JPM,,,,,,,,,,,
Sangamo Therapeutics,Health,GlobalData,United States of America,302,$84,info@sangamo.com,www.sangamo.com,1 510 9706000,1 510 2368951,501 Canal Boulevard,RICHMOND,California,United States of America
Saniona,Health,JPM,,,,,,,,,,,
Sankyo ,Health,GlobalData,Japan,"1,026",$778,,www.sankyo-fever.co.jp,81 3 57787772,81 3 57787775,"3-29-14, Shibuya",Shibuya-ku,Tokyo,Japan
Sanofi,Health,GlobalData,,,,,,,,,,,
Sanova Bioscience,Health,JPM,,,,,,,,,,,
Santen Pharmaceutical,Health,GlobalData,Japan,"3,805","$2,029",,www.santen.com,81 6 63217000,81 6 63215082,"4-20 Ofuka-cho, Grand Front Osaka Tower A",Kita-ku,Osaka,Japan
Santen Pharmaceutical Co. ,Health,JPM,,,,,,,,,,,
Santhera Pharmaceuticals ,Health,GlobalData,Switzerland,114,$23,info@santhera.com,www.santhera.com,41 61 9068950,41 61 9068951,Hohenrainstrasse 24,Pratteln,Basel-Landschaft,Switzerland
Sanwa Kagaku Kenkyusho Co. ,Health,JPM,,,,,,,,,,,
Sarepta Therapeutics,Health,GlobalData,United States of America,499,$301,info@sarepta.com,www.sarepta.com,1 617 2744000,1 302 6365454,"Suite 415, 215 First Street",Cambridge,Massachusetts,United States of America
Sareum ,Health,JPM,,,,,,,,,,,
Sartorius,Health,GlobalData,Germany,"8,125","$1,848",info@sartorius.com,www.sartorius.de,49 551 3080,49 551 3083289,Otto-Brenner-Strasse 20,GOETTINGEN,Niedersachsen,Germany
Savara,Health,GlobalData,United States of America,33,,info@savarapharma.com,savarapharma.com,1 512 6141848,1 858 5520876,"Suite 200, Building 3, 6836 Bee Cave Road",Austin,Texas,United States of America
Sawai Pharmaceutical,Health,GlobalData,Japan,"3,252","$1,516",contact@sawai.co.jp,www.sawai.co.jp,81 6 61055711,81 6 63947311,"5-2-30, Miyahara, Yodogawa-ku",Osaka City,Osaka,Japan
SBI Biotech,Health,JPM,,,,,,,,,,,
Scholar Rock Holding,Health,GlobalData,United States of America,65,,info@scholarrock.com,www.scholarrock.com,1 857 2593860,1 866 4934935,"2nd Floor, 620 Memorial Drive",Cambridge,Massachusetts,United States of America
ScinoPharm Taiwan,Health,GlobalData,Taiwan,"1,010",$117,info@scinopharm.com.tw,www.scinopharm.com,886 6 5052888,886 6 5052898,"No.1, Nan-Ke 8th Road, Southern Taiwan Science Park",,Tainan,Taiwan
Scioto Biosciences ,Health,JPM,,,,,,,,,,,
scPharmaceuticals,Health,GlobalData,United States of America,21,,,www.scpharmaceuticals.com,1 617 5170730,,"Suite 310, 2400 District Avenue",Burlington,Massachusetts,United States of America
Scynexis,Health,GlobalData,United States of America,87,$0,,www.scynexis.com,1 201 8845485,,"13th Floor
 
 , 1 Evertrust Plaza",Jersey City,New Jersey,United States of America
Se Therapeutics,Health,GlobalData,United States of America,637,$90,,www.sagerx.com,1 617 2998380,1 617 2998379,"215 , First Street",Cambridge,Massachusetts,United States of America
Seikaku,Health,GlobalData,Japan,718,$272,,www.seikagaku.co.jp,81 3 52208950,81 3 52208951,"10 Floor, Marunouchi Center Building, 6-1, Marunouchi 1-chome",Tokyo City,Tokyo,Japan
Selecta Biosciences,Health,GlobalData,United States of America,39,$1,info@selectabio.com,www.selectabio.com,1 617 9231400,1 617 9243454,480 Arsenal Way,WATERTOWN,Massachusetts,United States of America
Selexis ,Health,JPM,,,,,,,,,,,
Semnur Pharmaceuticals ,Health,JPM,,,,,,,,,,,
Sen-Jam Pharmaceutical,Health,JPM,,,,,,,,,,,
Senhwa Biosciences,Health,GlobalData,Taiwan,16,$0,,www.senhwabiosciences.com,886 2 89119856,886 2 89119956,"10F, No. 225, Sec. 3, Peihsin Rd., Hsintien Dist",New Taipei City,Taipei,Taiwan
Senomyx,Health,GlobalData,United States of America,56,$29,info@senomyx.com,www.senomyx.com,1 858 6468300,1 858 4040752,4767 Nexus Centre Drive,San Diego,California,United States of America
Seres Therapeutics,Health,GlobalData,United States of America,145,$28,info@serestherapeutics.com,www.serestherapeutics.com,1 617 9459626,,"4th Floor, 200 Sidney Street",Cambridge,Massachusetts,United States of America
SerImmune,Health,JPM,,,,,,,,,,,
Serodus ASA,Health,JPM,,,,,,,,,,,
Sesen Bio,Health,GlobalData,United States of America,17,,,www.sesenbio.com,1 617 4448550,,"Suite 1800, 245 First Street",Cambridge,Massachusetts,United States of America
SevenGenes ,Health,JPM,,,,,,,,,,,
Shandong Jheng Pharmaceutical & Chemical,Health,GlobalData,China,"2,926",$455,jcpc@jinchengpharm.com,www.jinchengpharm.com,86 533 5439432,86 533 5439426,"No.26, Kunxin Road, Kunlun Town, Zichuan Distri",ZIBO,Shandong,China
Shandong Lukang International Trading,Health,GlobalData,China,"5,971",$385,,www.lkpc.com,86 537 2983357,86 537 2880808,173 Taibai Western Road,Jining,Shandong,China
Shandong Pharmaceutical Glass,Health,GlobalData,China,"5,049",$391,,www.pharmglass.com,86 533 3259167,86 533 3233786,Yaobo Road,Zibo,Shandong,China
Shandong Weigao Group Medical Polymer Company,Health,GlobalData,China,"8,694","$1,332",wggf@weigaogroup.com,en.weigaogroup.com,86 631 5621999,86 631 5621999,"No.18 Xingshan Road, Torch Hi-Tech Industry Development Zone",Weihai,Shandong,China
Shandong Xinhua Pharmaceutical,Health,GlobalData,China,"6,384",$787,xhzy@xhzy.com,www.xhzy.com,86 533 2166666,86 533 2287508,"Chemical Industry Area of Zibo Hi-tech Industry Development Zone,",Zibo,Shandong,China
Shanghai Dingli Technology Development,Health,GlobalData,China,"1,106",$296,,www.600614.com,86 21 35071889,86 21 35080120,"18F, Golden Tower, Fortune Plaza, No. 39, Guoquan Road, Yangpu District",SHANGHAI,Shanghai,China
Shanghai Fosun Pharmaceutical,Health,GlobalData,China,"28,245","$3,767",int@fosunpharma.com,www.fosunpharma.com,86 21 33987000,86 21 33987020,"Building A, Fosun Technology Park, No. 1289 Yishan Road",Shanghai City,Shanghai,China
Shanghai Fudan-Zhangjiang Bio-Pharmaceutical,Health,GlobalData,China,735,$112,fd-zj@fd-zj.com,www.fd-zj.com,86 21 58953355,86 21 58553990,"No. 308 Cailun Road, Z.J.Hi-tech Park",Shanghai City,Shanghai,China
Shanghai Haohai Biological Technology,Health,GlobalData,China,"1,226",$234,info@3healthcare.com,www.3healthcare.com,86 21 52293555,86 21 52293558,"23rd Floor, No. 1386, WenGuang Plaza, Hongqiao Road",Changning District,Shanghai,China
Shanghai InHaimeo Holding Co,Health,GlobalData,,,,,,,,,,,
Shanghai Junshi Bioscience,Health,GlobalData,China,600,$0,,www.junshipharma.com,86 21 50796193,86 21 50796192,"Suite 605, No.88 Shangke Road,West Tower",Pudong,Shanghai,China
Shanghai Pharmaceutical,Health,GlobalData,China,"47,434","$24,050",,www.sphchina.com,86 21 63730908,86 21 63289333,"Shanghai Pharmaceutical Mansion, No.200, Taicang Road",Shanghai City,Shanghai,China
Shanghai RAAS Blood Products,Health,GlobalData,China,"2,990",$273,raas@raas-corp.com,www.raas-corp.com,86 21 22130888,86 21 37515875,"No. 2009, Wangyuan Road",Fengxian District,Shanghai,China
Shanghai ShiChai Science and Technology Co ,Health,GlobalData,,,,,,,,,,,
Shanghai Tofflon Science and Technology,Health,GlobalData,China,"2,452",$255,,www.tofflon.com,86 21 64906201,86 21 64905148,"No.2199 Fanghe Road, Minghang District",Shanghai City,,China
Shanxi Zhendong Pharmaceutical,Health,GlobalData,China,"3,746",$517,,www.zdjt.com,86 355 8096028,86 355 8096029,Zhendong Science and Technology Park,Changzhi,Shanxi,China
Shasqi ,Health,JPM,,,,,,,,,,,
Shenzhen Hepalink Pharmaceutical Group,Health,GlobalData,China,"2,333",$395,hepalink@hepalink.com,www.hepalink.com,86 755 26980200,86 755 26980183,21 Langshan Road,Shenzhen,Guangdong,China
Shenzhen Kangtai Biological Products,Health,GlobalData,China,"1,146",$305,office@biokangtai.com,www.biokangtai.com,86 755 26988688,86 755 26988600,"No. 6, Kefa Road",Shenzhen,Guangdong,China
Shenzhen lubris Pharmaceuticals,Health,GlobalData,China,"4,622",$703,info@salubris.com,www.salubris.com,86 755 83867888,86 755 83867338,"Floor 37, Building B, NEO Lvjing Square, No.6009, Shennan Avenue",Shenzhen,Shenzhen,China
Shenzhen Mindray Bio-Medical Electronics,Health,GlobalData,China,"9,234","$2,079",intl-market@mindray.com,www.mindray.com,86 755 81888398,86 731 82285158,High-tech Industrial Park,Shenzhen,Guangdong,China
Shield Therapeutics ,Health,JPM,,,,,,,,,,,
Shijiazhuang Yiling Pharmaceutical,Health,GlobalData,China,"5,218",$728,,www.yiling.cn,86 311 85901643,86 311 85906730,"No. 238, Tianshan Street, East Developing Zone",Shijiazhuang,Hebei,China
Shimadzu,Health,GlobalData,Japan,"11,954","$3,529",,www.shimadzu.com,81 75 8231111,81 75 8113188,"1, Kuwabara-cho, Nishinokyo, Nakagyo-ku",Kyoto-Shi,Kyoto,Japan
Shionogi & Co. ,Health,JPM,,,,,,,,,,,
Shiseido Co,Health,GlobalData,Japan,"38,640","$9,876",,www.shiseidogroup.com,81 3 35725111,,"5-5, Ginza 7-chome",Chuo-ku (Tokyo),Tokyo,Japan
Shockwave Medical,Health,GlobalData,United States of America,162,$12,info@shockwavemedical.com,shockwavemedical.com,1 877 7754686,1 302 6555049,5403 Betsy Ross Drive,Santa Clara,California,United States of America
Shuttle Pharmaceuticals,Health,JPM,,,,,,,,,,,
Sichuan Kelun Pharmaceutical,Health,GlobalData,China,"19,990","$2,472",kelunpharma@kelun.com,www.kelun.com,86 28 82998999,86 28 86127705,No.36 Baihua West Road,Chengdu,Sichuan,China
Sichuan Maker Biotechnology,Health,GlobalData,China,"1,972",$291,maccura@maccura.com,www.makerbio.com,86 28 87826777,86 28 87825789,"16#, Baichuan Road, Hi-Tech Industrial Development Zone",Chengdu,,China
Siegfried Holding,Health,GlobalData,Switzerland,"2,294",$812,info@siegfried.ch,siegfried.ch,41 62 7461111,41 62 7461102,Untere Bruehlstrasse 4,Zofingen,Aargau,Switzerland
Sienna Biopharmaceuticals,Health,GlobalData,United States of America,58,,,siennabio.com,1 818 6292256,1 302 6555049,"Suite 140, 30699 Russell Ranch Road",Westlake Village,California,United States of America
Sientra,Health,GlobalData,United States of America,259,$68,info@sientra.com,www.sientra.com,1 805 5623500,1 805 5628401,"Suite 200, 420 South Fairview Avenue",Santa Barbara,California,United States of America
Sierra Oncology,Health,GlobalData,Canada,79,,info@sierraoncology.com,www.sierraoncology.com,1 604 5586536,,"Suite 2150
 
 , 885 West Georgia Street",Vancouver,British Columbia,Canada
SIGA Technologies,Health,GlobalData,United States of America,41,$477,,www.siga.com,1 212 6729100,1 212 6973130,27 East 62nd Street,New York,New York,United States of America
Sihuan Pharmaceutical Holdings Group,Health,GlobalData,China,"3,952",$441,,www.sihuanpharm.com,86 10 52278700,86 10 52278758,"21th Floor, Building 2, Balizhuangxili Zhubang 2000",Beijing,Beijing,China
Silence Therapeutics,Health,GlobalData,United Kingdom,45,,info@silence-therapeutics.com,www.silence-therapeutics.com,44 20 34576900,,72 Hammersmith Road,London,Greater London,United Kingdom
Silk Road Medical,Health,GlobalData,United States of America,176,$35,info@silkroadmed.com,silkroadmed.com/,1 650 5669060,1 302 6555049,1213 Innsbruck Dr,SUNNYVALE,California,United States of America
Silver Creek Pharmaceuticals,Health,JPM,,,,,,,,,,,
Singh Biotechnology,Health,JPM,,,,,,,,,,,
Sino Biopharmaceutical,Health,GlobalData,Hong Kong,"21,498","$3,158",,www.sinobiopharm.com,852 28029886,852 28800847,"Room 4109, Office Tower, Convention Plaza, 1 Harbour Road",Hong Kong City,,Hong Kong
Sinopia Biosciences ,Health,JPM,,,,,,,,,,,
Sinovac Biotech,Health,GlobalData,China,644,$174,,www.sinovac.com,86 10 82890088,86 10 62966910,No.39 Shangdi Xi Road,Beijing City,,China
Sinphar Pharmaceutical,Health,GlobalData,Taiwan,984,$74,info@sinphar.com,www.sinphar.com,886 3 9581101,886 3 9580187,"84 Chung Shan Road, Chung Shan Village",Tungshan,Yilan,Taiwan
Sirona Biochem Corporation,Health,JPM,,,,,,,,,,,
Smith & Nephew,Health,GlobalData,United Kingdom,"16,377","$4,904",,www.smith-nephew.com,44 20 74017646,,15 Adam Street,London,Greater London,United Kingdom
Snap Bio ,Health,JPM,,,,,,,,,,,
Sol-Gel Technologies,Health,GlobalData,Israel,56,$0,,www.sol-gel.com,972 8 9313433,972 8 9313434,Golda Meir 7,Ness Ziona,,Israel
Solid Biosciences,Health,GlobalData,United States of America,111,,info@solidbio.com,www.solidbio.com,1 617 3374680,1 302 6555049,"Fifth Floor, 141 Portland Street",Cambridge,Massachusetts,United States of America
Solvay,Health,GlobalData,Belgium,"26,800","$13,334",,www.solvay.com,32 226 2642111,,Rue de Ransbeek 310,Brussels,Bruxelles-Capitale,Belgium
SomaGenics ,Health,JPM,,,,,,,,,,,
Sophiris Bio,Health,GlobalData,United States of America,6,,info@sophirisbio.com,www.sophirisbio.com,1 858 7771760,1 858 4125693,1258 Prospect Street,La Jolla,California,United States of America
Sorrento Therapeutics,Health,GlobalData,United States of America,382,$21,info@sorrentotherapeutics.com,sorrentotherapeutics.com,1 858 2034100,1 858 2103759,4955 Directors Place,San Diego,California,United States of America
Sosei Heptares,Health,GlobalData,Japan,169,$63,,www.soseiheptares.com,81 3 52103290,81 3 52103291,"11th Floor, 2-4 Kojimachi, PMO Hanzomon",Chiyoda,Tokyo,Japan
SOTIO,Health,JPM,,,,,,,,,,,
Sound Biologics,Health,JPM,,,,,,,,,,,
Southern Star Research,Health,JPM,,,,,,,,,,,
Spark Therapeutics,Health,GlobalData,United States of America,368,$65,info@sparktx.com,sparktx.com,1 888 7727560,,"Suite 1300, 3737 Market Street",Philadelphia,Pennsylvania,United States of America
Sparrow Pharmaceuticals ,Health,JPM,,,,,,,,,,,
Sparsha Pharma USA,Health,JPM,,,,,,,,,,,
SpecificiT Pharma ,Health,JPM,,,,,,,,,,,
Spectrum Pharmaceuticals,Health,GlobalData,United States of America,235,$109,,www.spectrumpharm.com,1 702 8356300,1 702 2607405,"Suite 240, 11500 South Eastern Avenue",Henderson,Nevada,United States of America
Spero Therapeutics,Health,GlobalData,United States of America,41,$4,,sperotherapeutics.com,1 857 2421600,1 302 6555049,"Suite 14, 675 Massachusetts Avenue",CAMBRIDGE,Massachusetts,United States of America
Spring Bank Pharmaceuticals,Health,GlobalData,United States of America,29,,info@springbankpharm.com,www.springbankpharm.com,1 508 4735993,1 508 3810347,"Suite 210, 35 Parkwood Drive",Hopkinton,Massachusetts,United States of America
Spyryx Biosciences,Health,JPM,,,,,,,,,,,
ST PHARM,Health,JPM,,,,,,,,,,,
STAAR Surgical Company,Health,GlobalData,United States of America,475,$124,,www.staar.com,1 626 3037902,1 626 303598402,1911 Walker Avenue,Monrovia,California,United States of America
Stabilitech ,Health,JPM,,,,,,,,,,,
Stada Arzneimittel,Health,GlobalData,Germany,"10,232","$2,609",info@stada.de,www.stada.de,49 6101 6030,49 6101 603259,Stadastrasse 2-18,Bad Vilbel,Hessen,Germany
Staidson (Beijing) Biopharmaceuticals,Health,GlobalData,China,864,$122,,www.staidson.com,86 10 67875255,86 10 67875255,"No. 36, Sea Road",Beijing,Beijing,China
Stallergenes Greer,Health,GlobalData,United Kingdom,"1,167",$327,,www.stallergenesgreer.com,44 20 31415000,44 20 31414480,"3rd Floor, 40 Bernard Street",London,England,United Kingdom
Starpharma Holdings,Health,GlobalData,Australia,48,$4,info@starpharma.com,www.starpharma.com,61 3 85322700,61 3 95105955,4-6 Southampton Crescent,Melbourne,Victoria,Australia
SteadyMed,Health,GlobalData,Israel,24,$1,,www.steadymed.com,972 3 6449556,,5 Oppenheimer Street,Rehovot,Rehovot,Israel
STEMCELL Technologies ,Health,GlobalData,,,,,,,,,,,
STEMGENICS,Health,JPM,,,,,,,,,,,
Stemimmune,Health,JPM,,,,,,,,,,,
Stemline Therapeutics,Health,GlobalData,United States of America,92,$1,info@stemline.com,www.stemline.com,1 646 5022310,1 646 3890968,"11th Floor
 
 , 750 Lexington Avenue",New York,New York,United States of America
Stempeutics Research Private ,Health,JPM,,,,,,,,,,,
Stempodia Therapeutics,Health,JPM,,,,,,,,,,,
Steris,Health,GlobalData,United Kingdom,"12,000","$2,620",,www.steris.com,44 440 3542600,,"Rutherford House, Stephensons Way",Leicester,Derbyshire,United Kingdom
STRATEC Biomedical,Health,GlobalData,Germany,"1,228",$222,info@stratec.com,www.stratec.com,49 7082 79160,49 7082 7916999,Gewerbestrasse 37,Birkenfeld,Rheinland-Pfalz,Germany
Strongbridge Bio,Health,JPM,,,,,,,,,,,
Strongbridge Biopharma,Health,GlobalData,United States of America,106,$18,info@strongbridgebio.com,www.strongbridgebio.com,1 610 2549200,,"Suite 200 , 900 Northbrook Drive",Trevose,Pennsylvania,United States of America
Structured Immunity,Health,JPM,,,,,,,,,,,
Sucampo Pharmaceuticals,Health,GlobalData,United States of America,139,$230,info@sucampo.com,www.sucampo.com,1 301 9613400,1 301 9613440,"Suite 550, 805 King Farm Boulevard",Rockville,Maryland,United States of America
Sugati Holdings,Health,JPM,,,,,,,,,,,
Sumitomo Dainippon Pharma Co. ,Health,JPM,,,,,,,,,,,
Sunesis Pharmaceuticals,Health,GlobalData,United States of America,29,$0,info@sunesis.com,www.sunesis.com,1 650 2663500,1 650 2663501,395 Oyster Point Blvd Ste 400,SOUTH SAN FRANCISCO,California,United States of America
Sunflower Pharmaceutical Group,Health,GlobalData,China,"5,940",$676,,www.kuihuayaoye.com,86 451 82307136,86 451 82367253,"No.18 Donghu Road, Jizhong",Chaoyang,Heilongjiang,China
Suntec Medical ,Health,JPM,,,,,,,,,,,
Supernus Pharmaceuticals,Health,GlobalData,United States of America,448,$409,,www.supernus.com,1 301 8382500,1 302 6555049,1550 East Gude Drive,Rockville,Maryland,United States of America
Surface Oncology,Health,GlobalData,United States of America,76,$59,info@surfaceoncology.com,www.surfaceoncology.com,1 617 7144096,1 302 6555049,"8th Floor, 50 Hampshire Street",Cambridge,Massachusetts,United States of America
SurModics,Health,GlobalData,United States of America,338,$81,info@surmodics.com,www.surmodics.com,1 952 5007000,1 952 5007001,9924 West 74th Street,Eden Prairie,Minnesota,United States of America
Sutro Biopharma,Health,GlobalData,United States of America,147,$38,general@sutrobio.com,www.sutrobio.com,1 650 3928412,1 302 6555049,"Suite 150, 310 Utah Ave",South San Francisco,California,United States of America
Suven Life Sciences,Health,GlobalData,India,954,$92,info@suven.com,www.suven.com,91 40 23541142,91 40 23541152,"6th Floor, SDE Serene Chambers, Avenue 7, Road No. 5",Hyderabad,Telangana,India
Suzhou Alphamab Co. ,Health,JPM,,,,,,,,,,,
Suzuken,Health,GlobalData,Japan,"15,816","$19,160",,www.suzuken.co.jp,81 52 9612331,81 52 9715837,8 Higashi Kataha-machi,Nagoya-Shi,Aichi,Japan
Swedish Orphan Biovitrum,Health,GlobalData,Sweden,"1,050","$1,051",info@sobi.com,www.sobi.com,46 8 6972000,,Tomtebodavagen 23A,Solna,,Sweden
SymBio Pharmaceuticals,Health,GlobalData,Japan,78,$35,,www.symbiopharma.com,81 3 54721125,81 3 54723054,"Toranomon 30 Mori Bldg., 3-2-2, Toranomon",MINATO-KU,Tokyo,Japan
Symbiotix Biotherapies,Health,JPM,,,,,,,,,,,
Symrise,Health,GlobalData,Germany,"9,647","$3,722",info@symrise.com,www.symrise.com,49 5531 900,49 5531 901617,Muhlenfeldstrasse 1,Holzminden,Niedersachsen,Germany
Synaffix BV,Health,JPM,,,,,,,,,,,
Synbal ,Health,JPM,,,,,,,,,,,
SynCore Biotechnology Co. ,Health,JPM,,,,,,,,,,,
Syndax Pharmaceuticals,Health,GlobalData,United States of America,38,$2,info@syndax.com,www.syndax.com,1 781 4191400,1 781 4191420,"Building D, Floor 3, 35 Gatehouse Drive",Waltham,Massachusetts,United States of America
Synergy Pharmaceuticals,Health,GlobalData,United States of America,313,$17,info@synergypharma.com,www.synergypharma.com,1 212 2970020,1 212 2970019,"Suite 2012, 420 Lexington Avenue",New York,New York,United States of America
Synergys Biotherapeutics ,Health,JPM,,,,,,,,,,,
Synlogic,Health,GlobalData,United States of America,74,$3,info@synlogictx.com,www.synlogictx.com,1 617 4019975,,"Suite 402, 301 Binney Street",Cambridge,Massachusetts,United States of America
Synovo GmbH,Health,JPM,,,,,,,,,,,
Synthetic Biologics,Health,GlobalData,United States of America,13,,info@syntheticbiologics.com,www.syntheticbiologics.com,1 301 4174364,1 301 4174367,"Suite 270
 
 , 9605 Medical Center Drive",Rockville,Maryland,United States of America
Synthetic Genomics,Health,JPM,,,,,,,,,,,
Synthorx,Health,GlobalData,United States of America,38,,info@synthorx.com,synthorx.com,1 858 7504715,,"Suite 290, 11099 North Torrey Pines Road",La Jolla,California,United States of America
Synvitrobio ,Health,JPM,,,,,,,,,,,
Syros Pharmaceuticals,Health,GlobalData,United States of America,76,$2,info@syros.com,www.syros.com,1 617 7441340,,"Suite 300, 620 Memorial Drive",Cambridge,Massachusetts,United States of America
Sysmex Corporation,Health,GlobalData,,,,,,,,,,,
T2 Biosystems,Health,GlobalData,United States of America,153,$11,info@t2biosystems.com,www.t2biosystems.com,1 781 4571200,1 781 3573080,91 Hartwell Avenue,Lexington,Massachusetts,United States of America
Tactical Therapeutics ,Health,JPM,,,,,,,,,,,
Tactus Therapeutics,Health,JPM,,,,,,,,,,,
Taex BioPharma,Health,GlobalData,Taiwan,,,,www.tanvex.com,,,"13th Floor-1, No. 376, Section 4, Ren’ai Road",Taipei City,Taipei,Taiwan
TAI Diagnostics,Health,JPM,,,,,,,,,,,
Taiho Pharmaceutical Co. ,Health,JPM,,,,,,,,,,,
TaiMed Biologics,Health,GlobalData,Taiwan,23,$8,,www.taimedbiologics.com,886 2 26580058,886 2 26586058,"No. 607, 3rd Floor, Ruiguang Road",Taipei City,Taipei,Taiwan
Taisho Pharmaceutical Co. ,Health,JPM,,,,,,,,,,,
Taiwan Liposome,Health,GlobalData,Taiwan,88,$2,,www.tlcbio.com,886 2 26557377,,"2nd Floor
 
 , 3 Yuanqu Street",Taipei City,,Taiwan
Taiyo Kaku,Health,GlobalData,Japan,905,$349,,www.taiyokagaku.com,81 59 3400800,81 59 3281430,"Mie Prefecture Yamada No. 800, Yubinbango",Yokkaichi,Mie,Japan
Takara Bio,Health,GlobalData,Japan,"1,448",$291,,www.takara-bio.co.jp,81 77 5656920,81 77 5618007,7-4-38 Nojihigashi,Kusatsu,Shiga,Japan
Takara Holdings,Health,GlobalData,Japan,"4,349","$2,419",,www.takara.co.jp,81 75 2415130,,"20, Naginataboko-cho, Shijo-dori Karasuma Higashi-iru",Kyoto-Shi,Kyoto,Japan
Tandem Dietes Care,Health,GlobalData,United States of America,653,$184,support@tandemdiabetes.com,www.tandemdiabetes.com,1 858 3666900,,11045 Roselle Street,San Diego,California,United States of America
TapImmune,Health,GlobalData,United States of America,11,$0,,www.tapimmune.com,1 904 5165436,,"Suite 200, 5 West Forsyth Street",Jacksonville,Florida,United States of America
TargaGenix ,Health,JPM,,,,,,,,,,,
Targovax A,Health,GlobalData,Norway,27,$0,contact@targovax.com,www.targovax.com,47 2 1398810,,Lilleakerveien 2 C,Oslo City,,Norway
Taro Pharmaceutical Industries,Health,GlobalData,Israel,"1,490",$662,,www.taro.com,972 4 8475700,972 4 8727165,"P.O. Box 10347, 14 Hakitor Street",Haifa Bay,,Israel
Tarveda Therapeutics,Health,JPM,,,,,,,,,,,
Tasly Pharmaceutical Group,Health,GlobalData,China,"9,274","$2,720",,www.tasly.com,86 22 26736999,86 22 26736721,"Tasly Modern TCM Building, No. 2, Pujihe East Road",Beichen District,Tianjin,China
TCR2 Therapeutics,Health,GlobalData,United States of America,47,,info@tcr2.com,www.tcr2.com,1 617 9495200,1 302 6555049,"Suite 710 , 100 Binney Street",Cambridge,Massachusetts,United States of America
Tecan Group,Health,GlobalData,Switzerland,"1,662",$607,info@tecan.com,www.tecan.com,41 44 9228111,41 44 9228112,Seestrasse 103,Mannedorf,Zurich,Switzerland
Teclison Limited,Health,JPM,,,,,,,,,,,
TEGA Therapeutics ,Health,JPM,,,,,,,,,,,
Teijin,Health,GlobalData,Japan,"19,711","$7,532",,www.teijin.com,81 3 35064529,,"Kasumigaseki Common Gate West Tower, 2-1, Kasumigaseki 3-Chome",Chiyoda-ku,Tokyo,Japan
Teijin Pharma Limited,Health,JPM,,,,,,,,,,,
Teikoku Seiyaku Co. ,Health,JPM,,,,,,,,,,,
Teleflex,Health,GlobalData,United States of America,"15,200","$2,448",,www.teleflex.com,1 610 2256800,1 610 9485101,"Suite 400, 550 East Swedesford Road",Wayne,Pennsylvania,United States of America
Teligene ,Health,JPM,,,,,,,,,,,
Teligent,Health,GlobalData,United States of America,189,$66,,www.teligent.com,1 856 6971441,1 856 6971442,105 Lincoln Avenue,Buena,New Jersey,United States of America
Telix Pharmaceuticals,Health,GlobalData,Australia,43,$0,info@telixpharma.com,www.telixpharma.com,,,"Suite 401
 
 , 55 Flemington Road",Melbourne,Victoria,Australia
TERO,Health,GlobalData,United States of America,715,$223,contact@tesarobio.com,www.tesarobio.com,1 339 9700900,13026555049,1000 Winter Street,Waltham,Massachusetts,United States of America
TerraVia Holdings,Health,GlobalData,United States of America,124,$18,info@terravia.com,www.terravia.com,1 6507804777,,225 Gateway Blvd,South San Francisco,California,United States of America
Tetra Discovery Partners ,Health,JPM,,,,,,,,,,,
TetraGenetics ,Health,JPM,,,,,,,,,,,
TetraLogic Pharmaceuticals,Health,GlobalData,United States of America,29,,,tetralogicpharma.com,1 610 8899900,1 610 8899994,343 Phoenixville Pike,Malvern,Pennsylvania,United States of America
Tetraphase Pharmaceuticals,Health,GlobalData,United States of America,119,$19,info@tphase.com,www.tphase.com,1 617 7153600,1 617 9263557,"Suite 110, 480 Arsenal Street",Watertown,Massachusetts,United States of America
Teva Pharmaceuticals,Health,GlobalData,,,,,,,,,,,
TG Therapeutics,Health,GlobalData,United States of America,105,$0,,www.tgtherapeutics.com,1 212 5544484,1 302 6555049,"2 Gansevoort Street, 9th Floor",New York City,New York,United States of America
The Cooper Companies,Health,GlobalData,United States of America,"12,000","$2,533",,www.coopercos.com,1 925 4603600,,"Suite 590, 6140 Stoneridge Mall Road",Pleasanton,California,United States of America
The United Loratories International Holdings,Health,GlobalData,Hong Kong,"12,200","$1,135",,www.tul.com.cn,852 26871033,852 26871031,"6 FuK Wang Street, Yuen Long Industrial Estate, Yuen Long, New Territories",Hong Kong City,,Hong Kong
Theragene Pharmaceuticals ,Health,JPM,,,,,,,,,,,
TherapeuticsMD,Health,GlobalData,United States of America,241,$16,info@therapeuticsmd.com,www.therapeuticsmd.com,1 561 9611911,,"3rd Floor, 6800 Broken Sound Parkway Northwest",Boca Raton,Florida,United States of America
Theravance Biopharma,Health,GlobalData,United States of America,363,$60,,www.theravance.com,1 650 8086000,,901 Gateway Boulevard,South San Francisco,California,United States of America
Theravectys,Health,JPM,,,,,,,,,,,
Thetis Pharmaceuticals ,Health,JPM,,,,,,,,,,,
Thrombogenics,Health,JPM,,,,,,,,,,,
Thrombolytic Science International,Health,JPM,,,,,,,,,,,
Thrombotargets Europe,Health,JPM,,,,,,,,,,,
Tianjin Chase Sun Pharmaceutical,Health,GlobalData,China,"5,369",$639,,www.chasesun.cn,86 22 59623169,,"No. 20, Quanfa Road, Tianjin Wuqing Development Area",Tianjin City,Tianjin,China
Tianjin Lisheng Pharmaceutical,Health,GlobalData,China,"1,652",$227,,www.lishengpharma.com,86 22 27641760,86 22 27641760,"No. 491, Huanghe Road, Nankai District",Tianjin City,Tianjin,China
Tianjin Ringpu Bio-Technology,Health,GlobalData,China,"1,958",$155,rp@ringpu.com,www.ringpu.com,86 22 88958000,,"No. 1, Dongjiu Road",Tianjin City,Tianjin,China
Tianjin Tianyao Pharmaceutical,Health,GlobalData,China,"1,131",$367,,www.tjpc.com.cn,86 22 66321536,86 22 24160899,"No. 19, Xinye 9th Street, West Area of Tianjin Economic-Technological Development Area",Tianjin City,Tianjin,China
Tianjin Zhongxin Pharmaceutical Group,Health,GlobalData,China,"4,430",$961,,www.zhongxinyaoye.com,86 22 27020892,86 22 23268913,"Zhong Xin Mansion, 17 Baidi Road",TIANJIN,Tianjin,China
TiGenix,Health,GlobalData,Belgium,89,,info@tigenix.com,www.tigenix.com,32 471 340123,,Romeinse straat 12-2,Leuven,,Belgium
Tikomed ,Health,JPM,,,,,,,,,,,
Titan Medical,Health,GlobalData,Canada,7,,info@titanmedicalinc.com,www.titanmedicalinc.com,1 416 5488522,,170 University Ave,TORONTO,Ontario,Canada
Tizona Therapeutics,Health,JPM,,,,,,,,,,,
Tocen,Health,GlobalData,United States of America,77,$18,,www.tocagen.com,1 858 4128400,,"Suite 230, 3030 Bunker Hill Street",San Diego,California,United States of America
Tollbridge Therapeutics ,Health,JPM,,,,,,,,,,,
Tonghua Dongbao Pharmaceutical,Health,GlobalData,China,"2,651",$407,,www.thdb.com,86 43 55088025,,,Tonghua,Jilin,China
Tonghuajinma Pharmaceutical Group,Health,GlobalData,China,"2,130",$317,,www.thjm.cn,86 435 3907298,86 435 3907298,"No. 999, Golden-horse Road",Tonghua,Jilin,China
Tonix Pharmaceuticals Holding,Health,GlobalData,United States of America,12,,investor.relations@tonixpharma.com,www.tonixpharma.com,1 212 9809155,1 212 9235700,"Suite 1608, 509 Madison Avenue",New York,New York,United States of America
Toolgen ,Health,JPM,,,,,,,,,,,
Torii Pharmaceutical,Health,GlobalData,Japan,"1,049",$564,,www.torii.co.jp,81 3 32316811,,"Torii Nihonbashi Building, 3-4-1, Nihonbashi-Honcho",Chuo-ku (Tokyo),Tokyo,Japan
Towa Pharmaceutical,Health,GlobalData,Japan,"2,449",$843,,www.towayakuhin.co.jp,81 6 69009100,81 6 69082138,2-11 Shinbashi-cho,Kadoma-shi,Osaka,Japan
Toyama Chemical Co. ,Health,JPM,,,,,,,,,,,
TRACON Pharmaceuticals,Health,GlobalData,United States of America,26,$3,info@traconpharma.com,www.traconpharma.com,1 858 5500780,1 858 5500786,"Ste 800, 4350 La Jolla Village Drive",San Diego,California,United States of America
TransCode Therapeutics ,Health,JPM,,,,,,,,,,,
Transgene,Health,GlobalData,France,146,$8,communication@transgene.fr,www.transgene.fr,33 3 88279100,33 3 88279111,"400 Boulevard Gonthier d'Andernach, Parc d'Innovation",Illkirch-Graffenstaden,Basse Normandie,France
Translate Bio,Health,GlobalData,United States of America,81,$1,,translate.bio,1 617 9457361,1 302 6555049,29 Hartwell Ave,LEXINGTON,Massachusetts,United States of America
Treos Bio,Health,JPM,,,,,,,,,,,
Trevena,Health,GlobalData,United States of America,29,$6,admin@trevena.com,www.trevena.com,1 610 3548840,,"Suite 200, 955 Chesterbrook Boulevard",King of Prussia,Pennsylvania,United States of America
Trevi Therapeutics,Health,GlobalData,United States of America,16,,info@trevitherapeutics.com,www.trevitherapeutics.com,1 203 3042499,,"14th Floor
 
 , 195 Church Street",New Haven,Connecticut,United States of America
Tricida,Health,GlobalData,United States of America,82,,info@tricida.com,www.tricida.com,1 415 4297800,,"Suite 201, 7000 Shoreline Court",South San Francisco,California,United States of America
Trillium Therapeutics,Health,GlobalData,Canada,28,,info@trilliumtherapeutics.com,www.trilliumtherapeutics.com,1 416 5950627,,2488 Dunwin Drive,Mississauga,Ontario,Canada
Trilogy Therapeutics,Health,JPM,,,,,,,,,,,
TrioxBio,Health,JPM,,,,,,,,,,,
TRPharm,Health,JPM,,,,,,,,,,,
Tsumura & Co,Health,GlobalData,Japan,"3,453","$1,063",,www.tsumura.co.jp,81 3 63617200,,"2-17-11, Akasaka",Minato-ku,Tokyo,Japan
TTY Biopharm,Health,GlobalData,Taiwan,,$134,info@tty.com.tw,www.tty.com.tw,886 2 26525999,886 2 26525982,"3F, No.3-1, Park Street, Nangang District",Taipei City,Taipei,Taiwan
Tula Ra HealthCare,Health,GlobalData,United States of America,952,$204,info@TRHC.com,www.tabularasahealthcare.com,1 866 6482767,,228 Strawbridge Drive,Moorestown,New Jersey,United States of America
TumorGen MDx ,Health,JPM,,,,,,,,,,,
Turgut Pharmaceuticals,Health,JPM,,,,,,,,,,,
TWi Pharmaceuticals,Health,GlobalData,Taiwan,215,$27,info.tw@twipharma.com,www.twipharma.com,886 2 26573350,886 2 26573391,"3rd Floor, No. 41, Lane 221, Gangqian Road",Taipei City,Taipei,Taiwan
Twist Bioscience,Health,GlobalData,United States of America,289,$25,,twistbioscience.com,1 408 4100105,1 302 5313150,"Suite 5, 455 Mission Bay Blvd",South San Francisco,California,United States of America
twoXAR,Health,JPM,,,,,,,,,,,
TxCell,Health,JPM,,,,,,,,,,,
Ube Industries,Health,GlobalData,Japan,"10,799","$6,275",,www.ube-ind.co.jp,81 354196110,81 83 6212252,"21F Seavance North Building, 1-2-1, Shibaura",Minato-ku,Tokyo,Japan
Ultrenyx Pharmaceutical,Health,GlobalData,United States of America,610,$51,info@ultragenyx.com,www.ultragenyx.com,1 415 4838800,1 415 4838810,60 Leveroni Court,Novato,California,United States of America
Umecrine Cognition ,Health,JPM,,,,,,,,,,,
UniQure,Health,GlobalData,Netherlands,212,$11,info@uniQure.com,www.uniqure.com,31 20 2406000,31 20 2406020,Paasheuvelweg 25a,Amsterdam,Noord-Holland,Netherlands
United BioPharma,Health,GlobalData,Taiwan,152,$0,,www.unitedbiopharma.com,886 3 5979288,886 3 5973155,45-1 Guangfu North Road,Hukou,,Taiwan
United Therapeutics,Health,GlobalData,United States of America,860,"$1,628",,www.unither.com,1 301 6089292,1 301 6089291,1040 Spring Street,Silver Spring,Maryland,United States of America
Unity Biotechnology,Health,GlobalData,United States of America,106,,info@unitybiotechnology.com,unitybiotechnology.com,1 650 4161192,,"Suite 100, 3280 Bayshore Boulevard",Brisbane,California,United States of America
Unum Therapeutics,Health,GlobalData,United States of America,56,$10,info@unumrx.com,www.unumrx.com,1 617 9455576,,"Suite 3100, 200 Cambridgepark Drive",Cambridge,Massachusetts,United States of America
UroGen Pharmaceuticals,Health,GlobalData,Israel,78,$1,info@urogen.com,www.urogen.com,972 9 7707600,972 77 4171410,9 Ha’Ta’asiya Street,Raanana,Sharon (Netanya),Israel
Urovant Sciences,Health,GlobalData,United States of America,,,info@urovant.com,urovant.com,1 949 2266029,,5151 California Ave Ste 250,IRVINE,California,United States of America
Vaccinex,Health,GlobalData,United States of America,44,$1,info@vaccinex.com,www.vaccinex.com,1 585 2712700,1 585 2712765,1895 Mount Hope Avenue,Rochester,New York,United States of America
Vala Sciences ,Health,JPM,,,,,,,,,,,
Valentech,Health,JPM,,,,,,,,,,,
Valiant Co,Health,GlobalData,China,"3,250",$398,,www.valiant-cn.com,86 535 6101017,86 535 6101018,No. 11 Wuzhishan Road,Yantai,Shandong,China
Valin Technologies ,Health,JPM,,,,,,,,,,,
Valneva,Health,GlobalData,France,456,$133,info@valneva.com,www.valneva.com,33 2 28073710,,Campus Bio-Ouest,Saint-Herblain,,France
Vanda Pharmaceuticals,Health,GlobalData,United States of America,270,$193,,www.vandapharma.com,1 202 7343400,1 202 2961450,"Suite 300E, 2200 Pennsylvania Avenue NW",Washington,WashingtonD.C.,United States of America
Vanguard Therapeutics ,Health,JPM,,,,,,,,,,,
Vapogenix ,Health,JPM,,,,,,,,,,,
Varian Medical Systems,Health,GlobalData,United States of America,"7,174","$2,919",,www.varian.com,1 650 4934000,,3100 Hansen Way,Palo Alto,California,United States of America
Varigen Biosciences Corporation,Health,JPM,,,,,,,,,,,
Vascular Biogenics,Health,GlobalData,Israel,37,$1,businessdev@vblrx.com,www.vblrx.com,972 8 9935000,972 8 9935001,6 Jonathan Netanyahu Street,Or Yehuda,Tel Aviv,Israel
Vaxart,Health,GlobalData,United States of America,34,$4,,www.vaxart.com,1 650 5503500,1 650 8718580,"Suite 405, 395 Oyster Point Blvd.",South San Francisco,California,United States of America
Vaxess Technologies ,Health,JPM,,,,,,,,,,,
VBI Vaccines,Health,GlobalData,United States of America,108,$3,info@vbivaccines.com,www.vbivaccines.com,1 617 8303031,,"Suite 2241, 222 Third Street",Cambridge,Massachusetts,United States of America
Vect-horus,Health,JPM,,,,,,,,,,,
Vector Vitale,Health,JPM,,,,,,,,,,,
Vectura Group,Health,GlobalData,United Kingdom,453,$214,info@vectura.com,www.vectura.com,44 1249 667700,44 1249 667701,One Prospect West,Chippenham,Wiltshire,United Kingdom
Veloxis Pharmaceuticals ,Health,JPM,,,,,,,,,,,
Ventria Bioscience,Health,JPM,,,,,,,,,,,
Veracyte,Health,GlobalData,United States of America,270,$92,info@veracyte.com,www.veracyte.com,1 650 2436300,1 650 2436301,"Suite 300, 6000 Shoreline Court",South San Francisco,California,United States of America
Verastem,Health,GlobalData,United States of America,169,$27,,www.verastem.com,1 781 2924200,,"Suite 500, 117 Kendrick Street",Needham,Massachusetts,United States of America
Vericel,Health,GlobalData,United States of America,216,$91,mail@vcel.com,www.vcel.com,1 617 5885555,1 617 5885554,64 Sidney Street,Cambridge,Massachusetts,United States of America
Verily,Health,JPM,,,,,,,,,,,
Vernalis,Health,GlobalData,United Kingdom,115,$27,,www.vernalis.com,44 118 9380000,44 118 9380001,"100 Berkshire Place, Wharfedale Road",Winnersh,Berkshire,United Kingdom
Verndari,Health,JPM,,,,,,,,,,,
Verona Pharma,Health,GlobalData,United Kingdom,14,,,www.veronapharma.com,44 20 32834200,44 20 78633314,3 More London Place,LONDON,,United Kingdom
Verrica Pharmaceuticals,Health,GlobalData,United States of America,16,,info@verrica.com,www.verrica.com,1 484 4533300,,"Suite 200, 10 North High Street",Charlottesville,Pennsylvania,United States of America
VersaPeutics ,Health,JPM,,,,,,,,,,,
Verseon,Health,GlobalData,United States of America,14,,info@verseon.com,www.verseon.com,1 510 2259000,1 510 2259001,47071 Bayside Parkway,Fremont,California,United States of America
Vesselon,Health,JPM,,,,,,,,,,,
ViaCyte ,Health,JPM,,,,,,,,,,,
Vibliome Therapeutics ,Health,JPM,,,,,,,,,,,
Vical,Health,GlobalData,United States of America,30,$2,info@vical.com,www.vical.com,1 858 6461100,1 302 6555049,10390 Pacific Center Court,San Diego,California,United States of America
Vical orporated,Health,JPM,,,,,,,,,,,
Vifor Pharma,Health,GlobalData,Switzerland,"2,700","$1,620",,www.viforpharma.com,41 58 8528111,41 58 8528112,Rechenstrasse 37,ST. GALLEN,,Switzerland
Viking Therapeutics,Health,GlobalData,United States of America,15,,info@vikingtherapeutics.com,www.vikingtherapeutics.com,1 858 7044660,,"Suite 250, 12340 El Camino Real",San Diego,California,United States of America
Viracta Therapeutics,Health,JPM,,,,,,,,,,,
Visionary Pharmaceuticals,Health,JPM,,,,,,,,,,,
Vistara Bioscience ,Health,JPM,,,,,,,,,,,
Visterra ,Health,JPM,,,,,,,,,,,
Vitae Pharmaceuticals,Health,GlobalData,United States of America,56,$1,contact@vitaepharma.com,vitaepharma.com,1 215 4612000,1 215 4612006,502 West Office Center Drive,Fort Washington,Pennsylvania,United States of America
Vitruvias Therapeutics ,Health,JPM,,,,,,,,,,,
Vivacelle Bio ,Health,JPM,,,,,,,,,,,
Vivelix Pharmaceuticals,Health,JPM,,,,,,,,,,,
Vivreon Biosciences ,Health,JPM,,,,,,,,,,,
VolitionRX,Health,GlobalData,Singapore,44,,info@volitionrx.com,www.volitionrx.com,65 6 466501351,65 6 3337235,"1 Scotts Road, #24-05 Shaw Centre",Singapore City,,Singapore
Voyer Therapeutics,Health,GlobalData,United States of America,123,$8,info@voyagertherapeutics.com,www.voyagertherapeutics.com,1 857 2595340,,75 Sidney Street,Cambridge,Massachusetts,United States of America
vTv Therapeutics,Health,GlobalData,United States of America,52,$12,IR@vtvtherapeutics.com,www.vtvtherapeutics.com,1 336 8410300,1 336 8410310,4170 Mendenhall Oaks Parkway,High Point,North Carolina,United States of America
W. R. Grace & Co,Health,GlobalData,United States of America,"3,900","$1,932",,www.grace.com,1 410 5314000,,7500 Grace Drive,Columbia,Maryland,United States of America
Wacker Chemie,Health,GlobalData,Germany,"14,744","$5,875",info@wacker.com,www.wacker.com,49 89 62790,49 89 62791770,Hanns-Seidel-Platz 4,Munich,Bayern,Germany
Wakamoto Pharmaceutical,Health,GlobalData,Japan,339,$98,,www.wakamoto-pharm.co.jp,81 3 32790371,81 3 32796450,"2-2-2, Nihonbashi Honcho",Tokyo City,Tokyo,Japan
Walvax Biotechnology,Health,GlobalData,China,"1,089",$133,,www.walvax.com,86 871 68312659,86 871 68312567,"19th Floor, Building 9A, Dingyi Tiancheng Residential Quarter, Keyuan Road No. 99",Kunming,Yunnan,China
WAVE Life Sciences,Health,GlobalData,Singapore,250,$14,info@wavelifesci.com,www.wavelifesciences.com,65 62363388,,"No. 12-00, 7 Straits View, Marina One East Tower",Cambridge,,Singapore
Wellesley Pharmaceuticals ,Health,JPM,,,,,,,,,,,
West Pharmaceutical Services,Health,GlobalData,United States of America,"7,600","$1,717",webmaster@westpharma.com,www.westpharma.com,1 610 5942900,1 800 3459800,530 HERMAN O WEST DR,EXTON,Pennsylvania,United States of America
WEX Pharmaceuticals ,Health,JPM,,,,,,,,,,,
Willow Biopharma ,Health,JPM,,,,,,,,,,,
Wilson Therapeutics,Health,GlobalData,Sweden,16,,info@wilsontherapeutics.com,www.wilsontherapeutics.com,46 8 7960000,,Kungsgatan 3,STOCKHOLM,,Sweden
Windtree Therapeutics,Health,GlobalData,United States of America,49,$2,,www.windtreetx.com,1 215 4889300,1 215 4889301,"Suite 100, 2600 Kelly Road",Warrington,Pennsylvania,United States of America
WinSanTor,Health,JPM,,,,,,,,,,,
Wockhardt Pharma ,Health,JPM,,,,,,,,,,,
Wright Medical Group,Health,GlobalData,Netherlands,"2,894",$836,,www.wright.com,31 20 5214777,,Prins Bernhardplein 200,Amsterdam,Noord-Holland,Netherlands
WuXi AppTec,Health,GlobalData,China,"17,730","$2,907",info@wuxiapptec.com,www.wuxiapptec.com.cn,86 21 50461111,86 21 50461000,"No. 288 , Fute Middle Road, Waigaoqiao Free Trade Zone",Shanghai City,Shanghai,China
X-Chem ,Health,JPM,,,,,,,,,,,
XBiotech,Health,GlobalData,United States of America,56,,info@xbiotech.com,www.xbiotech.com,1 512 3862900,1 512 3865505,"Suite 100, Building 4, 8201 East Riverside Drive",Austin,Texas,United States of America
Xbrane Biopharma,Health,JPM,,,,,,,,,,,
Xencor,Health,GlobalData,United States of America,156,$41,info@xencor.com,www.xencor.com,1 626 3055900,,"2nd Floor, 111 West Lemon Avenue",Monrovia,California,United States of America
Xenikos,Health,JPM,,,,,,,,,,,
Xenon Pharmaceuticals,Health,GlobalData,Canada,89,,info@xenon-pharma.com,www.xenon-pharma.com,1 604 4843300,1 604 4843450,3650 Gilmore Way,Burnaby,British Columbia,Canada
XERIS Pharmaceuticals,Health,GlobalData,United States of America,90,$2,info@xerispharma.com,www.xerispharma.com,1 844 4455704,,"Suite 1810, 180 North LaSalle Street",Chicago,Illinois,United States of America
Ximbio,Health,GlobalData,,,,,,,,,,,
Xizang Haisco Pharmaceutical Group Co. ,Health,JPM,,,,,,,,,,,
XL-protein,Health,JPM,,,,,,,,,,,
Xomix ,Health,GlobalData,,,,,,,,,,,
XTuit Pharmaceuticals,Health,JPM,,,,,,,,,,,
Y-ms Therapeutics,Health,GlobalData,United States of America,32,,info@ymabs.com,www.ymabs.com,1 646 8858505,,"Suite 3350, 230 Park Avenue",New York,New York,United States of America
Yakult Honsha,Health,GlobalData,Japan,"25,993","$3,622",,www.yakult.co.jp,81 3 35748960,,"1-19, Higashi Shinbashi, 1-chome",Minato-ku,Tokyo,Japan
Yandex,Health,GlobalData,,,,,,,,,,,
Yao Pharmaceutical Group,Health,GlobalData,China,"5,742",$379,,www.yabao.com.cn,86 359 3388114,86 359 3388002,"11th Floor, Building 2, 11 Tianhua North Street, Beijing Economic and Technological Development Zone",Beijing,Beijing,China
Yeda Res & Development,Health,GlobalData,,,,,,,,,,,
Yifan Pharmaceutical,Health,GlobalData,China,"4,230",$700,yfxflilei@163.com,www.xinfupharm.com,86 571 63759205,,"No. 50, Qinshan, Jincheng Street, LinAn City",Hangzhou,Zhejiang,China
Yuhan,Health,GlobalData,South Korea,"1,594","$1,382",,eng.yuhan.co.kr,82 2 8280181,82 2 8280300,"74, Noryangjin-ro, Dongjak-gu",Dongjak-Gu,,South Korea
Yungjin Pharm,Health,GlobalData,South Korea,616,$170,,eng.yungjin.co.kr,82 2 20418200,82 2 20418202,"13, Olympic-ro 35da-gil",Seoul City,,South Korea
YungShin Global Holding,Health,GlobalData,Taiwan,"1,574",$249,ysh@yungshingroup.com,www.yungshingroup.com,886 4 22582382,886 4 22583305,"25th Floor-1, 402 Shizheng Road",Taichung City,Taizhong,Taiwan
Yunnan Baiyao Group,Health,GlobalData,China,"8,068","$4,038",ynby@yunnanbaiyao.com.cn,www.yunnanbaiyao.com.cn,86 871 66324159,86 871 66324169,222 Er' huan Xi Road,Kunming,Yunnan,China
Zafgen,Health,GlobalData,United States of America,38,,info@zafgen.com,www.zafgen.com,1 617 6224003,1 302 6555049,"4th Floor, 175 Portland Street",Boston,Massachusetts,United States of America
Zai L,Health,GlobalData,China,88,$0,info@zailaboratory.com,www.zailaboratory.com,86 21 61632588,86 21 61632570,"4th Floor, 4560 Jinke Road, Bldg 1",Pudong,Shanghai,China
Zai Lab,Health,JPM,,,,,,,,,,,
Zealand Pharma,Health,GlobalData,Denmark,149,$6,info@zealandpharma.com,www.zealandpharma.com,45 88 773600,45 88 773898,Smedeland 36,Glostrup,,Denmark
Zeria Pharmaceutical,Health,GlobalData,Japan,"1,753",$582,,www.zeria.co.jp,81 3 36632351,81 3 36632352,"10-11, Kobuna-cho, Nihonbashi, Chuo-ku",Tokyo,Tokyo,Japan
Zhangzhou Pientzehuang Pharmaceutical,Health,GlobalData,China,"2,233",$721,pzh@zzpzh.com,www.zzpzh.com,86 596 2301158,86 596 2302993,Shang Street,Zhangzhou,Fujian,China
Zhejiang Conba Pharmaceutical,Health,GlobalData,China,"9,334",$783,info@conbagroup.com,www.conbagroup.com,86 571 87774710,86 571 87774709,"NO.568, , Binkang Road, Binjiang Science and Technology Economic Park, High-tech Development Zone",Hangzhou city,Zhejiang,China
Zhejiang Hisoar Pharmaceutical,Health,GlobalData,China,"3,177",$411,,www.hisoar.com,86 576 89088179,86 576 89088258,"No. 100 , Waisha Zhi Road",Taizhou,Zhejiang,China
Zhejiang Hisun Pharmaceutical,Health,GlobalData,China,"9,871","$1,564",hisuncsc@hisunpharm.com,www.hisunpharm.com,,86 576 88827887,Sha Road 46,Taizhou,Zhejiang,China
Zhejiang Huahai Pharmaceutical,Health,GlobalData,China,"6,214",$740,,en.huahaipharm.com,86 576 85016116,86 576 85991062,Xunqiao,Linhai,Zhejiang,China
Zhejiang Jingxin Pharmaceutical,Health,GlobalData,China,"2,771",$445,international@jingxinpharm.com,www.jingxinpharm.com,86 575 86298518,86 575 86298596,No. 800 Xinchang East Road,Shaoxing,Zhejiang,China
Zhejiang Jiuzhou Pharmaceutical,Health,GlobalData,China,"2,943",$282,sale@jiuzhoupharma.com,www.jiuzhoupharma.com,86 576 88706789,86 576 88706788,"No.99, Waisha Road, Jiaojiang District",Taizhou,Zhejiang,China
Zhejiang Medicine,Health,GlobalData,China,"6,946",$842,,www.china-zmc.com,86 575 85211969,86 575 85211976,"3F, Tower A Compomsite Building, Kechuang Park, No.398 Mahuan Road",Shaoxing,Zhejiang,China
Zhejiang NHU Company,Health,GlobalData,China,"8,841",$923,,www.cnhu.com,,,"No.4 Jiangbei Road, Yulin Street",Shaoxing,Zhejiang,China
Zhejiang Xianju Pharmaceutical,Health,GlobalData,China,"3,828",$548,,www.xjpharma.com,86 576 87731178,86 576 87731187,,Taizhou,Zhejiang,China
Zhuhai Hokai Medical Instruments,Health,GlobalData,China,"1,440",$165,,www.hokai.com,86 756 8686333,86 756 8687168,"No.5 , Baosheng Road",Zhuhai,Guangdong,China
ZhuZhou QianJin Pharmaceutical,Health,GlobalData,China,"4,521",$503,,www.qian-jin.com,86 733 2496088,86 733 2496088,"No 15, Jingoushan Road",Zhuzhou,Hunan,China
Zimmer Biomet ,Health,GlobalData,United States of America,"19,000","$7,933",,www.zimmerbiomet.com,1 574 2676131,,345 East Main Street,Warsaw,Indiana,United States of America
ZIOPHARM Oncology,Health,GlobalData,United States of America,48,$0,info@ziopharm.com,www.ziopharm.com,1 617 2591970,1 617 2412855,"1 First Avenue, Parris Building, #34 Navy Yard Plaza",Boston,Massachusetts,United States of America
Zobrius Pharma,Health,JPM,,,,,,,,,,,
Zoetis,Health,GlobalData,,,,,,,,,,,
Zogenix,Health,GlobalData,United States of America,90,,info@zogenix.com,www.zogenix.com,1 858 2591165,,"Suite 455, 5858 Horton Street",Emeryville,California,United States of America
ZoneOne Pharma ,Health,JPM,,,,,,,,,,,
Zono Pharma,Health,GlobalData,United States of America,53,,bd@zosanopharma.com,www.zosanopharma.com,1 510 7451200,1 302 6555049,34790 Ardentech Ct,Fremont,California,United States of America
Zosano Pharma ,Health,JPM,,,,,,,,,,,
Zumutor Biologics ,Health,JPM,,,,,,,,,,,
Zynerba Pharmaceuticals,Health,GlobalData,United States of America,25,$0,,www.zynerba.com,1 484 5817505,,"Suite 300, 80 West Lancaster Avenue",Devon,Pennsylvania,United States of America